Id,City,Name,Address,Latitude,Longitude,StateCode
1,Sherwood,Shotgun Dans Pizza,4203 E Kiehl Ave,34.8323,-92.1838,AR
2,Phoenix,Sauce Pizza Wine,25 E Camelback Rd,33.509266,-112.073044,AZ
3,Cincinnati,Mios Pizzeria,3703 Paxton Ave,39.144883,-84.432685,OH
4,Madison Heights,Hungry Howies Pizza,30495 John R Rd,42.516669,-83.10663,MI
5,Baltimore,Spartan Pizzeria,3600 Eastern Ave,39.28663,-76.566984,MD
6,Berkeley,La Vals,1834 Euclid Ave,37.875496,-122.260345,CA
7,Tallahassee,Brickyard Pizza,4819 Kerry Forest Pkwy,30.537097,-84.215156,FL
8,Grand Rapids,Carrabbas Italian Grill,4061 28th St SE,42.912878,-85.566939,MI
9,Glendora,Domenicos Jr,146 N Glendora Ave,34.137502,-117.865331,CA
10,El Paso,Little Caesars Pizza,965 N Resler Dr,31.862409,-106.558431,TX
11,Raleigh,Tonys Pizza,8111 Rowlock Way,35.884857,-78.737707,NC
12,Philadelphia,Mikes Pizza,4111 Main St,40.022413,-75.218579,PA
13,New Orleans,Theos Neighborhood Pizza,4024 Canal St,29.974032,-90.100317,LA
14,DeLand,Hungry Howies Pizza,1584 N Woodland Blvd,29.046703,-81.303817,FL
15,New York,Salvos Pizzabar,1477 York Ave,40.770825,-73.95102,NY
16,Jacksonville,Little Caesars Pizza,9600 San Jose Blvd,30.204576,-81.785252,FL
17,Canton,Curry on Crust,45490 Ford Rd,42.322403,-83.488782,MI
18,Milpitas,Pizza Box,1253 Jacklin Rd,37.4478,-121.8878,CA
19,Poughkeepsie,Tonys Pizza Pit,786 Main St,41.696049,-73.901679,NY
20,Arlington,Italy Pizza Pasta Subs,2221 Browning Dr,32.707464,-97.085036,TX
21,Tucson,Hungry Howies Pizza,150 N Pantano Rd,32.223015,-110.822913,AZ
22,Washington Crossing,Dominicks Pizzeria Italian Restaurant,1250 Gen. Washington Blvd.,40.292365,-74.872428,PA
23,Traverse City,Thats a Pizza,3860 N Long Lake Rd,44.757113,-85.652529,MI
24,Michigan City,Albanos Villa,1612 Franklin St,41.707275,-86.896541,IN
25,Warminster,Tonys Place Bar and Grille,1237 Greeley Ave,40.213458,-75.070133,PA
26,Sherrill,Sherrill New York Pizzeria,121 E Seneca St,43.076696,-75.597597,NY
27,Glendale,Pizza Boy,1321 E Colorado St,34.142767,-118.236607,CA
28,Denver,Cosmos Pizza,550 Grant St,39.725069,-104.983255,CO
29,Hicksville,Piazza Pizza,22 Newbridge Rd,40.767099,-73.527878,NY
30,Buffalo,Macys Place Pizzeria,3348 Genesee St,42.925755,-78.761238,NY
31,Glendale,Arizona Pizza Company,8110 W Union Hills Dr,33.65357,-112.233595,AZ
32,Johnstown,Pizzaburg,90 S Main St,40.152074,-82.68329,OH
33,North Las Vegas,DeLucias Pizzeria,2345 E Centennial Pkwy,36.274975,-115.11845,NV
34,Alexandria,Wildwood Pizza,1260 Texas Ave Ste H,31.288586,-92.47294,LA
35,Paradise Valley,Pomo,8977 N Scottsdale Rd,33.566876,-111.925361,AZ
36,Greensboro,Hungry Howies Pizza,1608 W Friendly Ave,36.075201,-79.814066,NC
37,Youngstown,Bruno Bros Pizza,8381 Market St,40.996343,-80.66232,OH
38,Houston,Milanos Pizzeria Italian Grill,9135 W Sam Houston Pkwy N,29.904366,-95.554944,TX
39,Abilene,DoubleDaves PizzaWorks,4001 John Knox Dr,32.403556,-99.767292,TX
40,Phoenix,Ray's Pizza,3414 W Union Hills Dr,33.65465,-112.13275,AZ
41,Iowa City,Papa Murphys,2300 Muscatine Ave,41.649871,-91.501576,IA
42,Orlando,Famas Ristorante,5474 Central Florida Pkwy,28.407027,-81.45003,FL
43,Charlotte,Angelas Italian Restaurant,9705 Mintworth Ave,35.172024,-80.708379,NC
44,Woodside,Mama Carmelas Pizza,4914 30th Ave,40.760309,-73.907433,NY
45,Edmond,Stars Stripes Pizza,346 S Santa Fe Ave,35.651611,-97.512964,OK
46,New York,East Broadway Pizza,181 E Broadway,40.714197,-73.989389,NY
47,Rockville Centre,Bonbinos Pizzeria,607 Merrick Rd,40.654078,-73.630974,NY
48,New York,Dona Bella Pizza,154 Church Steet,40.71499,-74.00785,NY
49,Fort Washington,Lucianis Brick Oven Pizzeria,471 Pinetown Rd,40.138935,-75.195355,PA
50,Riverside,Romanos Chicago Pizzeria,285 E Alessandro Blvd,33.915287,-117.328837,CA
51,Fountain Hills,Redendos Pizzeria,16948 E Shea Blvd,33.574011,-111.713952,AZ
52,Arcadia,Alex DiPeppes,140-142 Las Tunas Dr,34.107567,-118.036182,CA
53,Altamonte Springs,Papa Joes,1090 Montgomery Rd,28.686584,-81.403849,FL
54,Alameda,Bowzers Pizza,1330 Park St,37.763389,-122.243626,CA
55,Santa Fe,Il Vicino,321 W San Francisco St,35.688306,-105.942629,NM
56,Lafayette,Bisbano's Pizza Parlor,1540 Johnston St,30.213724,-92.02302,LA
57,Indianapolis,Bazbeaux Pizza,329 Massachusetts Ave,39.77139687,-86.15371764,IN
58,Saint Francis,Papa Murphys,4698 S Whitnall Ave,42.960947,-87.879166,WI
59,El Segundo,zpizza,829 N Douglas St,33.927667,-118.383589,CA
60,Midlothian,A New York Slice,133 Browns Way Rd,37.501901,-77.638267,VA
61,Alamosa,SLV Pizza Company,1210 8th St,37.46426,-105.874387,CO
62,Altamonte Springs,Specialty Pizza Express,1185 Spring Centre South Blvd,28.687632,-81.392252,FL
63,Fort Collins,Krazy Karls Pizza,1124 W Elizabeth St,40.575048,-105.097184,CO
64,Brooklyn,Royal Kings Pizza,5211 5th Ave,40.6437,-74.01174,NY
65,New Baltimore,Hungry Howies Pizza,30130 23 Mile Rd,42.674001,-82.805755,MI
66,Springfield,Coburg Pizza Company,1710 Centennial Blvd,44.056504,-122.999237,OR
67,Saint Paul,Adagios Lounge,2052 Silver Lake Rd NW,45.084414,-93.219456,MN
68,Raleigh,Slice Of NY Pizza,1016 Shoppes At Midway Dr.,35.797972,-78.506541,NC
69,Lancaster,Carusos,1908 Fruitville Pike,40.074518,-76.321617,PA
70,Laguna Niguel,Ball Park Pizza,30120 Town Center Dr,33.525716,-117.713851,CA
71,Chattanooga,Pronis,5001 Brainerd Rd,35.012252,-85.225615,TN
72,Baltimore,Joe Squared Pizza Bar,33 W North Ave,39.310817,-76.618073,MD
73,Kent,The Rock Wood Fired Pizza,17309 SE 270th Pl,47.359016,-122.110754,WA
74,Clemson,Peppinos Pizzeria,384 College Ave,34.684486,-82.836888,SC
75,Portsmouth,Sals Famous NY Pizza,1204 Airline Blvd,36.828796,-76.345529,VA
76,Iowa City,Pizza On Dubuque,5 S Dubuque St,41.660914,-91.533046,IA
77,Evansville,Turonis ForGetMeNotInn,4 N Weinbach Ave,37.977367,-87.529583,IN
78,Westland,Slice of the 80s,34747 Warren Rd,42.338678,-83.384055,MI
79,Cleveland,Vicinato Pizzeria,5080 Mayfield Rd,41.519392,-81.496914,OH
80,Philadelphia,Station Pizza,14102 Bustleton Ave,40.132022,-75.012182,PA
81,Farmington,Tomatoes Apizza,24369 Halsted Rd,42.470581,-83.416307,MI
82,Orlando,Elegante Market,9901 Hawaiian Ct,28.423717,-81.462497,FL
83,Long Beach,Papa Johns Pizza,5107 Beatline Rd,30.362297,-89.187413,MS
84,Evansville,Mama Romas Pizza XPress,2008 E Morgan Ave,37.991996,-87.528558,IN
85,Macomb,Shields Pizza,50750 Romeo Plank Rd,42.670278,-82.939613,MI
86,Saint Louis,Maurizios Pizza and Pasta Bowl,1107 Olive St,38.628915,-90.195749,MO
87,Philadelphia,Key Pizza,1846 S 12th St,39.926386,-75.165476,PA
88,Scarsdale,Italian Village Pizza,1084 Wilmot Rd,40.984578,-73.777588,NY
89,Tempe,Guss New York Style Pizza,933 E University Dr,33.421198,-111.925059,AZ
90,Elkton,Pats Pizzeria,224 S Bridge St,39.602665,-75.82961,MD
91,Mesa,Peter Piper Pizza,9047 E. Baseline Rd.,33.378746,-111.638521,AZ
92,Essex,Bello Vitos,6048 Rossville Blvd,39.33409,-76.477199,MD
93,Brooklyn,Franklin Pizza,109 Franklin St,40.729763,-73.95753,NY
94,San Francisco,Patxiâ€™s Pizza,4042 24th St,37.75143,-122.432856,CA
95,Port Richey,Alpha Pizza,8123 Ridge Rd,28.280991,-82.680089,FL
96,Morrisville,Francos Tomato Pies,175 S Main St,40.236428,-74.83164,PA
97,Savannah,Screamin Mimis Pizza And Subs,513 E Oglethorpe Ave,32.074957,-81.087512,GA
98,Belleville,Papa Vitos Pizza,318 E Washington St,38.51237,-89.979237,IL
99,Lewis Center,Tarantos Pizzeria,1282 E Powell Rd,40.156198,-83.001083,OH
100,Reno,Papa Johns Pizza,770 S Meadows Pkwy Ste 103,39.438251,-119.756118,NV
101,Glen Allen,Two Guys Pizza,11636 W Broad St,37.653011,-77.613387,VA
102,Gulfport,Tonys Brick Oven Pizzeria,2417 14th,30.368069,-89.092309,MS
103,Nashville,Obies Pizza,2217 Elliston Pl,36.151254,-86.804068,TN
104,Carmichael,Mountain Mikes Pizza,4141 Manzanita Ave,38.640666,-121.328287,CA
105,Lewes,Mr Ps Pizza,1004 Kings Hwy,38.760778,-75.145791,DE
106,Mount Pleasant,Pisanellos Pizza,110 N Main St,43.604819,-84.776472,MI
107,Alexandria,Papa Johns Pizza,4529 Duke St,38.812965,-77.110592,VA
108,Antioch,Straw Hat Pizza,3001 Delta Fair Blvd,37.99891,-121.838561,CA
109,Chandler,Pizza On 87,1368 N Arizona Ave Ste 101,33.327123,-111.842775,AZ
110,Waterloo,Papa Vito's Pizza,223 W Mill St,38.3358,-90.1531,IL
111,Noblesville,Pizza King,1225 S 10th St,40.035328,-86.01213,IN
112,Marietta,Marietta Pizza Company,3901 Mary Eliza Trace,33.966886,-84.665362,GA
113,Wake Forest,PTA Pizza Hoagie,12277 Capital Blvd,35.981014,-78.540873,NC
114,San Diego,Pizza Port Brewing Company,1956 Bacon St,32.748009,-117.250295,CA
115,Charleston,Mia Pomodori,212 Rutledge Ave,32.789445,-79.946849,SC
116,Reeds Spring,Pizza By The Chef,18050 Business 13 Unit B,36.695625,-93.369907,MO
117,Lawrence,Pyramid Pizza,1029 Massachusetts St,38.9651,-95.236,KS
118,Orland Park,Traversos Pizza Restaurant,15601 S Harlem Ave,41.608957,-87.793849,IL
119,Ozone Park,Luigis Pizza,10402 Atlantic Ave,40.690068,-73.840815,NY
120,Brooklyn,Tonys Pizza,1107 Rutland Rd,40.664732,-73.923207,NY
121,Deer Park,Tonys Pizza,1829 Deer Park Ave,40.758695,-73.327918,NY
122,Davenport,Pizzanos Pizza Grinderz,126 California Blvd,28.292761,-81.665247,FL
123,Beaumont,Mazzios Pizza,5025 Eastex Fwy,30.121609,-94.150623,TX
124,Riverdale,Dumms Pizza,4704 Riverdale Rd,38.962046,-76.93484,MD
125,Westminster,Danos Pizzeria,16505 Heil Ave,33.722834,-117.972326,CA
126,Oviedo,Little Caesars Pizza,2200 Winter Springs Blvd,28.672778,-81.224444,FL
127,Los Angeles,Crispy Crust Pizza,3111 Glendale Blvd,34.116565,-118.260933,CA
128,Madison,Ians Pizza by the Slice,319 N Frances St,43.072948,-89.395637,WI
129,Riverside,Romanos Family Italian Restaurant,5225 Canyon Crest Dr,33.956641,-117.331733,CA
130,Columbus,The Pub in Gahanna,207 W Johnstown Rd,40.017252,-82.885452,OH
131,San Antonio,Luciano Express Rivercenter Mall,849 E Commerce St Ste 157,29.42357,-98.484701,TX
132,Austin,Mangieris Pizza Cafe,2133 Lohmans Crossing Rd,30.34222,-97.969935,TX
133,Philadelphia,Giovannis Pizza,5604 Greene St,40.033556,-75.175527,PA
134,Fullerton,Fuoco Pizzeria Napoletana,101 N Harbor Blvd,33.870623,-117.924458,CA
135,Pompano Beach,Stingers Bar Pizzaria,1201 S. Ocean Blvd. (A1A),26.222717,-80.091804,FL
136,Suffern,Il Villaggio Pizzeria,75 Lafayette Ave,41.11518,-74.150799,NY
137,Chicago,Lonnies Pizzeria,8343 W Irving Park Rd,41.951933,-87.836669,IL
138,Flowery Branch,Johnnys New York Style Pizza,7363 Spout Springs Road,34.110972,-83.874223,GA
139,Oak Ridge,Bills Pizza Pub,1431 NC Highway 68 N,36.164904,-79.984403,NC
140,Saginaw,Good Times Pizza,4582 State St,43.438692,-84.006524,MI
141,Fresh Meadows,Reginas Pizzeria,17649 Union Tpke,40.725954,-73.791734,NY
142,Sierra Madre,Villagio Pizzeria,41 N Baldwin Ave,34.162741,-118.052691,CA
143,Hicksville,Dantes Pizzeria,285 S Broadway,40.76265,-73.516777,NY
144,Myrtle Beach,Ultimate California Pizza,1502 Highway 17 N,33.623753,-78.970276,SC
145,Miami,Romans Pizzeria,391 N Royal Poinciana Blvd,25.826305,-80.287501,FL
146,Oakland,Razzos,4312 MacArthur Blvd,37.78713,-122.194414,CA
147,Albuquerque,Amore,3600 Cutler Ave NE,35.08161,-106.61275,NM
148,New York,Famous Amadeus Pizza,616 Amsterdam Ave,40.79013,-73.973197,NY
149,Dallas,Tomato Pie,11661 Preston Rd,32.909301,-96.805238,TX
150,Conway,Larrys Pizza Conway,1068 Markham St,35.092948,-92.439413,AR
151,Jensen Beach,Caps Island Grille,10999 S Ocean Dr,27.264124,-80.202568,FL
152,Brentwood,Papa Murphys Pizza,8113 Moores Ln,35.965384,-86.801143,TN
153,North Tonawanda,The WurliTzer Pizza Co,1401 Nash Rd,43.060997,-78.865475,NY
154,Los Angeles,Papis Pizzeria,109 E 8th St,34.042482,-118.252786,CA
155,Ridgewood,Carlos Pizza,575 Seneca Ave,40.704542,-73.910649,NY
156,Leola,Rosarios Pronto Pizza Italian Restaurant,289 W Main St,40.085942,-76.20824,PA
157,Monroe,Big Mikes Pizza And Pasta,554 State Route 17M,41.321164,-74.181577,NY
158,Cleveland,Lupis Pizza,2382 N Ocoee St,35.177025,-84.86655,TN
159,San Antonio,Alamo Pizza,3938 S Zarzamora St,29.385755,-98.532876,TX
160,Avondale,Palermos Pizza 2,1579 W McDowell Rd,33.463851,-112.338715,AZ
161,Kansas City,Old Shawnee Pizza,2422 S 34th St,39.057669,-94.668251,KS
162,Utica,Francos Pizza,411 Trenton Ave,43.116936,-75.210664,NY
163,Brooklyn,Pizza World,1387 Coney Island Ave,40.623776,-73.964585,NY
164,Midvale,Big Daddys Pizza,7669 S 700 E,40.611632,-111.87117,UT
165,Avondale,Bravos Pizza of Avondale,817 Gap Newport Pike,39.835408,-75.797744,PA
166,Glendale,Streets of New York,5843 W Thunderbird Rd,33.609418,-112.185001,AZ
167,Hoffman Estates,Sir Nicks Pizza,1441 Palatine Rd,42.109723,-88.114846,IL
168,Enola,Als Pizza Subs,407 N Enola Rd,40.299281,-76.929266,PA
169,Pottstown,Tornettas Pizzeria,104 Wilson St,40.260837,-75.643603,PA
170,Florence,LaRosas Pizzeria Mt Zion,280 Mount Zion Rd,38.956832,-84.626501,KY
171,Chicago,Lucky Vitos Pizzeria,2171 N Milwaukee Ave,41.920797,-87.693446,IL
172,Indianapolis,Barlos Pizzeria,1345 W Southport Rd,39.663295,-86.18391,IN
173,Santa Ana,Rubinos Pizza,128 W MacArthur Blvd,33.699692,-117.869327,CA
174,Nesconset,Giorgios Pizzeria and Italian Ristorante,224 Smithtown Blvd,40.834299,-73.149858,NY
175,Philadelphia,LaScalas,1701 John F Kennedy Blvd,39.954332,-75.168705,PA
176,Oxnard,Toppers Pizza,2100 Saviers Rd,34.179341,-119.176972,CA
177,Little Neck,Grimaldis,24202 61st Ave,40.75432,-73.739834,NY
178,Orlando,Goodfellas Pizza,11865 E Colonial Dr,28.568121,-81.20589,FL
179,Warner Robins,Allens Stone Baked Pizza,115 Margie Dr Ste A,32.621373,-83.690373,GA
180,Cedar Park,Yaghis Pizzeria,920 N Vista Ridge Blvd Ste 550,30.531015,-97.791043,TX
181,Milwaukee,Organ Piper Pizza Palace,4353 S 108th St,42.965297,-88.048488,WI
182,Chesterfield,East Coast Pizza,17304 Chesterfield Airport Rd,38.668069,-90.60108,MO
183,Lincoln,Yia Yias,1423 O St,40.813599,-96.70054,NE
184,Brooklyn,J V Pizzeria,6316 18th Ave,40.619841,-73.989539,NY
185,Philadelphia,The Pizza Shop,1451 E Columbia Ave,39.974466,-75.13269,PA
186,Eden Prairie,Davannis Pizza and Hot Hoagies,8061 Flying Cloud Dr,44.857508,-93.425734,MN
187,New York,Picasso Pizzeria,303 S End Ave,40.710243,-74.016011,NY
188,Saint Charles,Giordanos,3641 E Main St,41.920038,-88.271585,IL
189,San Bruno,Totos Pizzeria Restaurant,1690 El Camino Real,37.613777,-122.404603,CA
190,Melville,Sbarro,401 Broadhollow Rd,40.795179,-73.410693,NY
191,Coralville,Falbo Bros Pizzeria,2100 Norcor Ave,41.703666,-91.586744,IA
192,Sedona,Moon Dogs Pizza,2490 W State Route 89A,34.863223,-111.803756,AZ
193,Hemet,The Big Cheese Pizza Co,1265 S State St,33.72854,-116.973359,CA
194,Latonia,LaRosas Pizzeria Latonia,5128 Taylor Mill Rd,39.018053,-84.506205,KY
195,Goleta,Rustys Pizza Parlor,270 Storke Rd,34.428958,-119.869467,CA
196,Wichita,Knollas Pizza,7732 E Central Ave,37.69484,-97.245802,KS
197,Chicago,Petes Pizzeria 2,5847 W Montrose Ave,41.960334,-87.773985,IL
198,Seaford,Pantanos,3535 Merrick Rd,40.665468,-73.500011,NY
199,Dallas,Campisis Restaurant Lovers Lane,5405 W Lovers Ln,32.851471,-96.820177,TX
200,Arlington,Pupatella Neapolitan Pizza,5104 Wilson Blvd,38.877608,-77.122194,VA
201,Bronx,Franks Pizza Restaurant,4106 E Tremont Ave,40.818721,-73.817239,NY
202,Northport,La Casa Pizza,1014-06 Fort Salonga Rd,40.906588,-73.316074,NY
203,Lexington,La Gourmet Pizza,325 W Main St,38.04895,-84.499832,KY
204,Bensalem,Allstar Pizza,2345 Street Rd,40.105094,-74.94951,PA
205,Ashland,Pepicellis,208 S Washington Hwy,37.755605,-77.471636,VA
206,Indianapolis,Thr3e Wise Men Brewing Co,1021 Broad Ripple Ave,39.869579,-86.140708,IN
207,Brooklyn,Vesuvius Pizza,1800 Kings Hwy,40.60992,-73.955536,NY
208,Crown Point,Papa Johns Pizza,219 N Main St Ste B,41.421409,-87.365079,IN
209,Madison Heights,Papa Johns Pizza,113 Seminole Plz,37.442732,-79.118629,VA
210,Memphis,Lost Pizza Co Memphis TN,2855 Poplar Ave,35.133587,-89.966259,TN
211,Arlington,Ninos Pasta Pizza,2800 Forestwood Dr,32.785203,-97.065359,TX
212,Orlando,Juniors Pizza More 2,13212 East Colonia Dr.,28.563889,-81.183198,FL
213,San Diego,Rosaria Pizza,4719 Point Loma Ave,32.735444,-117.253446,CA
214,New York,Pizza Da Solo,550 Madison Ave,40.761467,-73.973505,NY
215,Miami,La Montanara Restaurant,18851 NE 29th Ave Ste 102,25.950503,-80.141549,FL
216,Bothell,The Rock Wood Fired Pizza,1918 201st Pl SE,47.814792,-122.207248,WA
217,Philadelphia,Drexel Pizza,107 N 33rd St,39.958008,-75.189106,PA
218,Atlanta,Rays New York Pizza,26 5th St NW,33.776749,-84.388042,GA
219,Salida,Amicas Wood Fired Pizza Microbrews,127 F St,38.535107,-105.991793,CO
220,Astoria,Grand Avenue Pizza,3424 30th Ave,40.765323,-73.918233,NY
221,Drexel Hill,Drexel Hill Pizza,4603 State Rd,39.950501,-75.311856,PA
222,New York,Gruppo,98 Avenue B,40.724745,-73.981486,NY
223,Fort Lauderdale,Scuottos Pizza Pasta,3455 N Hiatus Rd,26.170221,-80.297026,FL
224,Baltimore,Fortunato Brothers,6374 York Rd,39.373004,-76.610682,MD
225,Olympia,Infernos Brick Oven Pizza,8825 Tallon Ln NE Ste I,47.059424,-122.752768,WA
226,Middle Village,Phillies Pizza,74-02 Eliot Ave,40.721953,-73.885429,NY
227,Tulsa,Marleys Chicago Style Pizzeria,6104 E 71st St,36.06036,-95.907617,OK
228,Ravenna,Sicilianos,974 E Main St,41.157029,-81.227105,OH
229,East Syracuse,Pavones Pizza,5781 Bridge St,43.051332,-76.070799,NY
230,Flower Mound,Papa Johns Pizza,2201 Justin Rd,33.072195,-97.062672,TX
231,Athens,Peppinos Pizza,190 E Whitehall Rd.,33.898491,-83.365457,GA
232,Northampton,Marios Pizza,851 Main St,40.676956,-75.487083,PA
233,Millwood,Tonino Pizzeria Contorni,238 Saw Mill River Rd,41.18839,-73.802983,NY
234,Philadelphia,Top Tomato Pizza Cafe,1107 Walnut St,39.94897,-75.15934,PA
235,West Chester,Fratellis Pizzeria,6890 Tylersville Rd,39.357537,-84.395632,OH
236,Saint Paul,Punch Neapolitan Pizza,8310 City Centre Dr.,44.920463,-92.938054,MN
237,Toledo,The Original Ginos Pizza,1280 W Alexis Rd,41.721845,-83.573882,OH
238,Thornwood,Silvios Restaurant Pizzeria,628 Columbus Ave,41.11407,-73.77097,NY
239,Rapid City,Piesanos Pacchia,3618 Canyon Lake Dr,44.070654,-103.27996,SD
240,Palm Harbor,Ginos NY Style Pizzeria,35977 US Highway 19 N,28.099059,-82.739446,FL
241,Wauconda,JJ Twigs Pizza Pub,1200 N Old Rand Rd,42.277924,-88.149651,IL
242,Hudson,Dough Boys Pizza,529 2nd St,44.975726,-92.757675,WI
243,Flushing,Ginos Pizzeria,25-19 Parsons Blvd,40.776062,-73.823598,NY
244,Gainesville,Leonardos Pizza,4131 NW 16th Blvd,29.673127,-82.388085,FL
245,Franklin,Mineos Wings Pizza Raw Bar,330 Mayfield Dr,35.954554,-86.802917,TN
246,Pittsburgh,Sorrentos Pizza Roma,233 Atwood St,40.440402,-79.956595,PA
247,South Lake Tahoe,Lake Tahoe Pizza Company,1168 Emerald Bay Rd,38.907755,-120.001779,CA
248,Louisville,Bearnos,1318 Bardstown Rd,38.23479,-85.714527,KY
249,Palm Desert,Papa Dans Pizza,73131 Country Club Dr,33.757395,-116.388002,CA
250,New York,Toms Delicious Pizza,3161 Broadway,40.814833,-73.958966,NY
251,Redondo Beach,Riviera Village Pizza,1725 S Catalina Ave,33.817638,-118.388025,CA
252,Forest Hills,Mikes Pizzeria,7175 Yellowstone Blvd,40.720713,-73.855257,NY
253,Washingtonville,Brother Brunos Pizzeria Restaurant,40 Brotherhood Plaza Dr,41.429823,-74.163165,NY
254,Alpharetta,Johnnys Pizza,9950 Jones Bridge Rd,34.046952,-84.226745,GA
255,Tarrytown,Hollywood North Pizza,95 Beekman Ave,41.084046,-73.863171,NY
256,Fairview Heights,Johnnys Pizza Pasta,4628 N Illinois St,38.571857,-89.983625,IL
257,East Lansing,Georgios Pizza,1010 E Grand River Ave,42.731341,-84.470843,MI
258,Spring,Greek Tonys Pizza Sub Shop,438 Sawdust Rd,30.127813,-95.448983,TX
259,Cleveland,Gabriels,2625 Keith St NW,35.18558,-84.872179,TN
260,Granada Hills,Big mama papas pizza,10666 Zelzah Ave,34.264234,-118.52307,CA
261,Ashland,Standing Stone Brewing Company,101 Oak St,42.197621,-122.714487,OR
262,Kingston,Kings Pizza,1 Wall St,41.924422,-74.013289,NY
263,Salisbury,Specific Gravity Pizzeria Beer Joint,105 E College Ave,38.348242,-75.597122,MD
264,Durango,Diorios South Pizza,600 Main Ave,37.270322,-107.881522,CO
265,Petersburg,Marias Old Town 21,21 W Old St,37.233005,-77.405514,VA
266,Cleveland,Rascal House,1836 Euclid Ave,41.501097,-81.678001,OH
267,Miami Beach,Groovys Pizza,921 Washington Ave,25.779851,-80.132911,FL
268,Petaluma,Old Chicago Pizza,203 N McDowell Blvd,38.250343,-122.628761,CA
269,Durham,Rudinos Pizza Grinders,1515 N Pointe Dr,36.027685,-78.915746,NC
270,San Marcos,Station Pizza Deli,1531 W Mission Rd,33.150886,-117.193875,CA
271,Saint Paul,Carbones Pizza,1665 Yankee Doodle Rd,44.833982,-93.177622,MN
272,New York,Posto,310 2nd Ave,40.734737,-73.983049,NY
273,Costa Mesa,Pitfire Artisan Pizza,353 E 17th St,33.631669,-117.913761,CA
274,Brunswick,FatBobs Pizza,1739 Pearl Rd,41.227417,-81.840927,OH
275,Fairfield,LaRosas Pizzeria Fairfield,5130 Camelot Dr,39.335866,-84.52986,OH
276,Bakerstown,Olive Peppers,6052 William Flynn Hwy,40.660149,-79.93373,PA
277,New City,New City Pizza,210 S Main St,41.139813,-73.98938,NY
278,Wylie,Napolis Pizza,701 N Highway 78,33.016412,-96.531957,TX
279,Sidney,Sam Louies New York Pizza,824 10th Ave,41.14524,-102.977038,NE
280,Mechanicsburg,JoJos Pizza Pasta,107 W Main St,40.212503,-77.01056,PA
281,Cary,New York Pizza,2763 NC 55 Hwy,35.78596,-78.87249,NC
282,Shrub Oak,Francescas Pizza,1356 E Main St,41.327322,-73.83725,NY
283,Valley Cottage,Dee Marias,482 Kings Hwy,41.119631,-73.949753,NY
284,Seal Beach,zpizza,148 Main St,33.741276,-118.104753,CA
285,Saint Louis,Imos Pizza,23 N Bemiston Ave,38.651052,-90.33693,MO
286,Cornelius,Bellacinos Pizza Grinders,20129 N Main St,35.483189,-80.859475,NC
287,New York,Giuseppes Pizza,341 Lexington Ave,40.749753,-73.97724,NY
288,Fayetteville,Pies On Pizza and Pasta,375 Lanier Ave E,33.45037,-84.437949,GA
289,Cincinnati,LaRosas Pizzeria,4836 Cooper Rd,39.231333,-84.375957,OH
290,Toledo,Capers Pizza Bar,2038 S Byrne Rd,41.601237,-83.62574,OH
291,Halethorpe,Sorrentos Of Arbutus,5401 East Dr,39.2492,-76.693493,MD
292,Bronx,Roma Pizza,1302 Castle Hill Ave,40.834398,-73.851803,NY
293,Bayside,Jacks Pizzeria,212-49 26th Ave,40.779292,-73.777343,NY
294,Austin,360 UNO,3801 N Capital of Texas Hwy,30.336736,-97.803884,TX
295,Long Beach,Ginos of Long Beach,16 W Park Ave,40.58842,-73.664602,NY
296,Thousand Oaks,Toppers Pizza Place,1416 N Moorpark Rd,34.197704,-118.86805,CA
297,Chicago,Cafe Luigi,2548 N Clark St,41.929078,-87.642571,IL
298,Philadelphia,Accu Pizza,4802 Spruce St,39.953614,-75.218341,PA
299,Smithtown,Don Jonos Pizzeria,975 W Jericho Tpke,40.848729,-73.2476,NY
300,Brooklyn,Lennys Pizza,1845 Nostrand Ave,40.64067,-73.948433,NY
301,Jacksonville,Abes Pizza,12192 Beach Blvd,30.287178,-81.496577,FL
302,Cibolo,Catalanos Pizzeria,102 N Main St,29.561918,-98.227211,TX
303,Spokane,Savage Land,700 S Dishman Rd,47.65045,-117.28044,WA
304,Sedona,Famous Pizza,3190 W State Route 89A,34.861398,-111.816132,AZ
305,Hampton,Papa Johns Pizza,2217 Kecoughtan Rd,37.003059,-76.379426,VA
306,Kalamazoo,Jaspares Pizza Fine Italian Food,6050 Gull Rd,42.320011,-85.52716,MI
307,Charleston,Sabatinos NYC Pizza,151 Calhoun St,32.785633,-79.936788,SC
308,Lincoln,Blue Mountain Smokehouse Pizza,8600 Amber Hill Ct,40.735713,-96.602018,NE
309,Buffalo,Just Pizza Wing Co,2350 Delaware Ave,42.948045,-78.868886,NY
310,Aurora,Lubos New York Pizza,15352 E Ida Dr Unit H,39.611572,-104.809421,CO
311,Fayetteville,US Pizza Co,202 W Dickson St,36.066691,-94.161982,AR
312,Swansea,Paparonis Pizza,235 W 3rd St,33.745715,-81.086776,SC
313,New Smyrna Beach,Panheads Pizza,113 S Orange St,29.023665,-80.925125,FL
314,Norristown,Primos Brick Oven Pizza,772 E Johnson Hwy,40.12517,-75.317626,PA
315,Springboro,Carmelas Pizzeria Springboro,40 E Central Ave,39.556702,-84.231999,OH
316,Broomfield,Double Ds Sourdough Pizzeria and Taphouse,"535 Zang St, Broomfield, CO",39.927562,-105.133654,CO
317,New York,Joey Pepperonis Pizza,381 Broadway,40.71812,-74.003042,NY
318,Highland,Pizza Mia,3650 US 9W,41.702977,-73.96605,NY
319,Jamaica,Johns Pizza,83-40 Parsons Blvd,40.714599,-73.807591,NY
320,Port Jefferson,Vincenzos Pizzeria,109 Main St,40.946321,-73.069032,NY
321,Waukegan,Jacks Pizza Burgers,1000 N Green Bay Rd,42.375039,-87.883344,IL
322,Irwin,Pizza Gyro Express,11232 McKee Rd,40.316689,-79.731172,PA
323,Gilbert,Prima Pizza,3651 E Baseline Rd,33.3777,-111.753371,AZ
324,Suwanee,Marcos Pizza,425 Buford Highway NW,34.054862,-84.067817,GA
325,Indianapolis,Little Caesars Pizza,3850 N Post Rd,39.82715,-86.010261,IN
326,Downers Grove,Skuddlebutts Pizza,440 Ogden Ave,41.809708,-87.997404,IL
327,Oxon Hill,Franks Pizza Italia,6308 Livingston Rd,38.802821,-76.987969,MD
328,Salinas,Pizza Factory,926 S Main St,36.663546,-121.657701,CA
329,Spruce Pine,The Pizza Shop Dry County Brewing Company,585 Oak Ave,35.915846,-82.06355,NC
330,Knoxville,Brixx Wood Fired Pizza,7403 Kingston Pike,35.92972,-84.03249,TN
331,Rockmart,Pizza Farm,734 Knox Mountain Road,34.016486,-85.006056,GA
332,Miami,Piccolo Pizza,2104 NE 123rd St,25.889187,-80.156527,FL
333,San Francisco,Gioia Pizzeria,2240 Polk St,37.797457,-122.422083,CA
334,New Berlin,Crossroads II,13976 W Beloit Rd,42.955455,-88.08882,WI
335,Ridgewood,Royal Pizza Restaurant,5506 Myrtle Ave,40.699917,-73.908457,NY
336,Southaven,Avellinos,775 Goodman Rd E,34.961509,-89.974807,MS
337,Des Plaines,Romanos,9785 W Higgins Rd,41.993958,-87.870327,IL
338,Whitestone,Gigis Pizzeria,2009 Francis Lewis Blvd,40.779976,-73.802135,NY
339,Woodbury,Franks Gourmet Pizza,141B Woodbury Road,40.828733,-73.461518,NY
340,Glenside,Apollo Pizza,112 S Easton Rd,40.100225,-75.153969,PA
341,Findlay,Bellacinos Grinders Pizza,2320 Tiffin Ave Ste B,41.057089,-83.59662,OH
342,Decatur,Pizza King Decatur,310 E Monroe St,40.831812,-84.919766,IN
343,Evergreen Park,Durbins,10240 S Kedzie Ave,41.70687,-87.701518,IL
344,Atlanta,Buckhead Pizza Co,1 Galleria Pkwy SE,33.883979,-84.466753,GA
345,Pittsburgh,Crust,509 Painters Run Rd,40.361999,-80.064961,PA
346,Henrietta,Guys Pizza Co,3105 E Henrietta Rd,43.059261,-77.612875,NY
347,Andover,5 Pizza,13656 Crosstown Blvd NW,45.21903,-93.327688,MN
348,Cortland,Pudgies Pizza,75 N Main St,42.605725,-76.180636,NY
349,Endicott,Joeys Northside Pizzeria,200 Oak Hill Ave,42.111057,-76.050144,NY
350,Nyack,Tarantella,128 Main St,41.091491,-73.920954,NY
351,Kennewick,The Rock Wood Fired Pizza,4862 W Hildebrand Blvd,46.178327,-119.186241,WA
352,Muskegon,Happys Pizza,1701 E Apple Ave,43.2339,-86.201283,MI
353,Doylestown,Artistic Pizzeria,12 W State St,40.30982,-75.130833,PA
354,Mercer Island,Tuscan Stone Pizza,2885 78th Ave SE,47.609948,-122.201855,WA
355,Redwood City,Escape From New York Pizza,831 Middlefield Rd,37.485115,-122.228429,CA
356,Alexandria,Jerrys Sub and Pizza,684 S Pickett St,38.803901,-77.133515,VA
357,Massapequa,Calda,19 Hicksville Rd,40.667307,-73.475064,NY
358,Royal Oak,Buddys Pizzeria,32218 Woodward Ave,42.526497,-83.194039,MI
359,Troy,The Red Front,71 Division St,42.72616,-73.690946,NY
360,Brooklyn,La Bella Mariella Pizza II,374 Metropolitan Ave,40.714153,-73.955561,NY
361,Ocean City,Ponzettis Pizza,144th Street,38.449025,-75.052121,MD
362,Philadelphia,Joe Santuccis Square Pizza Bar and Grill,4050 Woodhaven Rd E,40.085957,-74.971428,PA
363,Babylon,Mulberry Street,30 E Main St,40.696366,-73.322425,NY
364,Brooklyn,MontyQs Brick Oven Pizza,158 Montague St,40.69437,-73.992879,NY
365,Garden City,Grimaldis Pizza,980 Franklin Ave,40.729097,-73.635663,NY
366,New York,Pizza Petes,528 Columbus Ave,40.786197,-73.972401,NY
367,Atlanta,Johnnys Pizza Cascade,5495 Cascade Rd SW,33.731675,-84.567002,GA
368,Las Vegas,Novecento 900 Pizzeria,5605 Centennial Center Blvd,36.264719,-115.257991,NV
369,Bronx,Yolandas Italian Pizzeria Restaurant,292 E 149th St,40.817098,-73.921866,NY
370,Gilbert,Barros Pizza,1431 E Williams Field Rd,33.306143,-111.759443,AZ
371,Boone,Capones Pizza and Bar,454 W King St,36.21728,-81.680947,NC
372,Saugatuck,Scooters Cafe,322 Culver St.,42.654982,-86.202475,MI
373,Philadelphia,Paradise Restaurant Pizzeria,104 W Girard Ave,39.968918,-75.136361,PA
374,Orlando,Pizzeria Del Dio,3210 E Colonial Dr,28.552024,-81.3433,FL
375,Amityville,Raimos Wood Fired Brick Oven Pizza,45 Merrick Rd,40.671438,-73.421956,NY
376,Fort Collins,Cozzolas Pizza Old Town,241 Linden St,40.588845,-105.074756,CO
377,New York,Famous Original Rays Pizza,831 7th Ave,40.763358,-73.981742,NY
378,Portland,Pizzicato,6042 SE Division St,45.505268,-122.600757,OR
379,Fond du Lac,Papa Johns Pizza,459 W Johnson St,43.784667,-88.464375,WI
380,New York,iPizzaNY,707 9th Ave,40.7625,-73.989635,NY
381,Ithaca,Casablanca,111A E State St,42.439447,-76.498509,NY
382,Brooklyn,620 on Caton Pizzeria and Restaurant,620 Caton Ave,40.647509,-73.973925,NY
383,San Antonio,Big Slice Pizza,4310 Vance Jackson Rd,29.513039,-98.534918,TX
384,San Antonio,Rays Pizzeria,7214 Blanco Rd,29.52375,-98.504423,TX
385,New York,Abitinos Pizzeria,936 2nd Ave,40.754666,-73.968762,NY
386,Austin,Saccones Pizza and Subs,11416 N FM 620 Ste N,30.453421,-97.828495,TX
387,Greensboro,Brixx Wood Fired Pizza,1424 Westover Ter,36.09164,-79.814653,NC
388,Sacramento,Luigis Pizza Parlor,3800 Stockton Blvd,38.54026,-121.450414,CA
389,Columbus,Fabians,691 N High St,39.976548,-83.00346,OH
390,Havertown,Cenzos Pizzeria,1619 Darby Rd,39.981706,-75.30534,PA
391,San Diego,Giant Pizza King,3638 El Cajon Blvd,32.755574,-117.114869,CA
392,Dallas,Lovers Pizza Pasta,5605 W Lovers Ln,32.851216,-96.817224,TX
393,Farmingdale,Bellagios Pizzeria Restaurant,211 Airport Plaza Blvd,40.739221,-73.419411,NY
394,Philadelphia,Zios Pizza,111 S 13th St,39.950071,-75.16192,PA
395,Irvine,Ginas Pizza,4533 Campus Dr,33.649821,-117.832011,CA
396,Brooklyn,Tomato and Basil,226 4th Ave,40.677378,-73.983129,NY
397,Seattle,Amante Pizza,1525 E Olive Way,47.61845,-122.325536,WA
398,New Palestine,Mama Nitas,5040 W US Highway 52,39.722914,-85.89633,IN
399,West Covina,Unique Pizza,180 S Glendora Ave,34.070553,-117.920997,CA
400,Virginia Beach,Beach Bella Pizza,616 Virginia Beach Blvd,36.844691,-75.982375,VA
401,Franklin,Pisanellos,355 S Main St,39.560009,-84.304185,OH
402,Brandon,Wize Guyz Pizzeria,2498 W Brandon Blvd Ste B,27.942765,-82.324359,FL
403,Horsham,Pizza Plaza,316 Horsham Rd,40.207147,-75.103839,PA
404,Delray Beach,Papa Giuseppe Pizza,660 Linton Blvd,26.439219,-80.082404,FL
405,Belle Vernon,Jakes Pizza Rostraver,1745 Rostraver Rd,40.179843,-79.805566,PA
406,Syracuse,Pavones Pizza,500 Butternut St,43.059134,-76.147863,NY
407,Bronx,John Joes Pizzeria,749 Lydig Ave,40.85452,-73.865824,NY
408,Anaheim,Top Class Pizza,3450 E Orangethorpe Ave,33.868286,-117.847213,CA
409,Elk Grove Village,Rosatis Pizza,1085 Nerge Rd,41.997467,-88.03121,IL
410,Ann Arbor,Pizza Bob's,814 S State St,42.2715,-83.7407,MI
411,Louisville,Chubby Rays Original Louisville Pizza Company,3910 Ruckriegel Pkwy,38.190252,-85.567658,KY
412,West Des Moines,NYC Pizza Cafe,6305 Mills Civic Pkwy Ste 3111,41.56184,-93.795499,IA
413,Wellsboro,Pudgies Pizza,105 East Ave,41.746829,-77.28571,PA
414,Flushing,DAROS Pizza Chicken,44-25 Kissena Blvd,40.753301,-73.821996,NY
415,Virginia Beach,Bella Pizzeria,2029 Lynnhaven Pkwy,36.792844,-76.123023,VA
416,Redding,Upper Crust Pizza,2586 Churn Creek Rd,40.56788,-122.352783,CA
417,Palmerton,Tonys Pizza,285 Delaware Ave,40.801629,-75.610446,PA
418,Gainesville,zpizza,7929 Heritage Village Plz,38.803957,-77.602647,VA
419,Norco,Papa Johns Pizza,110 Hidden Valley Pkwy,33.897563,-117.562643,CA
420,Charlottesville,Brixx Wood Fired Pizza,1133 Emmet St N,38.051919,-78.500545,VA
421,Harrisburg,Toninos Pizza Grille,530 N Progress Ave,40.29822,-76.846435,PA
422,Brooklyn,Papa Johns Pizza,1654 86th St,40.609099,-74.006072,NY
423,Kent,Eldorados Pizza Pie Bar,1331 S Water St,41.141597,-81.356823,OH
424,Selbyville,Billys Subs and Pizza,38015 Fenwick Shoals Blvd,38.4443,-75.05277,DE
425,Mandeville,McClains Pizzeria,115 Girod St,30.353132,-90.068345,LA
426,Marco Island,Italian Deli Market,247 1/2 N. Collier Blvd.,25.943006,-81.732273,FL
427,New Prague,Carbones Pizza Sports Bar New Prague,825 1st St SE,44.543311,-93.563329,MN
428,Morgantown,Colasessanos,6120 Mid Atlantic Dr,39.647892,-79.89107,WV
429,Lawrenceville,Romeos New York Pizza,139 S Clayton St,33.94905,-83.987821,GA
430,Grayson,Riverside,1845 Grayson Hwy,33.899323,-83.96281,GA
431,Coatesville,Jacks Pizza,1948 E Lincoln Hwy,39.989037,-75.786679,PA
432,Forest Hills,DEES,107-23 Metropolitan Ave,40.709643,-73.845343,NY
433,Sarasota,Joey Ds Chicago Style Eatery Pizzeria,211 N Tamiami Trl,27.338197,-82.546968,FL
434,New York,Grandpas Brick Oven Pizza,4973 Broadway,40.868215,-73.919419,NY
435,Littleton,Big Bills NY Pizza,8243 S Holly St,39.566845,-104.924182,CO
436,Lenexa,SPIN Neapolitan Pizza,9474 Renner Blvd,38.957162,-94.780545,KS
437,Durham,I Love New York Pizza,5428 New Hope Commons Dr,35.955792,-78.99608,NC
438,Fort Lauderdale,Grande Pizza Company,8373 W Sunrise Blvd,26.148414,-80.262936,FL
439,Lomita,Red West Pizza,2119 Pacific Coast Hwy,33.790161,-118.318045,CA
440,New Smyrna Beach,Stavros Pizza,800 N Dixie Fwy,29.03618,-80.93236,FL
441,Springfield,zpizza,6699 Frontier Dr,38.771974,-77.171196,VA
442,New Castle,Pizza King,500 S Memorial Dr,39.928051,-85.381193,IN
443,Greencastle,Tonys Pizza,42 S Antrim Way,39.790384,-77.731979,PA
444,Far Rockaway,JM Pizza,263 Beach 20th St,40.596859,-73.75462,NY
445,Shirley,Carlos Pizzeria Ristorante,451 Glen Dr,40.836636,-72.885143,NY
446,Port Richey,Mama Mia Pizzeria,8639 Regency Park Blvd,28.282668,-82.697508,FL
447,Baldwin Place,Peppinos,80 Route 6,41.344698,-73.75576,NY
448,Apopka,Anthonys Pizza And Italian Restaurant,1539 Rock Springs Rd,28.706351,-81.508151,FL
449,New York,Grandmas Pizza,2551 Amsterdam Ave,40.85149,-73.928312,NY
450,Buffalo,Partners Pizzeria,934 Niagara Falls Blvd,42.979603,-78.823359,NY
451,Saint Augustine,Romanos,4010 US-1,29.818204,-81.322657,FL
452,Tonawanda,Molinaras NY Pizza Caffe,2776 Sheridan Dr,42.981087,-78.830868,NY
453,Joshua Tree,Sams Pizza,61380 29 Palms Hwy,34.135474,-116.324252,CA
454,West Islip,Slices Ices Pizzeria,159 Higbie Ln,40.70554,-73.306412,NY
455,Mesa,Hungry Howies Pizza,3614 East Southern Ave,33.395303,-111.752904,AZ
456,New York,Daniellos Pizzeria,70 W 95th St,40.792047,-73.967956,NY
457,Bronx,Marconi Pizzeria,181 E Gun Hill Rd,40.880766,-73.877808,NY
458,Kansas City,Kelsos Pizza Northtown,300 Armour Rd,39.142075,-94.577129,MO
459,Palm Bay,Fired Up coal oven pizza,195 Malabar Rd NW,27.999407,-80.675385,FL
460,Spokane,Pacific Ave Pizza,2001 W Pacific Ave,47.655404,-117.441921,WA
461,Bloomington,Avantis,3302 E Empire St,40.48873,-88.908855,IL
462,Delray Beach,Sals Italian Restaurant Pizza in Delray,4801 Linton Blvd Ste 1A,26.440515,-80.121558,FL
463,New Orleans,Theos Neighborhood Pizza,4218 Magazine St,29.920956,-90.09964,LA
464,Los Angeles,M Pizza,3881 Wilshire Blvd,34.061758,-118.311442,CA
465,Baltimore,Matthews Pizza,3131 Eastern Ave,39.286423,-76.571858,MD
466,San Diego,Hoboken Pizza Beer Joint,1459 Garnet Ave,32.799111,-117.243229,CA
467,Valley Village,Joe Peeps Pizza,12460 Magnolia Blvd,34.164589,-118.40492,CA
468,New York,Stromboli Pizza,83 Saint Marks Pl,40.727691,-73.985305,NY
469,Brooklyn,Ignazios Pizza,4 Water St,40.703299,-73.994029,NY
470,Dana Point,Stuft Pizza Brewing,24821 Del Prado,33.46645,-117.697557,CA
471,Seattle,Elliott Bay Pizza Company,2115 Queen Anne Ave N,47.637695,-122.35707,WA
472,Island Park,DaVincis Pizza,118 Long Beach Rd,40.600986,-73.65617,NY
473,Winslow,Captain Tonys Pizza And Pasta Emporium,2217 N Park Dr,35.042469,-110.698305,AZ
474,Philadelphia,Illiano Pizza Restaurant,157 Byberry Rd,40.128911,-75.023785,PA
475,Lancaster,Antonio's Pizza House,678 W Chestnut St,40.0395,-76.3208,PA
476,Tiffin,Fort Ball Pizza Palace,91 N Washington St,41.1204,-83.1775,OH
477,Alliance,Sam & Louie's Pizzeria,1313 W 3rd St,42.0968,-102.89,NE
478,Houston,Spankys Pizza Bar,4659 Telephone Rd,29.694913,-95.299597,TX
479,Placentia,Gina Marias Pizzaria,1525 N Placentia Ave Unit C-D,33.891359,-117.874259,CA
480,Vincennes,Bill Bobes Pizzeria,1651 N 6th St,38.68512,-87.5134,IN
481,Youngstown,Wedgewood Pizza,1622 S Raccoon Rd,41.084422,-80.732694,OH
482,Evansville,Headys Pizzeria,4120 N 1st Ave,38.016596,-87.575043,IN
483,Broomall,Alfredos,2900 W Chester Pike,39.983113,-75.37139,PA
484,Greensboro,Milanos Pizza,343 NC Highway 68 S,36.066575,-79.959581,NC
485,Philadelphia,Yunique Pizza,1617 John F Kennedy Blvd,39.953912,-75.166949,PA
486,Homewood,Mama Me Pizzeria,18219 Dixie Hwy,41.558199,-87.665282,IL
487,Kaukauna,Pagonis Pizza Kaukauna,320 E Ann St,44.259721,-88.271117,WI
488,Waldport,Grand Central Pizza,245 Hwy 101,44.424628,-124.06827,OR
489,Carlsbad,New York Pizzeria,3067 Roosevelt St,33.159453,-117.347199,CA
490,Glenside,Glenside Pizza,274 N Keswick Ave,40.105793,-75.146882,PA
491,Dresher,Mamas Pizza IV,1704 Susquehanna Rd,40.142074,-75.16824,PA
492,Edgewood,Guss Pizza Grill,1928 Pulaski Hwy,39.435362,-76.316397,MD
493,Atlanta,Fellini's Pizza,909 Ponce De Leon Ave Ne,33.773654,-84.357596,GA
494,Surprise,Luckys Pizza,12455 W Bell Rd.,33.640448,-112.394528,AZ
495,Keller,My New York Pizza,841 North Tarrant Pkwy,32.896894,-97.243219,TX
496,Hayes,Sals Sicilian Pizza,2520 George Washington Memorial Hwy,37.278513,-76.502286,VA
497,Gulf Breeze,Santinos,368 Gulf Breeze Pkwy,30.36607,-87.171229,FL
498,New Baltimore,Father And Son Pizzeria,50770 Gratiot Ave,42.672687,-82.832527,MI
499,Corolla,Cosmos Pizzeria,110 Corolla Light Town Center,36.373501,-75.82795,NC
500,Syracuse,Papa Johns Pizza,2921 James St,43.06925,-76.105771,NY
501,Drexel Hill,Janos,732 Burmont Rd,39.949899,-75.308742,PA
502,Farmington,JJs New York Pizzeria,6081 New York 96,42.973821,-77.355287,NY
503,Newark,Marios Pizza,960 S College Ave,39.652432,-75.749496,DE
504,Indian Trail,Ny Pizza and Pasta,624 waxhaw indian trail,35.068876,-80.678973,NC
505,Indianola,Brickhouse Sauce Dough Co,107 N Buxton St,41.360583,-93.562353,IA
506,Santa Fe,Rooftop Pizza,60 E San Francisco St,35.6865,-105.939325,NM
507,Columbus,Grandads Pizza,1254 W 3rd Ave,39.984888,-83.039122,OH
508,Milwaukee,Rocky Rococo,7600 W Capitol Dr,43.090434,-88.008929,WI
509,Phoenix,Brothers Pizza,10720 W Indian School Rd,33.495299,-112.290831,AZ
510,Englewood,Mangia Bevi Cafe,6363 S Fiddlers Green Cir,39.601442,-104.892459,CO
511,Franklin,Richards Brick Oven Pizza,545 E King St,39.478095,-86.055032,IN
512,New York,Cafe Rustico II,35 W 35th St,40.749732,-73.985453,NY
513,Greenville,Antonino Bertolos Pizza,200 N Main St,34.852667,-82.397959,SC
514,Vista,Flippin Pizza,2440 S Melrose Dr,33.141834,-117.24262,CA
515,Ridgewood,Joe Johns Pizza,5910 Myrtle Ave,40.700502,-73.899411,NY
516,Maricopa,Brooklyn Boys Italian Restaurant,20800 N John Wayne Pkwy Ste 118,33.068796,-112.047192,AZ
517,Alexandria,Pizzaiolo Cafe on Fern,1623 Fern St,38.829547,-77.084477,VA
518,Seattle,Olympia Pizza and Spaghetti House,1500 Queen Anne Ave N,47.63292,-122.3566,WA
519,Charlotte,Wolfman Pizza,106 S Sharon Amity Rd,35.176051,-80.799612,NC
520,Woodland Hills,Topanga Pizza and Cafe,22994 Ventura Blvd,34.164745,-118.626702,CA
521,Orland Park,Beggars Pizza,11329 W 143rd St,41.629352,-87.896028,IL
522,Brooklyn,Pizza Prince,86 Nassau Ave,40.723899,-73.95053,NY
523,Austin,Brooklyn Pie Co,8127 Mesa Dr Ste B202,30.372875,-97.755813,TX
524,Danville,Ascona Pizza Company,3414 Camino Tassajara,37.798517,-121.919752,CA
525,Austin,Conans Pizza South,2018 W Stassney Ln,30.216245,-97.798303,TX
526,Marietta,Kouzina Christos,1433 Terrel Mill Rd,33.91637,-84.467208,GA
527,Arlington,Goodys,3125 Wilson Blvd,38.887211,-77.095515,VA
528,Dayton,Marion's Piazza,3443 N Dixie Dr,39.7972,-84.1938,OH
529,Charlotte,Teddys Pizza,5820 E Wt Harris Blvd,35.2357,-80.7352,NC
530,Harrisburg,Mama's Pizza,305 Market St,40.2609,-76.8805,PA
531,Philadelphia,Mario's Pizza,7700 Crittenden St,40.072,-75.1929,PA
532,Lakeville,Vincenzo's Pizza,5909 Big Tree Rd,42.8348,-77.6983,NY
533,Merrick,Roma Pizza,53 Merrick Ave,40.6652,-73.5531,NY
534,Sunbury,Pj's Pizza,571 W Cherry St,40.2494,-82.8712,OH
535,Durham,Ricky's NY Pizza,5279 N Roxboro Rd,36.0765,-78.9112,NC
536,Charlotte,Jets Pizza,1607 Montford Dr,35.171,-80.8494,NC
537,Roslyn Heights,Skinny Pizza,211 Mineola Ave,40.7859,-73.649,NY
538,West Chester,Pat's Pizzeria,1149 W Chester Pike,39.9697,-75.5671,PA
539,Saint Charles,Frankie Tocco's Pizzeria,108 S Main St,38.7808,-90.4813,MO
540,Cincinnati,Roc-a-Fellas,11055 Reading Rd,39.2694,-84.4134,OH
541,Buffalo,Franco's Pizza,1924 Eggert Rd,42.9771,-78.8141,NY
542,Syracuse,Peppino's,1849 Grant Blvd,43.072,-76.1411,NY
543,Reading,Original Mama's Pizza,1814 State Hill Rd,40.3385,-75.9742,PA
544,Charlotte,Pie In The Sky Pizza,320 S Tryon St,35.2257,-80.8464,NC
545,Charlotte,Intermezzo,1427 E 10th St,35.2221,-80.8216,NC
546,Charlotte,Papa John's Pizza,8016 Cambridge Commons Dr Ste B,35.2524,-80.6575,NC
547,Jamestown,Papa John's Pizza,709 W 3rd St,42.0936,-79.2553,NY
548,Rochester,Mark's Pizzeria,1465 Jefferson Rd,43.0971,-77.5789,NY
549,New York,Numero 28 Pizza,1431 1st Ave,40.769293,-73.954966,NY
550,Irwin,Mr Mikes Pub Pizza,9371 State Route 30,40.32312,-79.697851,PA
551,Louisville,Spinellis Pizzeria,4005 Shelbyville Rd,38.252732,-85.652416,KY
552,Los Angeles,North End Pizzeria,11628 Santa Monica Blvd,34.043934,-118.454518,CA
553,Okemos,Guidos Premium Pizza,1754 Central Park Dr,42.727718,-84.410402,MI
554,Ann Arbor,NYPD New York Pizza Depot,605 E William St,42.277918,-83.741812,MI
555,Baltimore,Pub Dog Pizza Drafthouse,20 E Cross St,39.276985,-76.613502,MD
556,Houston,Candelaris Pizzeria,6002 Washington Ave,29.770742,-95.417685,TX
557,Fishers,Apezza Pizza,10122 Brooks School Rd,39.935409,-85.948325,IN
558,Hernando,Angelos Pizzeria Ristorante II,2492 N Essex Ave,28.899524,-82.434444,FL
559,Elmont,DAnnas Pizzeria Restaurant,1743 Hempstead Tpke,40.704703,-73.704764,NY
560,Orange,Valentinos Pizza,513 N Tustin St,33.795467,-117.835202,CA
561,Southaven,Memphis Pizza Cafe,5627 Getwell Rd,34.942921,-89.937269,MS
562,Albany,Sovrana Pizza And Deli,63 N Lake Ave,42.662894,-73.772288,NY
563,Philadelphia,Petes Pizza,53rd and Haverford,39.964745,-75.224059,PA
564,Camp Hill,Two Cousins Pizza,32 Erford Rd,40.256527,-76.915238,PA
565,Fairfax,Ghiringhellis Pizzeria,45 Broadway Blvd,37.98692,-122.589264,CA
566,Annandale,Casa DMama Pizzaria,7406B Little River Tpke,38.83217,-77.199933,VA
567,Horseheads,Ricos Pizza,2162 Grand Central Ave,42.156752,-76.821081,NY
568,Charleston,Pies and Pints Pizzeria,222 Capitol St,38.350354,-81.634295,WV
569,Exton,Roccos Pizza Restaurant,605 N Pottstown Pike,40.050748,-75.636013,PA
570,Brooklyn,Saporita Pizza,27 Smith St,40.690609,-73.98788,NY
571,Albany,Abbys Pizza,3033 Santiam Hwy SE,44.631099,-123.067543,OR
572,Cape Coral,Crust Pizzeria,4703 SW 16th Pl,26.564562,-82.00746,FL
573,Independence,Fun House Pizza Pub,13002 U.S. 40,39.03747,-94.426209,MO
574,Brandon,Brandon Pizzeria,140 N Parsons Ave,27.938904,-82.285922,FL
575,Oakdale,Bella Bambinas Restaurant,4532 Sunrise Highway,40.752917,-73.118039,NY
576,Lebanon,Pizza Inn,1051 Murfreesboro Rd,36.174562,-86.301968,TN
577,Yorkville,Rosatis Pizza,1985 Marketview Dr,41.666192,-88.44088,IL
578,Champaign,Papa Johns Pizza,106 E Green St,40.110357,-88.238016,IL
579,Anaheim,Danos Giant Manhattan Pizza,9844 Katella Ave,33.801996,-117.961178,CA
580,Metairie,Zitas Pizzeria,2221 Transcontinental Dr,29.995508,-90.192205,LA
581,Brewster,Mezza Luna Pizzeria Restaurant,1151 Route 22,41.420408,-73.578332,NY
582,West Des Moines,Chuck Celsis Tavern Restaurant,205 5th St,41.571417,-93.708752,IA
583,Ambler,Il Giardino,909 N Bethlehem Pike,40.181557,-75.227201,PA
584,Jacksonville,Credos PizzaRibs Beer,150 Western Blvd,34.748152,-77.379309,NC
585,Louisville,Impellizzeris Pizza,4933 Brownsboro Rd,38.281974,-85.631963,KY
586,Howard Beach,Lennys Pizzeria,16402 Crossbay Blvd,40.650648,-73.838035,NY
587,Tonawanda,Francos Pizza,2308 Niagara Falls Blvd,43.017091,-78.82263,NY
588,Morgantown,Milanos Pizza,2 Brookstone Plz,39.628133,-79.933048,WV
589,Madison,Salvatores Tomato Pies,912 E Johnson St,43.084714,-89.37597,WI
590,Omaha,Mama's Pizza,15615 Pacific St,41.2480352,-96.15838176,NE
591,Saint Charles,Pizza Street,6111 Mid Rivers Mall Dr,38.7465,-90.6349,MO
592,Pittsburgh,Fazio's Pizza,4028 Penn Ave,40.4653,-79.9568,PA
593,Narberth,Italian Delight,940 Montgomery Ave,40.0118,-75.2617,PA
594,Philadelphia,Mr P Pizza & Pasta Inc,7138 Ridge Ave,40.0454,-75.2324,PA
595,Coopersburg,Carlo's Pizza,7001 N Route 309,40.5167,-75.3864,PA
596,Syracuse,Pizzaz Pizza Inc,1916 South Ave,43.0189,-76.1611,NY
597,Philadelphia,Slices Pizza,4249 Ridge Ave,40.0096,-75.1955,PA
598,Pittsburgh,Benny Fierros,1906 E Carson St,40.4286,-79.9791,PA
599,Harrisburg,Monte Carlo Pizza,145 S Cameron St,40.2626,-76.8733,PA
600,Newfane,Marks Pizzeria,6181 Mckee St,43.276,-78.6983,NY
601,Davidson,Fuel Pizza,402 S Main St,35.4963,-80.8525,NC
602,Raleigh,Zpizza,421 Fayetteville St,35.7644,-78.6436,NC
603,Southampton,Roman Delight,492 2nd Street Pike,40.169749,-75.046258,PA
604,Seneca Falls,Avicollis Pizzeria and Restaurant,170 Fall St,42.910727,-76.802351,NY
605,Plano,Mogios Gourmet Pizza,158 W FM 544,33.011399,-96.616538,TX
606,Saint Paul,Pizza Man,3442 Denmark Ave,44.830117,-93.1596,MN
607,Philadelphia,Plaza Pizza Restaurant,337 Spring Garden St,39.9613,-75.1446,PA
608,Houston,North Italia,1700 Post Oak Blvd Ste 190,29.748548,-95.462154,TX
609,Utica,Rosario's Pizzeria,1803 Welsh Bush Rd,43.0811,-75.2064,NY
610,Mount Gretna,Mt Gretna Pizzeria,117 Timber Rd,40.249,-76.4709,PA
611,Trexlertown,Picasso Pizza,7150 Hamilton Blvd,40.549,-75.5979,PA
612,Circleville,Pizza Cottage,23401 US 23,39.5888,-82.9546,OH
613,Brentwood,Tony's Pizza & Restaurant,161 Clarke St,40.7993,-73.2488,NY
614,Dayton,Marion's Piazza,8991 Kingsridge Dr,39.6304,-84.2246,OH
615,Columbus,Formaggio,20 E 13th Ave,39.998,-83.0069,OH
616,Farmingdale,Frankie's East Side Pizza,313 Main St,40.7323,-73.4457,NY
617,Lake Katrine,Angela's Pizza,1923 Ulster Ave,41.9878,-73.988,NY
618,Fayetteville,Primo Pizza,2810 Raeford Rd,35.0455,-78.9257,NC
619,Wantagh,Cherrywood Pizza,1919 Wantagh Ave,40.6741,-73.51,NY
620,Rochester,Perris Pizzeria,524 Stone Rd,43.223571,-77.641189,NY
621,Hermitage,Gondola House,4613 Lebanon Pike,36.214765,-86.596571,TN
622,Pittsburgh,Gino Brothers Pizzeria,1714 Main St,40.494767,-79.92264,PA
623,Miami,Rotelli,11401 NW 12th St,25.78699,-80.380866,FL
624,Lansdowne,Paul Reveres,193 Shadeland Ave,39.94001,-75.287924,PA
625,Kill Devil Hills,Dare Devil's Pizzeria,1112 S Virginia Dare Trl,36.0059,-75.653,NC
626,Ithaca,Pizza Aroma,128 S Cayuga St,42.4389,-76.4993,NY
627,Bayport,Satellite Pizza,799 Montauk Hwy,40.7472,-73.052,NY
628,Quentin,Cc's Pizza,75 Main St,40.2803,-76.4427,PA
629,Bethlehem,Pomodoro's Pizza,253 E Broad St,40.6223,-75.3712,PA
630,Downers Grove,Mrs Ts Pizza Pub,4246 Main St,41.809399,-88.011489,IL
631,Allison Park,Caliente Pizza Hampton,4706 William Flynn Hwy,40.593927,-79.947031,PA
632,Merrick,Via Roma,1764 Merrick Ave,40.6751,-73.5574,NY
633,Albany,Westgate Pizza,911 Central Ave,42.6815,-73.7917,NY
634,Saratoga Springs,D'andrea Pizza,33 Caroline St,43.082,-73.7833,NY
635,Bucyrus,Baker's Pizza Sports Shack,224 N Sandusky Ave,40.8102,-82.9755,OH
636,Kent,Guys Pizza,146 S Water St,41.153,-81.3584,OH
637,Ashland,Dor Lo Pizza,1211 Orange Rd,40.8786,-82.3124,OH
638,Mocksville,Papa John's Pizza,1112 Yadkinville Rd,35.9121,-80.581,NC
639,Burlington,Brixx Wood Fired Pizza,1022 Boston Dr,36.0705,-79.5087,NC
640,Plattsburgh,Pizza Bono,93 Margaret St,44.6978,-73.4529,NY
641,Avon,Pizza Land,19 Park Pl,42.9112,-77.7458,NY
642,Tonawanda,Franco's Pizza,600 Delaware St,43.0031,-78.8751,NY
643,Springfield,Pizza Inn,1425 W Battlefield St,37.1605,-93.3116,MO
644,Horsham,Anthony's Coal Fired Pizza,100 Welsh Rd,40.1573,-75.1435,PA
645,Wichita,Papa John's Pizza,3236 N Rock Rd Ste 120,37.741,-97.244,KS
646,Fort Collins,Pablo's Pizza,2720 Council Tree Ave,40.5257,-105.0256,CO
647,Portland,Eat Pizza,2037 SW Morrison St,45.5231,-122.693,OR
648,Portland,Black Bird Pizza,1935 SE Hawthorne Blvd,45.5123,-122.6462,OR
649,Hillsboro,The Rock Wood Fired Kitchen,2295 NW Allie Ave,45.5369,-122.8769,OR
650,Henderson,Pizza Rock,2300 Paseo Verde Pkwy,36.019961,-115.089392,NV
651,Skokie,Pie Five Pizza Co,3306 W Touhy Ave,42.012876,-87.71204,IL
652,Carmel,Bella Pizzeria,1450 Clay Terrace Blvd.,39.998894,-86.130104,IN
653,Carrollton,Brothers Pizza,2002 N Interstate 35E,32.969013,-96.918969,TX
654,Horseheads,Picnic Pizza,2898 Westington Rd,42.176444,-76.836292,NY
655,Akron,Georgios Pizza,843 West Market St.,41.097024,-81.543924,OH
656,Virginia Beach,Chichos,2820 Pacific Ave,36.85689,-75.979065,VA
657,Aurora,Amatos Pizza More,3150 N Aurora Rd,41.782082,-88.238535,IL
658,Carson,Papa Johns Pizza,105 W Carson St,33.832072,-118.278728,CA
659,Battle Creek,Mancinos Pizza Grinders,1791 Columbia Ave W,42.2968,-85.234726,MI
660,Mountain View,Maldonados Pizzeria,615 S Rengstorff Ave,37.396412,-122.100992,CA
661,Fort Lauderdale,Jacaranda Pizza,8283 W Broward Blvd,26.121225,-80.260242,FL
662,Los Angeles,Pitfire Pizza,12924 Washington Blvd,33.994877,-118.438688,CA
663,San Bernardino,Jerseys Pizza,985 Kendall Dr,34.163496,-117.306169,CA
664,Eugene,Pegasus Pizza,790 E 14th Ave,44.044263,-123.080845,OR
665,Hudson,Baba Louies Pizza,517 Warren St,42.24917,-73.786089,NY
666,Syracuse,the pizza factory,725 W 1700 S,41.088884,-112.039736,UT
667,Louisville,Saints Bar,131 Breckenridge Ln,38.252023,-85.654421,KY
668,Miami Beach,Spris,731 Lincoln Rd,25.790641,-80.136136,FL
669,Portland,Papa Murphys,4010 NE Fremont St,45.548224,-122.621543,OR
670,Brooklyn,Fascati Pizza,80 Henry St,40.698355,-73.992522,NY
671,New York,Famous Original Rays Pizza,811 Lexington Ave,40.764347,-73.96657,NY
672,San Francisco,Stelladoro Pizza,808 Divisadero St,37.777128,-122.438272,CA
673,Brooklyn,Pinos La Forchetta,181 7th Ave,40.671422,-73.977831,NY
674,Minneapolis,Mamas Bakery Pizza Salad Bar,800 Nicollet Mall,44.975731,-93.273408,MN
675,New York,Little Italy Pizza,2 E 33rd St,40.747689,-73.984883,NY
676,New York,Fiores Pizza,165 Bleecker St,40.728772,-74.000196,NY
677,Charleston,Baronis New York Pizza,1975 Magwood Dr,32.813331,-80.041824,SC
678,Bensalem,Champs Pizza,1336 Bristol Pike Ste A5,40.07436,-74.967444,PA
679,Hancock,Studio Pizza,426 Quincy St,47.126433,-88.586363,MI
680,Bettendorf,Crust Stone Oven Pizza,2561 53rd Ave,41.574694,-90.496681,IA
681,Palm Harbor,Westshore,1346 Tampa Rd,28.06737,-82.76313,FL
682,Des Plaines,Gigios Pizzeria,1603 E Oakton St,42.024142,-87.884326,IL
683,Guilderland,Little Caesars,1800 Western Ave,42.689863,-73.865641,NY
684,Glen Mills,Brothers Pizza,485 Baltimore Pike,39.892247,-75.505187,PA
685,Charlotte,Librettos Pizzeria,1600 E Woodlawn Rd,35.171735,-80.849272,NC
686,Carlsbad,Pizza Inn,3005 National Parks Hwy,32.3888,-104.2206,NM
687,East Lansing,Bells Greek Pizza,1135 East Grand River,42.731339,-84.46811,MI
688,Brooklyn,Casanova Family Italian Restaurant Pizzeria,338 McGuinness Blvd,40.734057,-73.952082,NY
689,Dallas,Campisis Restaurant Downtown Dallas,1520 Elm St,32.781522,-96.798556,TX
690,Shakopee,Pizza N Pasta Shakopee,584 Marschall Rd,44.794687,-93.508539,MN
691,New York,Georges Pizza,726 W 181st St,40.850546,-73.937013,NY
692,Philadelphia,Napoli Pizza,934 E Passyunk Ave,39.937084,-75.154864,PA
693,Rosemount,Carbones Pizza Pub,14550 S Robert Trl,44.738678,-93.125876,MN
694,Parker,Tontis Pizza,17805 Cottonwood Dr,39.558578,-104.782375,CO
695,Denver,Protos PizzaDenver,2401 15th St,39.756797,-105.008937,CO
696,New York,Caesars Palace Pizzeria,493 Amsterdam Ave,40.786215,-73.976107,NY
697,Bend,Olde Towne Pizza,118 NW Greenwood Ave,44.0601,-121.3092,OR
698,Alma,Mazzio's Pizza,621 Highway 71 N,35.4931,-94.2266,AR
699,Biloxi,Sal & Mookie's New York Style Pizza & Ice Cream Joint,110 Lameuse St,30.3938,-88.8867,MS
700,New York,Pastafina Pizza,388 3rd Ave,40.7419,-73.9812,NY
701,Orlando,Hungry Howies Pizza,6900 Silver Star Rd,28.572609,-81.517117,FL
702,Tacoma,Little Caesars Pizza,5132 6th Ave,47.255501,-122.506463,WA
703,Concord,Papa Johns Pizza,10050 Edison Square Dr NW,35.43066,-80.676979,NC
704,South Bend,Four Horsemen Pizza,103 S Dixie Way,41.71566,-86.250651,IN
705,Ocala,Little Caesars Pizza,2403 SW 27th Ave,29.160913,-82.099878,FL
706,Chicago,Bongiornos Italian Deli Pizzeria,405 N Wabash Ave,41.889343,-87.626216,IL
707,Newton,Geppetos Pizza and More,114 N College Ave,35.66397,-81.22127,NC
708,Garden City,Avellinos Pizzeria Catering,279 Nassau Blvd,40.714467,-73.661014,NY
709,New York,Artichoke Basilles Pizza Bar,114 10th Ave,40.743986,-74.006662,NY
710,Kingston,Savonas Trattoria,32 Broadway,41.918637,-73.983126,NY
711,Allen,Pie Five Pizza Co,190 E Stacy Rd,33.129217,-96.656051,TX
712,Eugene,Abbys Pizza,1970 River Rd,44.093664,-123.129497,OR
713,Kalamazoo,Romas Pizza Pasta,1401 S Drake Rd,42.277333,-85.647949,MI
714,Birmingham,Tortugas,2801 John Hopkins Pkwy (Hwy 150),33.365096,-86.82419,AL
715,Bethpage,Ginos Tuscany Restaurant And Pizzeria,3968 Hempstead Tpke,40.72123,-73.489028,NY
716,Tampa,ABC Pizza,13508 University Plaza St,28.069619,-82.429735,FL
717,Hawthorne,Pizza Show,13344 Hawthorne Blvd,33.911181,-118.352213,CA
718,Puyallup,Trackside Pizza,201 S Meridian,47.192493,-122.293453,WA
719,Willow Grove,Randazzos Pizzeria,3648 Welsh Rd,40.15274,-75.137319,PA
720,Muncie,Greeks Pizzeria The Village,1600 W University Ave,40.197744,-85.404635,IN
721,Scranton,Granteeds,817 Mulberry St,41.407678,-75.656744,PA
722,Clute,All Star Pizza,804 Brazospark Dr,29.013555,-95.418407,TX
723,Plymouth,Mancinos Grinders Pizza,2852 Miller Dr,41.36092,-86.346614,IN
724,Portland,Apizza Scholls,4741 SE Hawthorne Blvd,45.512119,-122.613137,OR
725,Visalia,Sbarro,2031 S Mooney Blvd,36.310677,-119.316184,CA
726,Cadiz,DiAngelos,114 E Market St,40.272624,-80.996825,OH
727,Peoria,Barros Pizza,24762 N Lake Pleasant Pkwy,33.70856,-112.27312,AZ
728,Myrtle Beach,Chicago Pizza,665 Highway 17 S,33.608058,-78.985334,SC
729,Sparks,Uncle Vinneys Pizza,1560 S Stanford Way,39.520743,-119.74078,NV
730,Albany,I Love New York Pizza of Madison,850 Madison Ave,42.660664,-73.782323,NY
731,Davison,Pizza Company,8435 Davison Rd,43.035615,-83.540441,MI
732,Newport,LaRosas Pizzeria Alexandria,4757 Alexandria Pike,38.963214,-84.393288,KY
733,Ridgewood,Rosas Pizza,6265 Fresh Pond Rd,40.712168,-73.900103,NY
734,Fairfield,Cassanos Pizza Subs,4761 Dixie Hwy,39.347395,-84.54259,OH
735,Huntington Beach,Whatta Lotta Pizza,7011 Warner Ave,33.715916,-118.00539,CA
736,Bakersfield,Little Caesars Pizza,3550 Stine Rd,35.317431,-119.051791,CA
737,Harrisburg,Dinos Pizza and Pasta,4455 Highway 49 S,35.321538,-80.651424,NC
738,Vancouver,Papa Murphys,10501 NE Highway 99,45.698009,-122.653399,WA
739,Marietta,Rosas Pizza,3605 Sandy Plains Rd,34.03777,-84.46465,GA
740,Port Washington,Ginos Pizzeria,48 Main St,40.830594,-73.686705,NY
741,Oregon City,Jimmy Os Pizzeria,1678 Beavercreek Rd,45.332813,-122.584342,OR
742,Seattle,Mama Mias,5301 Roosevelt Way NE,47.667223,-122.317586,WA
743,Bradenton,Fire Stone Pizza,10519 Cortez Rd W,27.463112,-82.668633,FL
744,Albuquerque,Papa Murphys,2800 Coors Blvd NW,35.113712,-106.701264,NM
745,Harrisburg,The Wild Tomato Pizzeria,4315 Jonestown Rd,40.29908,-76.819522,PA
746,Sun Prairie,Rocky Rococo Pan Style Pizza,2828 Prairie Lakes Dr,43.167134,-89.270809,WI
747,Matthews,Espositos Pizzeria,1381 Chestnut Ln,35.068819,-80.701165,NC
748,Santa Monica,Stella Barra,2000 Main St,34.006721,-118.488546,CA
749,Louisville,Rockys Pizza Panini,3032 Bardstown Road,38.213448,-85.674136,KY
750,Sherwood,US Pizza Co,8403 Highway 107,34.830867,-92.231603,AR
751,Fort Lauderdale,Little Caesars Pizza,12522 W Sunrise Blvd,26.145508,-80.31699,FL
752,Oneonta,The Depot,4 Railroad Ave,42.453921,-75.050115,NY
753,Hyde Park,Joe Cristianos Pizza,1225 Route 9G,41.796857,-73.913841,NY
754,Payson,Little Caesars Pizza,400 E State Highway 260,34.24186,-111.31902,AZ
755,Tooele,Papa Johns Pizza,1480 N 30 West,40.557982,-112.298416,UT
756,Albuquerque,Scarpas Brick Oven Pizza,5500 Academy Rd NE,35.146899,-106.582233,NM
757,Pineville,Little Caesars Pizza,130 Country Ln,31.279766,-92.45963,LA
758,Bridgeport,Mia Margherita,139 Conference Center Way,39.323649,-80.231136,WV
759,Seabrook,Midnite Slice,1605 2nd St,29.562717,-95.024397,TX
760,Pickerington,Papa Johns Pizza,1201 Hill Rd N,39.911585,-82.78055,OH
761,Bellmore,Umbertos,208 Bedford Ave,40.670287,-73.527813,NY
762,Oklahoma City,All American Pizza,7101 NW Expressway,35.560356,-97.638924,OK
763,Evergreen Park,Rosangelas Pizza,2807 W 95th St,41.720755,-87.692558,IL
764,CaÃ±on City,Papa Johns Pizza,1520 Royal George Blvd,38.445972,-105.225826,CO
765,Collegeville,Roccos Brick Oven Pizzeria,201 Second Ave,40.181022,-75.452243,PA
766,Anchorage,Guidos,549 W Intl Airport Rd,61.174665,-149.894053,AK
767,Brooklyn,DaVincis Pizzeria,6514 18th Ave,40.618882,-73.990799,NY
768,Hilton Head Island,Giuseppis Pizza,71 Lighthouse Rd,32.131343,-80.800879,SC
769,El Segundo,Justa Pizza,100 W Imperial Ave,33.930624,-118.416479,CA
770,Loveland,LaRosas Pizzeria,901 Loveland Madeira Rd,39.261191,-84.270915,OH
771,Milwaukee,Alphonsos,1119 S 108th St,43.019495,-88.047506,WI
772,Orlando,Planet Pizza,33 W Washington St,28.543462,-81.379356,FL
773,Richton Park,Beggars Pizza,22149 Governors Hwy,41.485918,-87.71248,IL
774,Park City,Maxwells,1456 Newpark Blvd,40.721687,-111.538485,UT
775,Dobbs Ferry,Dobbs Ferry Pizza,218 Ashford Ave,41.014003,-73.858782,NY
776,Charlotte,Brixx Wood Fired Pizza,9820 Rea Rd,35.034582,-80.805938,NC
777,Chicago,Eastern Style Pizza,2911 W Touhy Ave,42.012014,-87.702555,IL
778,Mukilteo,Lombardos Pizzeria,10809 Mukilteo Speedway Ste B,47.899993,-122.291503,WA
779,Riverdale,Papa Johns Pizza,745 Hwy 138 South West,34.086734,-84.484213,GA
780,Fort Lauderdale,Grande Pizza Company,959 NE 62nd St,26.20393,-80.133229,FL
781,Weatherford,Nizza Pizza,1016 S Main St,32.747276,-97.797806,TX
782,Lansdale,Giuseppes Pizza Family Restaurant Bar,101 Cowpath Rd,40.259549,-75.265642,PA
783,Venice,Amores,2357 Tamiami Trl S,27.050887,-82.406889,FL
784,Peoria,Chrissy Ninos Pizza,9008 N 99th Ave,33.566125,-112.276654,AZ
785,Brooklyn,Peter Pizza,2358 80th St,40.603396,-73.985749,NY
786,Hollywood,Cozzolis Pizzeria,4961 Sheridan St,26.034552,-80.194684,FL
787,Plant City,Esposito Pizza,2803 James Redman Pkway,27.985165,-82.122334,FL
788,Cleveland,Pizza Pan,1800 Euclid Ave,41.50112,-81.678693,OH
789,Isle of Palms,Luke n Ollies Pizzeria,1101-C Ocean Blvd.,32.785648,-79.788621,SC
790,Eureka Springs,Sky Bar Gourmet Pizzeria,75 Prospect Ave,36.408342,-93.737399,AR
791,Houston,Texas Pizza,1853 Richmond Ave,29.734111,-95.406775,TX
792,Virginia Beach,Roma New York Style Pizza,424 Atlantic Ave,36.833662,-75.971056,VA
793,Waupaca,Weasels of Waupaca,108 E Union,44.357004,-89.084218,WI
794,New York,La Trattoria,844 2nd Ave,40.751755,-73.970761,NY
795,Cleveland,P Jay's Pizza,5859 Ridge Rd,41.4033,-81.7344,OH
796,Boise,Proto's Pizza,345 S 8th St,43.6138,-116.2055,ID
797,Eagle Point,Abby's Legendary Pizza,11200 Highway 62,42.473133,-122.81132,OR
798,Venice,Giannis Pizza,212 Tamiami Trl S,27.0983,-82.4447,FL
799,Walnut Creek,Mountain Mike's Pizza,1817 Ygnacio Valley Rd,37.9178,-122.039,CA
800,Santa Ana,California Pizza Kitchen,2800 N Main St,33.7738,-117.8674,CA
801,Chico,Pop's Wood Fired Pizza,2031 Forest Ave,39.7248,-121.8011,CA
802,San Francisco,Mythic Pizza,551 Haight St,37.772,-122.4313,CA
803,Coronado,Village Pizzeria,1206 Orange Ave,32.6836,-117.1789,CA
804,San Jose,Klondikes Pizza,2815 S White Rd,37.3242,-121.7968,CA
805,Tucson,Magpies Gourmet Pizza,605 N 4th Ave,32.2293,-110.9659,AZ
806,Port Orange,Danielle's Pizza City,5882 S Ridgewood Ave,29.1084,-80.9733,FL
807,Rochester,Mr Pizza North,4040 28TH St NW,44.053,-92.5239,MN
808,Zeeland,Jet's Pizza,11190 Chicago Dr,42.8043,-86.0574,MI
809,Fort Myers,Papa John's Pizza,13650 Fiddlesticks Blvd,26.5459,-81.8056,FL
810,Holland,Sluggo's Pizzeria,321 Douglas Ave,42.7986,-86.1229,MI
811,Bradenton,Monty's Pizza,8386 Market St,27.3903,-82.4433,FL
812,Ann Arbor,Little Caesars Pizza,3000 Packard St,42.2451,-83.7001,MI
813,Burlingame,Blue Line Pizza,1108 Burlingame Ave,37.5796,-122.3457,CA
814,Cupertino,Gumba's,21678 Stevens Creek Blvd,37.3228,-122.0536,CA
815,Fenton,Jet's Pizza,235 N Leroy St,42.7983,-83.7052,MI
816,Louisville,Bearno's By The Bridge,131 W Main St,38.2566,-85.753,KY
817,San Leandro,Mountain Mike's Pizza,699 Lewelling Blvd 164,37.6868,-122.1392,CA
818,Lone Tree,California Pizza Kitchen,8343 S. Park Meadow Center Dr.,39.5644,-104.8736,CO
819,Carrollton,Palladino's Pizza,342 Maple St,33.577,-85.0801,GA
820,Carlsbad,That Pizza Place,2622 El Camino Real Ste B,33.1759,-117.3258,CA
821,Encinitas,Today's Pizza & Salad,481 Santa Fe Dr,33.0362,-117.2831,CA
822,Los Angeles,Big Mama's & Papa's Pizzeria,2136 Colorado Blvd,34.139,-118.2133,CA
823,La Crosse,Rocky Rococo Panstyle Pizza,40 Copeland Ave,43.8224,-91.2486,WI
824,Champaign,Monical's Pizza,103 W Kirby Ave,40.0978,-88.2457,IL
825,Rohnert Park,Mary's Pizza Shack,101 Golf Course Dr,38.364,-122.7096,CA
826,Granada Hills,Numero Uno,17817 Chatsworth St,34.2652,-118.5222,CA
827,Carrollton,Papa John's Pizza,1214 Maple Street,33.5717,-85.0921,GA
828,Walnut Creek,Skipolini's Pizza,1535 Giammona Dr,37.9021,-122.0628,CA
829,Oakland,Zachary's Chicago Pizza,5801 College Ave,37.8463,-122.2522,CA
830,Orange Park,Vitos Pizzeria,1101 Blanding Blvd,30.1311,-81.7836,FL
831,San Diego,Little Sam's Pizza,3250 Greyling Dr,32.8023,-117.1397,CA
832,Seal Beach,Z Pizza,12430 Seal Beach Blvd,33.7815,-118.0716,CA
833,Canoga Park,California Pizza Kitchen,6600 Topanga Canyon Blvd,34.1905,-118.6049,CA
834,Kingsburg,Corsaros Family Pizza,1456 Draper St,36.515,-119.5518,CA
835,Manteca,Jack's Pizza Cafe,1223 W Yosemite Ave,37.7982,-121.2367,CA
836,Buford,Marco's Pizza,5965 Cumming Hwy,34.1203,-84.0775,GA
837,Wyandotte,Mancinos,480 Eureka Rd,42.1999,-83.1559,MI
838,Lombard,Roundheads Pizza Pub,275 W Roosevelt Rd,41.86,-88.0224,IL
839,Ocala,Brooklyn's Original Pizzeria,1011 Ne 14th St,29.2009,-82.1273,FL
840,Rochester,Pi Pizza,3932 Marketplace Dr Nw,44.0636,-92.5016,MN
841,Hamtramck,Buddy's Pizza,17125 Conant St,42.419,-83.064,MI
842,Kalamazoo,Jet's Pizza,3321 Stadium Dr,42.2716,-85.6317,MI
843,Ann Arbor,Cottage Inn,546 Packard St,42.272,-83.7421,MI
844,San Diego,Fat Tony's Pizza,4973 Diane Ave,32.8357,-117.1869,CA
845,New Orleans,New York Pizza,4416 Magazine St,29.9205,-90.1021,LA
846,Chesterton,Gelsosomo's Pizzeria,371 Indian Boundary Rd,41.6168,-87.047,IN
847,Fort Wayne,Mancino's Pizza & Grinders,2892 E Dupont Rd,41.1788,-85.1066,IN
848,Bloomington,Aver's Pizza North/campus,1837 N Kinser Pike,39.1873,-86.5377,IN
849,Coeur d'Alene,Mac Kenzie River Pizza Co,405 W Canfield Ave,47.7335,-116.7935,ID
850,Aurora,Domino's Pizza,9 N Elmwood Dr,41.7627,-88.3398,IL
851,Grapevine,Cruise Shop,317 S Main St,32.938723,-97.078219,TX
852,Muskegon,Bernie O's Pizza,321 Center St,43.2626,-86.2624,MI
853,Sunnyvale,Little Caesar's Pizza,1039 Sunnyvale Saratoga Rd,37.3587,-122.0325,CA
854,Los Angeles,California Pizza Kitchen,6801 Hollywood Blvd,34.102,-118.3404,CA
855,Levittown,Scappa,8919 New Falls Rd,40.177257,-74.828993,PA
856,Elk Rapids,Chef Charles Pizza,147 River St,44.897985,-85.41387,MI
857,Cherryville,Pizza Como North,4209 Lehigh Dr,40.754196,-75.539535,PA
858,Madera,Me N Eds,120 Dwyer St,36.951971,-120.080625,CA
859,Florence,Grammas Pizza,8449 US Highway 42 Ste B,38.978014,-84.655929,KY
860,Goldsboro,Brooklyn Pizza,912 N Spence Ave,35.385068,-77.946232,NC
861,Cranberry Township,Champs Pizza House,1183 Freedom Rd,40.68324,-80.124745,PA
862,Lithia,New York pizza,10433 County Rd.39S,27.850721,-82.146012,FL
863,Green Cove Springs,DFontana,324 Ferris St,29.992076,-81.678813,FL
864,Tampa,Brunos Pizza Pasta Subs,2615 W Waters Ave,28.025603,-82.485745,FL
865,Greensburg,Little Es Pizza,807 Highland Ave,40.29285,-79.541406,PA
866,Brooklyn,Armandos Pizza,1717 Broadway,40.683405,-73.911306,NY
867,Lexington,Mad Mushroom Pizza,341 S Limestone,38.042803,-84.502579,KY
868,Gardena,PIZZA MACHINE,1610 W Redondo Beach Blvd,33.8886,-118.3042,CA
869,Los Angeles,Pizza Al Forno,6541 Hollywood Blvd,34.1018,-118.3324,CA
870,Ventura,Toppers Pizza Place,3940 E Main St,34.272777,-119.251138,CA
871,Orange City,Papa Johns Pizza,2625 Enterprise Rd Ste 400,28.914845,-81.291622,FL
872,Macedonia,Papa Johns Pizza,746 E Aurora Rd,41.313874,-81.511743,OH
873,Gilbert,Venezias Pizzeria,744 W Ray Rd,33.321641,-111.805551,AZ
874,New York,Garlic New York Pizza Bar,629 2nd Ave,40.745068,-73.975666,NY
875,Buffalo,Broadway Bobbys,677 Ridge Rd,42.825636,-78.826461,NY
876,Dayton,Cassanos,1200 Brown St Ste 110,39.741924,-84.182385,OH
877,Denver,Pie Hole,44 S Broadway,39.715726,-104.987188,CO
878,Kew Gardens,Singas Famous Pizza,8125 Lefferts Blvd,40.70887,-73.830499,NY
879,Bryan,DoubleDave's Pizza Works,2305 Boonville Rd,30.6735,-96.3353,TX
880,Petaluma,Old Chicago Pizza,41 Petaluma Blvd N,38.23385,-122.64029,CA
881,West Des Moines,Hometown Pizza,1960 Grand Ave Ste 1,41.57221,-93.72944,IA
882,Mishawaka,Samuel Mancino's Italian Eatery,4304 Lincolnway E,41.66354,-86.11193,IN
883,Auburn,Old Town Pizza,150 Sacramento Street,38.89504,-121.07837,CA
884,Oceanside,Gianni's Pizza,3910 Vista Way,33.18448,-117.29369,CA
885,Southport,Papa John's Pizza,4961 Long Beach Rd SE Ste 5,33.95173,-78.05096,NC
886,Plano,Campisi's Restaurant,4709 W Parker Rd Ste 400,33.04278,-96.79079,TX
887,San Antonio,Lucianos Family Pizzeria,8603 State Highway 151,29.438616,-98.655683,TX
888,Swarthmore,Swarthmore Pizza,601 S Chester Rd,39.891769,-75.3527,PA
889,Mechanicsburg,Al's Pizza Subs,6581 Carlisle Pike,40.24537,-77.03323,PA
890,New York,Mozzarellis,38 E 23rd St,40.74069,-73.987264,NY
891,Poway,Coney Island Pizzeria,14034 Poway Rd,32.95677,-117.026954,CA
892,Gardendale,Pasquales Pizza,219 Fieldstown Rd,33.651412,-86.812673,AL
893,New York,Crispy pizza cafe,114 7th Ave,40.740405,-73.998386,NY
894,Opelika,Brick Oven Pizza Co Tiger Town,2520 Enterprise Dr,32.619521,-85.410621,AL
895,Downers Grove,Roundheads Pizza Pub,2001 63rd St,41.772109,-88.032616,IL
896,Boulder,Cosmos Pizza,1325 Broadway,40.01007,-105.277021,CO
897,West Palm Beach,Amici Brick Oven Pizza,801 Village Blvd Ste 306,26.71365,-80.10205,FL
898,Oshkosh,Glass Nickel Pizza,2407 Jackson St,44.0464,-88.5428,WI
899,Castle Rock,Papa John's Pizza,390 S Wilcox St Ste E,39.36597,-104.86183,CO
900,Bayside,Vi Pizza,4302 Bell Blvd,40.761232,-73.770025,NY
901,Racine,Ferraro's Pizza,3700 Meachem Rd,42.689,-87.8359,WI
902,Milwaukee,Nypd,231 E North Ave,43.0602,-87.9086,WI
903,Kansas City,The Art of Pizza,1801 Baltimore Ave,39.073,-94.5864,MO
904,Buffalo,Dough Bois,56 Niagara St,42.885172,-78.876925,NY
905,Ottawa,Pizza Time,133 S Main St,38.615476,-95.268569,KS
906,Pottstown,Parma Pizza,600 Heritage Dr Ste 101,40.24502,-75.60125,PA
907,Springfield,Coz's Pizza & Pub,4441 Ash Grove Dr.,39.7542,-89.7333,IL
908,Urbana,Manolo's Pizza & Empanadas,1115 W Oregon St,40.107,-88.2235,IL
909,Manteca,Mountain Mike's Pizza,1120 N Main St,37.8124,-121.217,CA
910,Walnut Grove,Pizza Factory,14127 River Rd,38.2389,-121.5289,CA
911,Harrisonburg,Benny Sorrentino's,64 S Mason St,38.4482,-78.8665,VA
912,Richmond,Assante's Pizza,1845 W Broad St,37.5565,-77.4604,VA
913,Racine,Infusino's Pizzeria,3301 Washington Ave,42.7184,-87.8187,WI
914,Cudahy,Papa Luigi's Pizza,3475 E Layton Ave,42.9588,-87.8628,WI
915,San Francisco,Oz Pizza,508 Castro Street,37.760646,-122.435151,CA
916,Roanoke,Emilio's Famous Pizza,1207 Jamison Ave SE,37.2702722,-79.9233505,VA
917,Seattle,Big Mario's (Queen Anne),815 5th Ave N,47.626822,-122.347738,WA
918,Jacksonville,Chicago Pizza & Sports Grille,2 Independent Drive,30.3246,-81.6613,FL
919,New York,Solo Pizza NYC,27 Avenue B,40.7222599,-73.9829462,NY
920,Marshall,Mazzio's Pizza,990 S Odell Ave,39.1114,-93.1948,MO
921,Columbia,Gumby's Pizza,1201 E Broadway,38.9518,-92.3241,MO
922,Spokane,Rocky Rococo,520 W Main Ave,47.6592,-117.4205,WA
923,Chesapeake,Casa Di Costanzo Pizza Llc,1464 Mount Pleasant Rd,36.715,-76.1877,VA
924,Ocean City,Milano Pizzeria,901 Atlantic Ave,38.3405,-75.0806,MD
925,Woodbridge,Brixx Wood Fired Pizza,14900 Potomac Town Pl,38.629,-77.2876,VA
926,Longview,Papa Pete's Pizza,5614 Ocean Beach Hwy,46.172,-123.0163,WA
927,Appleton,Papa John's Pizza,4055 E Calumet St,44.2432,-88.345,WI
928,Amarillo,Papa John's Pizza,1005 S Georgia St,35.2043,-101.8659,TX
929,Odessa,Teak & Charlie's Jersey Girl Pizza,4007 John Ben Shepperd Pkwy,31.8897,-102.3328,TX
930,Sulphur Springs,Pizza Inn,1320 Mockingbird Ln,33.1147,-95.5925,TX
931,Olympia,Old School Pizzeria,108 Franklin St NE,47.0451,-122.8991,WA
932,Wayne,Domino's Pizza,128 W Lancaster Ave,40.0438,-75.3903,PA
933,Maryville,Casey's Carry Out Pizza,1520 N Main St,40.3593,-94.8731,MO
934,Potomac,Potomac Pizza,9812 Falls Rd,39.0171,-77.2106,MD
935,Marion,Pizza King,1212 N Baldwin Ave,40.5733,-85.6757,IN
936,Bloomington,Papa John's Pizza,5221 W State Hwy 46,39.1667,-86.4604,IN
937,Macon,Macon Pizza Company,5978 Zebulon Rd,32.8798,-83.7563,GA
938,Alpharetta,Rosa's Pizza,11025 Jones Bridge Rd,34.0497,-84.2204,GA
939,Akron,Romeo's Pizza,2283 W Market St,41.117902,-81.58839,OH
940,Austin,Spartan Pizza,1104 E 6th St,30.26492,-97.73102,TX
941,Indianapolis,Napolis Pizza,3475 N Shadeland Ave,39.81996,-86.04494,IN
942,Rye,Planet Pizza,1004 Boston Post Rd,40.97888954,-73.68464139,NY
943,Lithia Springs,Johnny's New York Style Pizza,230 Thornton Rd A,33.7961,-84.6396,GA
944,Naples,Naples Pizza,6014 Radio Rd,26.1539,-81.74,FL
945,Deerfield Beach,Nicks Pizza,137 NE 2nd Ave,26.3198,-80.0999,FL
946,Castle Rock,Papa John's Pizza,390 S Wilcox St,39.36596501,-104.8618088,CO
947,Columbus,Massey's Pizza,261 Lincoln Cir,40.017825,-82.873346,OH
948,Berkeley,West Coast Pizza,1706 University Ave,37.870827,-122.277229,CA
949,Riverside,Pizza Pirates,10255 Mission Blvd,34.016895,-117.505705,CA
950,Valley Village,Danielle's Wood-fired Pizza,4822 Laurel Canyon Blvd,34.15828,-118.39615,CA
951,Winter Park,Park Avenue Pizza,119 E Lyman Ave,28.5951,-81.3505,FL
952,Tracy,Straw Hat Pizza,3228 N Tracy Blvd,37.7602,-121.435,CA
953,Poughkeepsie,La Luna,2507 South Rd,41.656607,-73.939494,NY
954,Norfolk,Sals Pizza Military Hwy,1207 N Military Hwy,36.863327,-76.211507,VA
955,West Jordan,Papa Murphys,2688 W 9000 S,40.588116,-111.957478,UT
956,Fort Lauderdale,Anthony's Coal Fired Pizza,2203 S Federal Hwy,26.09444,-80.13695,FL
957,La Verne,Red Devil Pizza,1465 Foothill Blvd,34.118236,-117.775455,CA
958,Norfolk,University Pizza,5008 Colley Ave,36.888756,-76.295135,VA
959,Arlington,Pizza Autentica,2450 Crystal Dr,38.851841,-77.049902,VA
960,New York,Librettos Pizzeria,546 3rd Ave,40.747196,-73.977089,NY
961,Concord,Giovanni's Pizza,559 Winecoff School Rd,35.44303487,-80.62424435,NC
962,Maspeth,Labella Mariella Pizzeria,6061 Fresh Pond Rd,40.71536,-73.90137,NY
963,Rockaway Park,Slices N Ices,208 Beach 116th St,40.580076,-73.837317,NY
964,Bronx,Pugsley Pizza,590 E 191st St,40.85881,-73.88475,NY
965,Bronx,Nona's Pizza,6100 Riverdale Ave,40.910131,-73.902837,NY
966,Bronx,Pizza Chef,564 W 235th St,40.88564,-73.910245,NY
967,Bronx,Addeo's Riverdale Pizzeria,5654 Riverdale Ave,40.905766,-73.90411,NY
968,Aberdeen,Frank's Pizza,37 W Bel Air Ave,39.509636,-76.16463,MD
969,Bloomingdale,Cugini's Pizza,360 W Schick Rd,41.95297,-88.109796,IL
970,Portage,Mancinos Pizza & Grinders,10100 Shaver Rd,42.1705,-85.61576,MI
971,Redmond,Romio's Pizza & Pasta,16801 Redmond Way,47.67197,-122.11512,WA
972,San Dimas,Michael Angelo's Pizza,552 W Arrow Hwy,34.103462,-117.818347,CA
973,Los Angeles,Lamonica's New York Pizza,1066 Gayley Ave,34.060987,-118.446939,CA
974,Placentia,Pizza Store,2091 E Orangethorpe Ave,33.866934,-117.818884,CA
975,San Gabriel,Pizza Place California,303 S Mission Dr,34.098306,-118.109523,CA
976,San Francisco,Escape From New York Pizza,3242 22nd St,37.755246,-122.421973,CA
977,Torrance,Georgio's Pizza,4964 W 190th St,33.857817,-118.363985,CA
978,Miami Beach,DECO Pizza,1249 Washington Ave,25.783774,-80.132097,FL
979,Salt Lake City,Big Apple Pizzeria,2939 E 3300 S,40.699919,-111.809314,UT
980,Salt Lake City,Este Pizzeria,156 E 200 S,40.76479,-111.88636,UT
981,Keller,Mr Jim's Pizza,705 S Main St,32.925617,-97.253625,TX
982,Chicago,Pizza Nova,558 W 43rd St,41.81637,-87.63956,IL
983,Hershey,Your Place Restaurant Pub,1077 W Governor Rd,40.268162,-76.678916,PA
984,Southfield,Bellacinos,29101 Northwestern Hwy,42.50076,-83.310208,MI
985,Fort Wayne,Pizza Forum,1019 E Coliseum Blvd,41.117934,-85.126237,IN
986,Easton,Gino''s Pizza,349 Northampton St,40.691159,-75.210755,PA
987,Newtown,Marco's Pizzeria,2102 S Eagle Rd,40.23015,-74.94066,PA
988,Brooklyn,Ben's Pizzeria,8125 3rd Ave,40.626485,-74.029692,NY
989,Amherst,DTutanellis Pizza,103 Milan Ave,41.398963,-82.226948,OH
990,Anaheim,Porkys Pizza,8285 E Santa Ana Canyon Rd,33.867874,-117.744221,CA
991,Coraopolis,Angelia's Pizza,202 Moon Clinton Rd,40.5131,-80.2232,PA
992,Seattle,A-Pizza Mart,2525 6th Ave,47.618081,-122.344591,WA
993,West Bend,Sal's Pizzeria,161 N Main St,43.42459003,-88.183097,WI
994,Little Rock,Larry's Pizza,801 S Bowman Rd,34.74626,-92.40612,AR
995,Chicago,Bacci Pizzeria,950 W Addison St,41.9475,-87.65392,IL
996,Wyncote,Vinny's Pizza,835 Glenside Ave,40.097774,-75.145428,PA
997,Jackson Heights,Pizza Sam,8906 Northern Blvd,40.755993,-73.878493,NY
998,New York,Little Italy Pizza & Deli,180 Varick St,40.727203,-74.005386,NY
999,Brooklyn,Bergen Pizza,67 6th Ave,40.68059,-73.974394,NY
1000,Shelby,Pizza Factory,229 N Michigan Ave,43.6124,-86.3639,MI
1001,Thorndale,Joey's Pizza,3449 Lincoln Hwy,39.995593,-75.749395,PA
1002,Lansdale,New Station Pizza,15 S Broad St,40.24091,-75.28396,PA
1003,Pittsburgh,Gennaros Pizza & Pasta,1728 E Carson St,40.42858,-79.98105,PA
1004,Oviedo,Backstreet,1949 W County Road 419,28.65137253,-81.15728784,FL
1005,Bronx,Katonah Pizza & Pasta,4307 Katonah Ave,40.898674,-73.86765,NY
1006,Pagosa Springs,Pagosa Peaks Pizza,10 Solomon Dr,37.26796,-107.05387,CO
1007,Brooklyn,Knapp Pizza III,427 Kings Hwy,40.604633,-73.974098,NY
1008,West Islip,Italianos,5 Udall Rd,40.710463,-73.306392,NY
1009,Denver,ZaZas Pizzeria,2041 S University Blvd,39.679472,-104.95961,CO
1010,Park City,Este Pizza Park City,1781 Sidewinder Dr,40.662943,-111.49849,UT
1011,Seattle,Spiro's Pizza & Pasta,18411 Aurora Ave N,47.762936,-122.34634,WA
1012,Atlanta,Sarpino's Pizzeria,1000 Northside Dr NW,33.781799,-84.407868,GA
1013,Seattle,Olympia Pizza & Spaghetti House II,4501 Interlake Ave N,47.66174,-122.340919,WA
1014,Berkley,UNCLE Andy's Pizza,28957 Woodward Ave,42.50285,-83.17263,MI
1015,Bethel,Rizzuto's Wood-Fired Pizza Kitchen & Bar,6 Stony Hill Rd,41.41741,-73.39989,CT
1016,Brooklyn,Billys Pizza,1627 Bedford Ave.,40.667097,-73.956329,NY
1017,New City,Pakulas Pizza,257 S Little Tor Rd,41.130974,-74.001943,NY
1018,Santa Monica,SLICE,1622 Ocean Park Blvd,34.01184,-118.467922,CA
1019,Brooklyn,Mario's Pizzeria,373 Waverly Ave,40.686832,-73.96639,NY
1020,Houston,Two Guys Pizzeria,2250 W Holcombe Blvd,29.706558,-95.411529,TX
1021,Brooklyn,Papa John's Pizza,138 4th Ave,40.6803,-73.9814,NY
1022,San Francisco,Eagle Pizzeria,1712 Taraval St,37.742873,-122.484556,CA
1023,Orange,Wise Guys Pizzeria,7606 E Chapman Ave,33.790675,-117.787695,CA
1024,Ridgewood,Houdini Kitchen Laboratory,1563 Decatur St,40.69377,-73.902496,NY
1025,Mason,Pizano's Pizza,302 S Cedar St,42.57974,-84.45286,MI
1026,Brooklyn,Tonys Pizza On Nostrand,850 Nostrand Ave,40.668858,-73.95086,NY
1027,Pittsburgh,Pizza Perfectta Inc,258 S Highland Ave,40.457191,-79.925282,PA
1028,Pasadena,Big Mama's & Papa's Pizzeria,1772 E Colorado Blvd,34.14592,-118.11391,CA
1029,New York,New York Sal's Pizza,696 10th Ave,40.763737,-73.99217,NY
1030,Bronx,Sal's Pizzeria,3167 Bainbridge Ave,40.87533,-73.879657,NY
1031,Chicago,Lou Malnati's Pizzeria,1120 N State St,41.90263,-87.62868,IL
1032,Sunnyvale,Giovanni's Pizzeria,1127 N Lawrence Expy,37.39696,-121.995843,CA
1033,Scranton,Two Brothers Restaurant & Pizzeria,215 E Drinker St,41.421826,-75.62933,PA
1034,Bronx,University Pizza & Restaurant,574 E Fordham Rd,40.858718,-73.885875,NY
1035,Baltimore,Ultimate Pizza,29 E Cross St,39.276922,-76.613533,MD
1036,Fort Worth,Rocco's Pizza,5716 Locke Ave,32.732377,-97.408932,TX
1037,New York,Muzzarella Pizza,221 Avenue A,40.730225,-73.980782,NY
1038,New York,Harlem Pizza Co,135 W 116th St,40.802822,-73.951198,NY
1039,Dallas,Pizza By Marco,10720 Preston Rd,32.89433131,-96.80348659,TX
1040,Hicksville,Pasta-eria,440 S Oyster Bay Rd,40.78059,-73.503973,NY
1041,King of Prussia,Pizzeria Vetri,640 W Dekalb Pike,40.089966,-75.384346,PA
1042,Philadelphia,Rex Pizza,1526 Race St,39.95657,-75.16542,PA
1043,Lawrenceville,Fini's Pizzeria,1032 Old Peachtree Rd NW,33.998778,-84.069514,GA
1044,Fairbanks,Papa John's Pizza,32 College Rd,64.8505,-147.7024,AK
1045,New York,Big Al's Chicago Style Pizza,9 Thames St,40.708878,-74.011925,NY
1046,Philadelphia,Castor Pizza,6038 Castor Ave,40.035227,-75.081675,PA
1047,Westland,Krustyzz Pizza,28985 Joy Rd,42.35469,-83.32826,MI
1048,Miami Beach,I Love Pizza,7105 Collins Ave,25.856428,-80.120492,FL
1049,Glenwood Springs,Russos Ny Pizza,20 Market St,39.55407,-107.343721,CO
1050,Grand Rapids,Faros Pizza,3963 28th St SE,42.913295,-85.569751,MI
1051,Americus,Roman Oven Pizzaria,1604 E Forsyth St,32.072538,-84.207015,GA
1052,Hanford,Boston House of Pizza,208 N 12th Ave,36.325115,-119.6735,CA
1053,Richton Park,Aurelios Pizza Richton Park,3740 Sauk Trl,41.48465,-87.7066,IL
1054,Bradenton,Ferraros Pizza And Restaurant,817 Tamiami Trl,27.492279,-82.574907,FL
1055,Brooklyn,Albanese Pizza Restaurant,412 5th Ave,40.670147,-73.985457,NY
1056,Irwin,Black Sheep Bar Grill,100 Tropiano Ln,40.370769,-79.681643,PA
1057,Santa Cruz,Pizza My Heart,1116 Pacific Ave,36.972261,-122.025561,CA
1058,Dallas,Divino's Pizza,4201 Gaston Ave Ste 104,32.795178,-96.776294,TX
1059,Fort Worth,Pie Five Pizza Co.,2600 W 7th St Ste 105,32.75106,-97.35291,TX
1060,New York,Two Boots West Village,201 W 11th Street,40.736529,-74.001229,NY
1061,New Hyde Park,Ninas Pizza Pasta,725 Hillside Ave,40.742774,-73.694985,NY
1062,Deer Park,Deer Hills Pizzeria,2128 Deer Park Ave,40.773244,-73.334446,NY
1063,Sparks,Blind Onion Pizza Pub,824 Victorian Ave,39.535018,-119.753812,NV
1064,New York,Roses Pizza Pasta,1 Penn Plz,40.75116,-73.992933,NY
1065,Philadelphia,Milanos Pizzeria Grill,127 S 10th St,39.949006,-75.157203,PA
1066,Pacifica,Papa Murphys,330 Palmetto Ave,37.651844,-122.491104,CA
1067,Chicago,Santullos Eatery,1943 W North Ave,41.9105,-87.676736,IL
1068,Lake Elsinore,Papa Johns Pizza,25381 Railroad Canyon Rd,33.668995,-117.263902,CA
1069,New York,Ben's Pizzeria,123 Macdougal St,40.730377,-74.00032,NY
1070,New York,Village Pizza,65 8th Ave,40.739292,-74.002769,NY
1071,Pittsburgh,Graziano's Pizzeria,4109 Penn Ave,40.465784,-79.954839,PA
1072,Marlette,Beagios Pizza,3003 Main St,43.327908,-83.079753,MI
1073,Kaneohe,Brick Oven Pizza,46-047 Kamehameha Hwy Unit 6C,21.421326,-157.802443,HI
1074,Encino,Fresh Brothers,16060 Ventura Blvd,34.156216,-118.483204,CA
1075,Cleveland,Pizza Pan,8232 Carnegie Ave,41.503402,-81.629316,OH
1076,San Luis Obispo,Papa Johns Pizza,3212 Broad St,35.261037,-120.648883,CA
1077,Millsboro,Pizza King,28632 DuPont Blvd,38.576621,-75.288572,DE
1078,Brooklyn,Verrazano Pizza,9102 4th Ave,40.619143,-74.029998,NY
1079,Lake Forest,Donatis Pizza,950 N Western Ave,42.256857,-87.841705,IL
1080,Las Vegas,Round Table Pizza,7141 S Eastern Ave,36.059636,-115.119434,NV
1081,Rye,Planet Pizza Rye,1004 Boston Post Rd,40.978807,-73.684649,NY
1082,Depew,Penora's Pizza,5055 Broadway,42.90155,-78.687683,NY
1083,New York,Lazzaras Pizza,221 W 38th St,40.753906,-73.989608,NY
1084,Houston,China Inn Fine Chinese Cuisine,8100 Highway 6 N,29.902158,-95.635601,TX
1085,Warren,Sorrentos Pizza,8284 E 9 Mile Rd,42.463027,-83.021862,MI
1086,El Cajon,Mamma Rosa Italian Restaurant,1773 E Main St,32.814055,-116.916543,CA
1087,Macomb,Hungry Howies Pizza,51074 Romeo Plank Rd,42.673294,-82.940409,MI
1088,Vero Beach,Big Apple,2950 9th St SW,27.58813,-80.41601,FL
1089,Schaumburg,Marios Pizza,522 S Roselle Rd,42.017729,-88.081497,IL
1090,Riverton,Rock Creek Pizza Co,1276 W 12600 S,40.522358,-111.92845,UT
1091,Seattle,Bison Creek Pizza,630 SW 153rd St # F,47.4659,-122.34306,WA
1092,New York,T R Pizza,411 Amsterdam Ave,40.783658,-73.977987,NY
1093,Durham,Lillys,810 W Peabody St,35.999083,-78.90945,NC
1094,Miami,Mr Noodles Pizza,2530 NE Miami Gardens Dr,25.947253,-80.15059,FL
1095,Wood Dale,Marinos Pizza,136 E Irving Park Rd,41.962902,-87.977347,IL
1096,Miami,Old World Pizza,15794 SW 56th St,25.713001,-80.448768,FL
1097,High Point,Rome Italian Pizza,2100 N Main St,35.983054,-80.022826,NC
1098,Ocala,Pronto Pizza,303 SE 17th St,29.171632,-82.10874,FL
1099,Omaha,Big Freds Pizza Garden,1101 S 119th St,41.248259,-96.098751,NE
1100,Lombard,Bricks Wood Fired Pizza,132 W Saint Charles Rd,41.886751,-88.021187,IL
1101,Encino,Mulberry Street Pizzeria Encino,17040 Ventura Blvd,34.159914,-118.504732,CA
1102,Melville,Victors Pizza Pasta House,712 Walt Whitman Rd,40.804446,-73.409936,NY
1103,Phoenixville,Express Pizza,217 Bridge St,40.134042,-75.517065,PA
1104,Knoxville,Davincis Pizzeria,3337 Sutherland Ave,35.949725,-83.97356,TN
1105,York,Papa Johns Pizza,914 E Liberty St Ste B-23,34.984795,-81.228594,SC
1106,Lisle,Passeros Pizza,5328 Main St (Rt 53),41.788279,-88.074833,IL
1107,Lynnwood,Buca di Beppo Italian Restaurant,4301 Alderwood Mall Blvd,47.817693,-122.291033,WA
1108,Oxford,Pats Pizza,351 N 3rd St,39.79387,-75.976115,PA
1109,Los Angeles,Tony Maronis Famous Gourmet Pizza,11645 Wilshire Blvd,34.050172,-118.460029,CA
1110,Middletown,Pats Pizza,311 N Broad St,39.452627,-75.717276,DE
1111,San Jose,Pizza Maria,302 Toyon Ave,37.381417,-121.825994,CA
1112,Cary,The Original NY Pizza,6458 Tryon Rd,35.745533,-78.76221,NC
1113,Brandon,Anthonys Coal Fired Pizza,1912 W Brandon Blvd,27.938068,-82.315844,FL
1114,San Marcos,Valentinos Pizza,110 N Lbj Dr,29.882507,-97.939917,TX
1115,Syosset,Phil Sons Pizzeria and Restaurant,377 S Oyster Bay Rd,40.785445,-73.501596,NY
1116,Henrico,Extreme Pizza,11653 W Broad St,37.652274,-77.618403,VA
1117,New York,La Vera Pizza,922 2nd Ave,40.754058,-73.968909,NY
1118,New York,Grimaldi's,656 Avenue Of The Americas,40.741064,-73.993944,NY
1119,Buffalo,Pat's Pizzeria,544 Ontario St,42.958246,-78.896041,NY
1120,Los Angeles,Italiano's Pizza,5101 York Blvd,34.121169,-118.204592,CA
1121,Los Angeles,Tomato Pie,7751 1/2 Melrose Ave,34.083887,-118.358655,CA
1122,Farmingdale,Cascarino's,302 Main St,40.732558,-73.446004,NY
1123,Astoria,Salerno Pizza,29-24 30th Ave,40.767368,-73.922714,NY
1124,New York,Pomodoro Ristorante,51 Spring St,40.722028,-73.996423,NY
1125,New York,Famous Original Ray's Pizza,1827 2nd Ave,40.783414,-73.948014,NY
1126,Brooklyn,Smiling Pizza Restaurant,323 7th Ave,40.667034,-73.981452,NY
1127,Ozone Park,Romeo's Pizza,103-20 Liberty Ave,40.681724,-73.837618,NY
1128,Jackson Heights,Pizza Boy,7404 37th Ave,40.748964,-73.891715,NY
1129,New York,Belmora Pizza & Restaurant,139 E 57th St,40.760937,-73.969096,NY
1130,Brooklyn,Gino's Restaurant,7414 5th Ave,40.62987,-74.02249,NY
1131,New York,Famous Original Ray's Pizza,736 7th Ave,40.760351,-73.983873,NY
1132,Brooklyn,OMG Pizza,1307 Myrtle Ave,40.698128,-73.925081,NY
1133,New York,Pastafina,876 Lexington Ave,40.766337,-73.965289,NY
1134,New York,John's of Bleecker Street,278 Bleecker St,40.731674,-74.003381,NY
1135,New York,Lil' Frankie's,19 1st Ave,40.723668,-73.988546,NY
1136,New York,Da Vinci Pizza,44 Water St,40.703556,-74.010011,NY
1137,New York,New York Pizza Suprema,413 8th Ave,40.750052,-73.995007,NY
1138,New York,Mariella Pizza,965 Lexington Ave,40.76915,-73.962822,NY
1139,New York,Royal Pizza,592 3rd Ave,40.748789,-73.976255,NY
1140,New York,Sutton Pizza and Gyro,1140 1st Ave,40.761803,-73.960159,NY
1141,Brooklyn,Pizzatown,85 5th Ave,40.680023,-73.978003,NY
1142,Santa Barbara,Pizza Mizza,140 S Hope Ave,34.436726,-119.748688,CA
1143,Boise,Idaho Pizza Company,4218 W Overland Rd,43.589757,-116.234494,ID
1144,Macomb,Sorrento Pizza,16631 21 Mile Rd,42.642234,-82.955978,MI
1145,Tonawanda,John's Pizza Subs,4241 Delaware Ave,42.99975262,-78.87476708,NY
1146,Gilbert,Sal's Gilbert Pizza,1150 S Gilbert Rd,33.32911,-111.790677,AZ
1147,Bronx,Goodfella's Pizza,3661 Waldo Ave,40.887121,-73.904301,NY
1148,Bronx,Dino's Pizzeria,5660 Mosholu Ave,40.905048,-73.901438,NY
1149,Yonkers,Pizza In The Square,750 Central Park Ave,40.92573,-73.85606,NY
1150,Henderson,Buon Gusto,2642 W Horizon Ridge Pkwy,36.001881,-115.102955,NV
1151,Branson,Luigi's Pizza Kitchen,1447 State Highway 248,36.662774,-93.240597,MO
1152,Houston,Chuck E. Cheese's,14637 Memorial Dr,29.770062,-95.607981,TX
1153,Naples,Napoli On The Bay,820 12th Ave S,26.13263,-81.794716,FL
1154,El Mirage,Mario's Pizza,13915 N Dysart Rd,33.61057,-112.341209,AZ
1155,Manhattan Beach,Union Pizza Company,1570 Rosecrans Ave,33.901695,-118.385485,CA
1156,Peoria,Streets of New York,9240 W Northern Ave,33.552664,-112.258016,AZ
1157,Chicago,Papa John's Pizza,4606 W Diversey Ave,41.931592,-87.741939,IL
1158,Brooklyn,Piz-zetta,90 Livingston St,40.691267,-73.990643,NY
1159,Saint Louis,Twin Oak Wood Fire Fare,1201 Strassner Dr,38.622946,-90.334966,MO
1160,Bakersfield,Round Table Pizza,4200 Gosford Rd,35.31707,-119.09156,CA
1161,Charlotte,Zucca Pizza Tavern,2000 South Blvd,35.209278,-80.860679,NC
1162,Tampa,ABC Pizza,7512 W Hillsborough Ave,27.996336,-82.563664,FL
1163,Arlington,Pie-Tanza,2503 N Harrison St,38.897379,-77.139212,VA
1164,Arlington,Piola,1550 Wilson Blvd,38.89418,-77.076237,VA
1165,Syracuse,Luigi's,1524 Valley Dr,43.002766,-76.153465,NY
1166,Patchogue,Gino's Pizza,22 W Main St,40.765725,-73.015683,NY
1167,Jacksonville,Rennas Pizza,840 Nautica Dr,30.480182,-81.638517,FL
1168,Boulder,Papa Murphy's,3325 28th St,40.035269,-105.259768,CO
1169,Austin,Papa Murphy's,12407 N Mo Pac Expy,30.416873,-97.704935,TX
1170,Newark,Sbarro,2077 Newpark Mall,37.52823,-122.000245,CA
1171,El Cajon,Sbarro,689 Parkway Plz,32.804533,-116.966542,CA
1172,Mission,Godfather's Pizza,7002 Johnson Dr,39.022612,-94.666323,KS
1173,Cheswick,Pizza Hut,1300 Pittsburgh St,40.541076,-79.802482,PA
1174,McKeesport,Pizza Hut,406 Lysle Blvd,40.351733,-79.863189,PA
1175,Spring,DoubleDave's Pizza Works,7312 Louetta Rd,30.020866,-95.524098,TX
1176,Spring,DoubleDave's Pizza Works,2626 Research Forest Dr,30.177428,-95.477531,TX
1177,Austin,DoubleDave's Pizza Works,3421 W William Cannon Dr,30.212961,-97.82944,TX
1178,Roseville,Detroit Style Pizza Co,29347 Gratiot Ave,42.512938,-82.926937,MI
1179,Thousand Oaks,California Pizza Kitchen,2200 E Thousand Oaks Blvd,34.174461,-118.844574,CA
1180,Canton,Johnny's Pizza,6124 Hickory Flat Hwy,34.176702,-84.420458,GA
1181,Fayetteville,Johnny's Pizza,230 Glynn St N,33.451048,-84.455063,GA
1182,Atlanta,Johnny's Pizza,834 Virginia Ave,33.659073,-84.416482,GA
1183,Sacramento,California Pizza Kitchen,1735 Arden Way,38.599467,-121.42662,CA
1184,Mesquite,Pizza Inn,3315 N Town East Blvd,32.801954,-96.646622,TX
1185,Nacogdoches,Mazzio's Pizza,1133 N University Dr,31.611437,-94.640021,TX
1186,Lakewood,California Pizza Kitchen,500 Lakewood Center Mall,33.850455,-118.140378,CA
1187,Los Angeles,California Pizza Kitchen,11677 San Vicente Blvd,34.054118,-118.46511,CA
1188,Charleston,Paisano's Pizza Grill,1798 Ashley Road,32.802518,-80.01702,SC
1189,Tampa,Roma Pizza,1724 E 7th Ave,27.960411,-82.439702,FL
1190,Tampa,New York New York,1512 E 7th Ave,27.960247,-82.442426,FL
1191,Newark,Extreme Pizza,5829 Jarvis Ave,37.55239,-122.048035,CA
1192,Chicago,Pizza East,113125 N Green St,41.883746,-87.648281,IL
1193,Los Angeles,Fresh Brothers,11740 San Vicente Blvd,34.052925,-118.467013,CA
1194,Wilmington,Slice Of Life,3715 Patriot Way,34.174503,-77.893256,NC
1195,Seaside,AngelinaÂ’s Pizza,300 S Roosevelt Dr,45.99163,-123.92129,OR
1196,San Antonio,Barbaro,2720 McCullough Ave,29.455674,-98.491661,TX
1197,New York,Lower East Side Pizza,181 E Broadway,40.713863,-73.9892,NY
1198,Akron,PizzaFire,22 Exchange St,41.07621,-81.521279,OH
1199,Richardson,Coal Vines,1251 State St,33.001611,-96.70036,TX
1200,Aurora,Spizzico To Go,33 N Lake St,41.760166,-88.317748,IL
1201,Sacramento,Giovanni's Old World New York Pizzeria LP,5924 S Land Park Dr,38.519272,-121.51358,CA
1202,Sacramento,Laguna Pizza,8785 Center Pkwy Ste B100,38.439204,-121.418983,CA
1203,Madison Heights,Happy's Pizza,27080 John R Rd,42.492126,-83.104625,MI
1204,El Segundo,Andiamo Pizzeria,134 Main St,33.917359,-118.415554,CA
1205,San Francisco,Gialina Pizzeria,2842 Diamond St,37.733961,-122.43406,CA
1206,Albany,Albany Pizza Company,600 San Pablo Ave,37.895676,-122.301163,CA
1207,Reno,Pirates Pizza,180 W Peckham Ln,39.487042,-119.797864,NV
1208,Brooklyn,Layla Jones,214 Court St,40.686664,-73.99383,NY
1209,Henderson,Angelina's Pizzeria,835 Seven Hills Dr,35.996804,-115.124244,NV
1210,San Diego,A Brooklyn Pizzeria,401 C St,32.71657,-117.16102,CA
1211,Dallas,Dante's Italian Eatery,208 N Market St,32.780666,-96.806166,TX
1212,New York,Baker's Pizza,201 Avenue A,40.729476,-73.981244,NY
1213,Scranton,Alfredo's Pizza Cafe,1040 S Washington Ave,41.399429,-75.674653,PA
1214,Hudson,Bricks Neapolitan Pizza,407 2nd St,44.974094,-92.757116,WI
1215,Scottsdale,Il Bosco,7120 E Becker Ln,33.583142,-111.927321,AZ
1216,Santa Clarita,Lamppost Pizza,27661 Bouquet Canyon Rd,34.443173,-118.510685,CA
1217,La Quinta,Lamppost Pizza,78772 Highway 111,33.712079,-116.290919,CA
1218,Newberg,Abby's Legendary Pizza,1913 Portland Rd,45.302832,-122.960347,OR
1219,Rice Lake,Little Caesar's Pizza,2601 S Main St,45.477009,-91.735141,WI
1220,Hartford,Little Caesar's Pizza,1235 Bell Ave,43.31695,-88.360091,WI
1221,Waukesha,Little Caesar's Pizza,1617 Summit Ave,43.021826,-88.254084,WI
1222,Palestine,Little Caesar's Pizza,321 E Spring St,31.761702,-95.629073,TX
1223,Richmond,Little Caesar's Pizza,6823 Forest Hill Ave,37.53818,-77.520325,VA
1224,Austin,Gatti's Pizza,2121 W Parmer Ln,30.415855,-97.697148,TX
1225,Katy,Grimaldi's Pizzeria,2643 Commercial Center Blvd,29.740716,-95.775357,TX
1226,Lancaster,Little Caesar's Pizza,960 N Main St,34.729255,-80.775805,SC
1227,Ormond Beach,Little Caesar's Pizza,175 S Nova Rd,29.276176,-81.082906,FL
1228,Saint Petersburg,Little Caesar's Pizza,6653 Central Ave,27.770847,-82.729883,FL
1229,Satellite Beach,Little Caesar's Pizza,276 E Eau Gallie Blvd,28.138537,-80.596461,FL
1230,Madison,Little Caesar's Pizza,102 New Market,36.397847,-79.969764,NC
1231,Hendersonville,Little Caesar's Pizza,211 Asheville Hwy,35.3148,-82.461079,NC
1232,Hilton Head Island,Fat Baby's Pizza and Subs,120 Arrow Ro Suite B,32.159378,-80.763185,SC
1233,Hilton Head Island,Dough Boys,1B New Orleans Rd,32.159211,-80.752712,SC
1234,Sandy,Rock Creek Pizza Co.,10255 S 1300 E,40.565136,-111.853124,UT
1235,Marion,Zoey's Pizza,690 10th St,42.033134,-91.599388,IA
1236,Cincinnati,Werkhaus Pizza,3637 Werk Rd,39.141548,-84.624665,OH
1237,Playa del Rey,The Good Pizza,8115 W Manchester Ave,33.958889,-118.438278,CA
1238,Ballwin,Pizzarelli's,15858 Manchester Rd,38.592536,-90.585904,MO
1239,Hudson,Red's Savoy Pizza,1830 Webster St,44.960196,-92.732063,WI
1240,Nashville,Pizza Perfect,341 Clofton Dr,36.063827,-86.939213,TN
1241,Chicago,Coalfire,1321 W Grand Ave,41.891039,-87.659182,IL
1242,Depew,Grasso's,5202 Transit Rd,42.89685,-78.697144,NY
1243,Miami,Leo's Pizza,6720 Coral Way,25.747757,-80.304247,FL
1244,Atlanta,Papa John's Pizza,8725 Roswell Rd,33.995873,-84.349807,GA
1245,Athens,Papa John's Pizza,1860 Barnett Shoals Rd,33.924903,-83.339783,GA
1246,Portland,Saint Pizza Lounge,3817 SE Gladstone St,45.493479,-122.623439,OR
1247,Schaumburg,Little Caesar's Pizza,1648 E Algonquin Rd,42.066064,-88.037924,IL
1248,Sparks,Black Rock Pizza Co.,2855 N Mccarran Blvd,39.556387,-119.755348,NV
1249,Sugar Land,Grimaldi's Pizzeria,16535 Southwest Fwy,29.592916,-95.623048,TX
1250,Redwood City,Pronto Pizzeria Rotisserie,2560 El Camino Real,37.47290538,-122.2171314,CA
1251,Mesa,Barro's Pizza,1545 S Power Rd,33.388018,-111.683937,AZ
1252,New York,Sofia Pizza Shoppe,989 1st Ave,40.756676,-73.964348,NY
1253,Gainesville,Brooklyn Bros Pizzeria,8010 Crescent Park Dr,38.784637,-77.663836,VA
1254,Lynnwood,Astoria's Pizza Pasta,4629 168th St SW,47.846762,-122.296074,WA
1255,Philadelphia,Art Of Pizza,431 E Girard Ave,39.970539,-75.129702,PA
1256,Palo Alto,California Pizza Kitchen,136 Stanford Shopping Center,37.443415,-122.172272,CA
1257,Torrance,Jack's Pizza,5007 Pacific Coast Hwy,33.812763,-118.367578,CA
1258,Selinsgrove,Bella's Pizza,29 N Market St,40.798672,-76.862135,PA
1259,Phoenix,Sauce,742 E Glendale Ave,33.53876,-112.06394,AZ
1260,Reading,Mama's Pizza,2661 Shillington Rd,40.316742,-76.000534,PA
1261,Austin,Austin Terrier,3435 Greystone Dr,30.357106,-97.74863,TX
1262,Cedar Park,Buca di Beppo Italian Restaurant,11200 Lakeline Mall Dr,30.47077,-97.806219,TX
1263,Mesa,Barro's Pizza,1113 S Signal Butte Rd,33.3951,-111.597641,AZ
1264,Mesa,Barro's Pizza,2711 S Alma School Rd,33.365251,-111.859094,AZ
1265,Mesa,Barro's Pizza,1066 N Power Rd,33.435691,-111.684866,AZ
1266,Chattanooga,Lupi's,406 Broad St,35.051879,-85.310575,TN
1267,Buffalo,La Nova Pizzeria,371 W Ferry St,42.915339,-78.887454,NY
1268,Buffalo,La Nova Pizzeria,5151 Main St,42.960153,-78.760884,NY
1269,Belleview,Belleview Pizza,5428 SE Abshier Blvd,29.059934,-82.058825,FL
1270,Columbus,Mikey's Late Night Slice,15 E Duncan St,40.015651,-83.011279,OH
1271,San Antonio,Twin City Pizza,6151 FM 78,29.477237,-98.368641,TX
1272,Harrisburg,Sorrento Pizza,1845 Derry St,40.261778,-76.859415,PA
1273,Carle Place,Angelo's Pizza,215 Glen Cove Rd,40.747841,-73.617626,NY
1274,Flushing,Gino's Pizzeria,6501 Kissena Blvd,40.737123,-73.814621,NY
1275,Columbus,Rotolo's Pizza,2163 W Dublin Granville Rd,40.089641,-83.048094,OH
1276,Evanston,Union Pizzeria,1245 Chicago Ave,42.040121,-87.680374,IL
1277,Oceanside,Tony Pepperoni Pizzeria,805 College Blvd,33.24096,-117.292482,CA
1278,Anaheim,Pizza Boy,1177 S State College Blvd,33.819399,-117.889665,CA
1279,Valencia,Z Pizza,27015 Mcbean Pkwy,34.422946,-118.564031,CA
1280,Long Beach,Rezzini's Pizzeria,3960 N Studebaker Rd,33.829891,-118.099479,CA
1281,Astoria,One Stop Pizza,2815 36th Ave,40.757476,-73.931586,NY
1282,New York,New Roma Pizza,116 Delancey St,40.719181,-73.987645,NY
1283,Charlotte,Libretto's Pizzeria,15205 John J Delaney Dr Ste A,35.054154,-80.846687,NC
1284,Charlotte,TRUE Crafted Pizza,7828 Rea Rd,35.06116152,-80.81696533,NC
1285,Port Orange,Mama Mia's Pizza,3761 S Nova Rd,29.131123,-81.00595581,FL
1286,Brooklyn,Forcella La Pizza Di Napoli,485 Lorimer St,40.711535,-73.949063,NY
1287,Huntington Beach,King's Pizza,5908 Edinger Ave,33.729939,-118.025043,CA
1288,Miami,Sir Pizza,12562 SW 120th St,25.656882,-80.390947,FL
1289,Kalamazoo,Papa John's Pizza,1710 W Main St,42.294491,-85.609596,MI
1290,Brooklyn,City Line Pizza and Pasta,1224 Liberty Ave,40.67906,-73.86384,NY
1291,Warren,Jet's Pizza,31089 Hayes Rd,42.525104,-82.96906,MI
1292,Saline,Jet's Pizza,715 W Michigan Ave,42.161734,-83.793651,MI
1293,Rochester,Jet's Pizza,2034 W Auburn Rd,42.635012,-83.171121,MI
1294,Spokane,"MacKenzie River Pizza, Grill Pub",2910 E 57th Ave Ste E,47.60207,-117.36832,WA
1295,Orland Park,Giordano's,14325 S La Grange Rd,41.629927,-87.853794,IL
1296,Westchester,Giordano's,10410 W Cermak Rd,41.848682,-87.882267,IL
1297,Highland Park,Moccio's Pizza,1620 Deerfield Rd,42.175677,-87.822513,IL
1298,Olathe,Papa Murphy's Pizza,16563 W 151st St,38.854495,-94.776892,KS
1299,Columbus,Marco's Pizza,2820 Stelzer,40.032842,-82.909949,OH
1300,Keller,Jet's Pizza,5040 North Tarrant Pkwy,32.893408,-97.274259,TX
1301,Puyallup,Sbarro,3500 S Meridian,47.157917,-122.293093,WA
1302,Aledo,Mr. Jim's Pizza,108 S Ranch House Rd,32.733936,-97.633051,TX
1303,San Antonio,DoubleDave's Pizza Works,19186 Blanco Rd,29.620972,-98.512759,TX
1304,Tyler,DoubleDave's Pizza Works,5201 S Broadway Ave,32.295294,-95.301607,TX
1305,Las Vegas,Pizza Forte,4455 Paradise Rd,36.110085,-115.15387,NV
1306,San Francisco,Dino and Santino's Pizza,2101 Fillmore St,37.788934,-122.433821,CA
1307,Wexford,Mama Lucia,11978 US Route 19,40.631425,-80.057823,PA
1308,Pleasanton,Gay Nineties Pizza,288 Main St,37.65845,-121.876751,CA
1309,New York,Pizza 33,489 3rd Ave,40.745149,-73.978522,NY
1310,San Antonio,Dough Pizzeria Napoletana,6989 Blanco Rd,29.519417,-98.506851,TX
1311,Columbia,Shakespeare's Pizza,3911 Peachtree Dr,38.90672,-92.33765,MO
1312,Palo Alto,Spot A Pizza Place,115 Hamilton Ave,37.443118,-122.162536,CA
1313,Jackson Heights,Rey's Pizzeria,9513 Northern Blvd,40.756862,-73.873002,NY
1314,Brooklyn,Krispy Pizza - Brooklyn,7112 13th Ave,40.62231,-74.005429,NY
1315,Milwaukee,Rocky Rococo,5900 N Port Washington Rd,43.122832,-87.913369,WI
1316,Brooklyn,Luigi's Pizzeria,326 Dekalb Ave,40.689665,-73.965454,NY
1317,Plainview,Mr Joe's Pizzeria Restaurant,1048 Old Country Rd,40.775967,-73.471761,NY
1318,Cypress,Candelari's Pizzeria,25680 Highway 290,29.97574,-95.69769,TX
1319,Long Beach,Michael's Pizzeria,210 E 3rd St,33.770329,-118.19072,CA
1320,Chicago,Gino's East,8725 W Higgins Rd,41.985371,-87.845028,IL
1321,San Diego,Zia Gourmet Pizza,3311 Adams Ave,32.763088,-117.12255,CA
1322,Chicago,Pompei,1531 W Taylor St,41.869288,-87.664751,IL
1323,Wausau,Rocky Rococo,3880 Rib Mountain Dr,44.92144,-89.65228,WI
1324,Seaford,Mario's Pizzeria,3842 Sunrise Hwy,40.674464,-73.490065,NY
1325,Columbus,Massey's Pizza,1951 E Dublin Granville Rd,40.086418,-82.966373,OH
1326,East Peoria,Davis Bros Pizza Inc,2402 E Washington St,40.674617,-89.539797,IL
1327,New York,Iggy's Pizzeria,173 1st Ave,40.729121,-73.984227,NY
1328,Dallas,Pizza Getti,3320 N Buckner Blvd,32.805307,-96.682202,TX
1329,Downers Grove,Angelo's Pizza,1003 Curtiss St,41.79385509,-88.00939799,IL
1330,Warrington,Warrington Pizza,620 Easton Rd,40.231531,-75.138093,PA
1331,Quakertown,Frank's Pizza New York Style,585 S West End Blvd,40.428926,-75.349297,PA
1332,Seymour,The Red Star Pizza Company,1515 E Tipton St,38.959601,-85.864665,IN
1333,Saint Paul,Grand Pizza,750 Grand Ave,44.939849,-93.131906,MN
1334,Bronx,Venezia Pizzeria,1115 Astor Ave,40.859736,-73.855758,NY
1335,Dallas,Pie Five Pizza Co.,15250 Dallas Pkwy,32.956888,-96.820291,TX
1336,Boulder,Pizzeria Da Lupo,2525 Arapahoe Ave,40.016945,-105.261669,CO
1337,Colorado Springs,Extreme Pizza,7340 N Academy Blvd,38.93866,-104.798805,CO
1338,Chicago,Bacci Pizzeria,2343 W Chicago Ave,41.895718,-87.686056,IL
1339,New York,Gotham Pizza,852 8th Ave,40.763039,-73.985387,NY
1340,Frederick,Flippin Pizza Frederick,36 S Market St,39.413078,-77.41092,MD
1341,Alexandria,Franconia Pizza,6112 Franconia Rd,38.782273,-77.147443,VA
1342,Everett,Major League Pizza,2811 Colby Ave,47.97977,-122.20864,WA
1343,Mamaroneck,Domino's Pizza,950 Mamaroneck Ave,40.9602,-73.73695,NY
1344,Jacksonville,California Pizza Kitchen,4712 River City Dr Ste 105,30.257298,-81.525646,FL
1345,Brooklyn,Oregano,102 Berry St,40.719044,-73.958595,NY
1346,Austin,Brooklyn Pie Co.,8127 Mesa Dr,30.372586,-97.755766,TX
1347,Miami Beach,Fratelli La Bufala,437 Washington Ave,25.774303,-80.13401,FL
1348,Orange Park,The Loop Pizza Grill,550 Wells Rd,30.185377,-81.705359,FL
1349,Los Angeles,The Good Pizza,7929 Emerson Ave,33.968887,-118.406319,CA
1350,Canyon Country,Chi Chi's Pizza,27117 Sierra Hwy,34.40726,-118.46299,CA
1351,Albuquerque,Firenze Pizzeria,900 Park Ave SW,35.085312,-106.657548,NM
1352,Longmont,Proto's Pizzeria Napoletana,600 S Airport Rd,40.151189,-105.153883,CO
1353,Rock Island,Harris Pizza #1,3903 14th Ave,41.497507,-90.546189,IL
1354,Cleveland,Geraci's,2266 Warrensville Center Rd,41.498216,-81.536786,OH
1355,Artesia,Julio's Pizza,11651 Artesia Blvd,33.873432,-118.08536,CA
1356,Davison,John's Pizzeria,9010 Davison Rd,43.033853,-83.536812,MI
1357,El Paso,Andre's Pizza,7000 Westwind Dr,31.852781,-106.541195,TX
1358,Farmington,Tomatoes Apizza,29275 W 14 Mile Rd,42.529016,-83.338446,MI
1359,Bronx,Joe's Pizza,3009a Middletown Rd,40.843982,-73.830015,NY
1360,Eau Claire,Guppy's Pizza,421 Water St,44.80206,-91.508792,WI
1361,Rockville Centre,Vulcano 081,43 N Village Ave,40.657929,-73.647507,NY
1362,Brodheadsville,Mike's Pizzeria Italian Restaurant /Brodheadsville,1421 Route 209,40.917384,-75.422768,PA
1363,Ypsilanti,Hungry Howie's,1874 Whittaker Rd,42.213952,-83.620798,MI
1364,Malvern,Frazer Pizza,577 Lancaster Ave,40.035917,-75.572552,PA
1365,New York,Scarr's Pizza,22 Orchard St,40.715343,-73.99139,NY
1366,Alexandria,Juliano's,5950 Richmond Hwy,38.787815,-77.067047,VA
1367,Tucson,Brooklyn Pizza Company,534 N 4th Ave,32.228578,-110.965641,AZ
1368,Mount Pleasant,Mancino's Italian Eatery,4152 E Blue Grass Rd,43.57533,-84.762901,MI
1369,Atlanta,Jagger's,1799 Briarcliff Rd NE,33.804337,-84.337758,GA
1370,Milwaukee,Classic Slice,2797 S Kinnickinnic Ave,42.994076,-87.893369,WI
1371,Tampa,Tampa Pizza Company,777 N Ashley Dr Ste C,27.9498,-82.460221,FL
1372,Yonkers,Frank Pepe Pizzeria Napoletana,1955 Central Park Ave,40.96538,-73.838835,NY
1373,Dallas,Italia Express,4000 Cedar Springs Rd,32.8113,-96.811084,TX
1374,Bronx,Pizza Hut,2019 Westchester Avenue,40.833864,-73.857013,NY
1375,Marianna,Hungry Howie's Pizza,4470 Lafayette St,30.774016,-85.223161,FL
1376,Conshohocken,Franzone's,1940 Main Ave,40.096012,-75.29329,PA
1377,Ocala,Hungry Howie's Pizza,2701 SW College Rd,29.166071,-82.168943,FL
1378,Astoria,Piazza Pizza,3106 42nd St,40.760503,-73.915634,NY
1379,Saint Paul,Papa Murphy's,2042 Ford Pkwy,44.917971,-93.186658,MN
1380,Minneapolis,Papa Murphy's,7924 Highway 7,44.936969,-93.379939,MN
1381,Toledo,Home Slice Pizza,28 S Saint Clair St,41.646752,-83.538866,OH
1382,Brooklyn,Angelo's Pizza,2117 Cortelyou Rd,40.644086,-73.958112,NY
1383,Brooklyn,Bona Pizza,1204 Flatbush Ave,40.641,-73.95613,NY
1384,Irving,Pie Five Pizza Co.,6440 N MacArthur Blvd,32.896774,-96.958238,TX
1385,Angola,Hungry Howie's Pizza,1400 N Wayne St,41.65126,-84.999515,IN
1386,Babylon,Domino's Pizza,9 Cooper St,40.697452,-73.319066,NY
1387,Saratoga Springs,Pizza Works,88 Henry St,43.08242,-73.782332,NY
1388,San Francisco,Roma Pizzeria,5099 Mission St,37.717244,-122.440415,CA
1389,Roseville,Mary's Pizza Shack,711 Pleasant Grove Blvd,38.791198,-121.27821,CA
1390,Newport Beach,California Pizza Kitchen,1151 Newport Center Drive,33.608641,-117.878113,CA
1391,Yelm,Casa Mia Italian Restaurant and Pizzeria,134 Prarie Park,46.939133,-122.599708,WA
1392,Hopkins,Jet's Pizza,415 17th Ave N,44.932034,-93.421134,MN
1393,Chappaqua,Mario's Pizzeria,13 King St,41.15918,-73.77237,NY
1394,Fayetteville,Pies and Pints Pizzeria,219 W Maple Ave,38.05101,-81.105851,WV
1395,Huntington,Z-Place Pizza,538 Warren St,40.88268,-85.49424,IN
1396,Oakland,Fist of Flour Pizza Co. Doughjo,4166 Macarthur Blvd,37.788708,-122.195776,CA
1397,Brooklyn,The Sicilian,229 Prospect Park W,40.659941,-73.980558,NY
1398,Pittsburgh,Domino's Pizza,2600 Ardmore Blvd,40.4108,-79.8442,PA
1399,Jacksonville,Papa John's Pizza,5230 Baymeadows Rd,30.220122,-81.59192,FL
1400,Sacramento,Pizza Guys,3675 J St,38.570609,-121.457053,CA
1401,Corpus Christi,Pizza State,6133 South Alameda St,27.718476,-97.334321,TX
1402,Pleasant Hill,Red Brick Pizza,140 Crescent Dr,37.9445,-122.061768,CA
1403,Youngstown,Belleria,8485 Market St,40.99221,-80.662701,OH
1404,Long Beach,Bella Pizza,4085 Atlantic Ave,33.831455,-118.185441,CA
1405,Milwaukee,Rocky Rococo,11319 W Bluemound Rd,43.035422,-88.05455,WI
1406,Oconomowoc,Rocky Rococo,1075 Summit Ave,43.095313,-88.480235,WI
1407,Milwaukee,Rocky Rococo,4849 S Howell Ave,42.955681,-87.909792,WI
1408,Milwaukee,Rocky Rococo,2500 N Mayfair Rd,43.063948,-88.04333,WI
1409,Pasadena,Little Caesar's Pizza,2237 E Colorado Blvd,34.146443,-118.104402,CA
1410,Phoenix,Federal Pizza,5210 N Central Ave,33.513545,-112.074085,AZ
1411,Miami,Tutto Pizza,1763 SW 3rd Ave,25.760621,-80.200409,FL
1412,Doylestown,Baked on Main,22 S Main St,40.309377,-75.130572,PA
1413,Brooklyn,Fornino,849 Manhattan Ave,40.729058,-73.953842,NY
1414,Carrollton,Pie Five Pizza Co,3400 E Hebron Pkwy,33.025489,-96.842623,TX
1415,Cincinnati,Lucy Blue Pizza,1126 Main St,39.108612,-84.511246,OH
1416,Anderson,Sbarro,3131 N Main St,34.538975,-82.66776,SC
1417,Sugar Land,Sbarro,16535 Southwest Fwy,29.592372,-95.628944,TX
1418,Chicago,The Warehouse Bar and Pizzeria,1419 W Fullerton ave,41.92513,-87.664113,IL
1419,North Myrtle Beach,Lucky's Pizza,755 Main St,33.827017,-78.678645,SC
1420,Oklahoma City,Stars and Stripes Pizza,2805 NW 122nd St,35.595388,-97.565925,OK
1421,Rochester,Fiamma Pizza e Vino,1308 Buffalo Rd,43.150276,-77.685872,NY
1422,Norfolk,Catania Pizza,319 Granby St,36.8505,-76.29019,VA
1423,Everett,A Pizza House,2625 Colby Ave,47.982433,-122.20813,WA
1424,South Jordan,Brick Oven,10622 S River Front Pkwy,40.558405,-111.910233,UT
1425,Grafton,Downtown Pizza,1228 12th Ave,43.319532,-87.951749,WI
1426,Pittsburgh,Stone Neapolitan Pizzeria,300 Liberty Ave,40.440551,-80.006183,PA
1427,Maspeth,Three Sons Pizzeria,5729 61st St,40.72217,-73.904366,NY
1428,Smyrna,Lucky 13 Pizzeria,2517 Spring Rd SE,33.883194,-84.480741,GA
1429,Piermont,2 Kings Pizza,453 Piermont Ave,41.039405,-73.915941,NY
1430,Scottsdale,Humble Pie,6149 N Scottsdale Rd,33.526604,-111.924627,AZ
1431,Berkeley,Seniore's Pizza,2518 Durant Ave,37.867867,-122.258576,CA
1432,Ithaca,Sicilian Delight Pizzeria,40 Catherwood Rd,42.481793,-76.491081,NY
1433,Guilderland,I Love Ny Pizza,2080 Western Ave,42.69776,-73.892398,NY
1434,Sioux Falls,Red Rossa Napoli Pizza,3412 S Western Ave,43.514723,-96.751075,SD
1435,Brooklyn,Daddy Greens,352 Malcolm X Blvd,40.680796,-73.928618,NY
1436,Tacoma,Farrelli's Wood Fire Pizza,210 Garfield St S,47.145961,-122.434992,WA
1437,Marietta,Brixx Wood Fired Pizza,4475 Roswell Rd,33.987059,-84.421051,GA
1438,Fort Worth,Pie Five Pizza Co,2600 W 7th St,32.752089,-97.353293,TX
1439,Flushing,Bellerose Famous Pizza,7909 Main St,40.718536,-73.817258,NY
1440,Syracuse,Pizza Hut,3137 Erie Blvd,43.049684,-76.071504,NY
1441,Chicago,Roots Handmade Pizza,1924 W Chicago Ave,41.89621,-87.675651,IL
1442,Ozone Park,Romeo's Pizza,10320 Liberty Ave,40.681724,-73.837618,NY
1443,San Bruno,Round Table Pizza,730 Kains Ave,37.627263,-122.416545,CA
1444,Pittsburgh,Pizza Palermo,5440 Centre Ave,40.45649,-79.936661,PA
1445,New York,Pizza Stop,531 Malcolm X Blvd,40.815278,-73.940316,NY
1446,Woodhaven,Sal's Pizzeria,8507 Jamaica Ave,40.692526,-73.859024,NY
1447,Chicago,Pizzeria del Mercato,1154 W Fulton Mkt,41.886667,-87.656558,IL
1448,Kingwood,RC's Pizza,1202 Kingwood Dr,30.049313,-95.238797,TX
1449,Glendale,Barro's Pizza,18425 N 51st Ave,33.6531,-112.16828,AZ
1450,Litchfield Park,Barro's Pizza,5135 N Dysart Rd,33.510717,-112.340841,AZ
1451,Chandler,Barro's Pizza,950 E Riggs Rd,33.220435,-111.824894,AZ
1452,Hewlett,Pantano's Kitchen,1308 Broadway,40.638944,-73.70083,NY
1453,New York,Oxford Cafe,591 Lexington Ave,40.757662,-73.971498,NY
1454,Orlando,Stone Fired Pizza,627 Hoffner Ave,28.475377,-81.369132,FL
1455,Los Angeles,161 Street Pizzeria,3252 Cahuenga Blvd W,34.129717,-118.34903,CA
1456,Cumming,Mia's Pizza and Eats,911 Market Place Blvd,34.18102,-84.132585,GA
1457,Bloomsburg,Naps Pizza,319 East St,41.003441,-76.451352,PA
1458,New York,Hana's Pizza,1376 Lexington Ave,40.782482,-73.953384,NY
1459,Clarks Summit,Rosario's Pizzeria,100 Highland Ave,41.495688,-75.704594,PA
1460,New York,Champion Pizza SoHo,17 Cleveland Pl,40.721542,-73.997241,NY
1461,Winston-Salem,Burke Street Pizza 2,3352 Robinhood Road,36.115951,-80.312684,NC
1462,San Antonio,Quicky Wood Fired Pizza,8620 Fredericksburg Rd,29.520896,-98.573041,TX
1463,New York,Domino's Pizza,440 E 14th St,40.73062,-73.980941,NY
1464,New York,Pizza Beach,167 Orchard St,40.721299,-73.988744,NY
1465,Irwin,Pizza Hut,9253 Route 30,40.321321,-79.693988,PA
1466,Mount Orab,LaRosa's Pizzeria,114 Glover Dr,39.044054,-83.9213,OH
1467,Cincinnati,LaRosa's Pizzeria,5806 Cheviot Rd,39.19909,-84.600951,OH
1468,Cincinnati,LaRosa's Pizzeria,11711 Princeton Pike,39.28865,-84.46943,OH
1469,Royersford,Bravo Pizza,21 Kugler Rd,40.237577,-75.535644,PA
1470,Conyers,Ci Ci's Pizza,1485 GA138 SE,33.650954,-84.008799,GA
1471,San Diego,NY Giant Pizza,15817 Bernardo Center Dr,33.005111,-117.091631,CA
1472,Charlotte,Hungry Howie's Pizza,1707 Sardis Rd N,35.139486,-80.73718,NC
1473,Austin,Onion,116 W 5th St,30.267373,-97.743406,TX
1474,Indianapolis,Donato's Pizza,10919 E Washington St,39.775584,-85.972796,IN
1475,Midland,Sbarro,6800 Eastman Ave,43.658034,-84.247154,MI
1476,Salina,Sbarro,150 Central Mall,38.802871,-97.609745,KS
1477,Mesa,Little Caesar's Pizza,2754 E Mckellips Rd,33.452128,-111.771201,AZ
1478,Louisville,Little Caesar's Pizza,191 Outer Loop,38.126531,-85.777837,KY
1479,Indianapolis,Little Caesar's Pizza,7201 Pendleton Pike,39.829203,-86.041967,IN
1480,Richmond Hill,Little Caesar's Pizza,9701 Ford Ave,31.951347,-81.313917,GA
1481,Lockport,Mark's Pizzeria,288 S Transit St,43.15943,-78.69685,NY
1482,New York,Pomodoro Pizza,14 Rector St,40.707994,-74.013647,NY
1483,New York,Little Italy Gourmet Pizza,11 Park Pl,40.712779,-74.008197,NY
1484,Philadelphia,Renzi's Pizzeria,6300 Battersby St,40.029656,-75.062776,PA
1485,Daly City,Round Table Pizza,1901 Junipero Serra Blvd,37.701907,-122.470537,CA
1486,Tampa,Westshore Pizza,5228 S Dale Mabry Hwy,27.888698,-82.506289,FL
1487,Huntington Beach,Two Brother's Pizza,19065 Beach Blvd,33.68544,-117.988848,CA
1488,Huntington Beach,Massimo's Pizza,22311 Brookhurst St,33.641885,-117.957994,CA
1489,New York,Domino's Pizza,181 Church St,40.715619,-74.007053,NY
1490,Knoxville,Snappy Tomato Pizza,9450 S Northshore Dr,35.86503,-84.06183,TN
1491,Mercersburg,Romeo's,66 Church St,39.830639,-77.900885,PA
1492,Milan,Pagalo's,119 1st Ave W,41.453409,-90.567951,IL
1493,Cupertino,212 New York Pizza,19998 Homestead Rd,37.337431,-122.022773,CA
1494,Macon,Johnny's Pizza,6255 Zebulon Rd,32.879953,-83.76712,GA
1495,Saint Peters,Papa Murphy's,571 Mid Rivers Mall Dr,38.78674,-90.628281,MO
1496,New Baltimore,Jet's Pizza,51100 D W Seaton Dr,42.676405,-82.774628,MI
1497,Livonia,Jet's Pizza,32622 7 Mile Rd,42.42629,-83.369035,MI
1498,Clinton Township,Jet's Pizza,37525 Harper Ave,42.572904,-82.871468,MI
1499,Lewiston,Smith Brothers Pizza,790 Center St,43.172767,-79.036084,NY
1500,Ambler,Domino's Pizza,1115 S Bethlehem Pike,40.15753,-75.21401,PA
1501,Philadelphia,Lorenzo and Sons Pizza,305 South St,39.941619,-75.147744,PA
1502,Tucson,Grimaldi's Pizzeria,446 N Campbell Ave,32.227154,-110.943778,AZ
1503,Brooklyn,Da Nonna Rosa,140 7th Ave,40.672844,-73.976813,NY
1504,Jacksonville,Vino's Pizza,4268 Oldfield Crossing Dr,30.16557,-81.60236,FL
1505,Garden City,Pizza Supreme,678 Stewart Ave,40.731106,-73.613991,NY
1506,Buffalo,Chuck's North Street Pizzeria,35 North St,42.902221,-78.870603,NY
1507,Traverse City,Dino's Pizza,543 E Eighth St,44.759399,-85.612496,MI
1508,Appleton,Frank's Pizza Palace,816 W College Ave,44.261847,-88.418477,WI
1509,Phoenix,Raffaele's Pizza,7019 N 19th Ave,33.539647,-112.099597,AZ
1510,Hanover Park,Rosati's Pizza,5549 County Farm Rd,41.967381,-88.151613,IL
1511,South Elgin,Rosati's Pizza,1165 W Spring St,41.996174,-88.314005,IL
1512,Frisco,Mellow Mushroom,2809 Preston Rd,33.10043,-96.80569,TX
1513,Safety Harbor,Safety Harbor Pizzeria,100 Main St,27.990624,-82.688647,FL
1514,Orlando,Lazy Moon Pizza,11551 University Blvd,28.59772,-81.21959,FL
1515,Columbus,Iaconos Italian Restaurant,4452 Kenny Rd,40.049343,-83.049356,OH
1516,Beverly Hills,Marchello's,214 S Robertson Blvd,34.064467,-118.383511,CA
1517,Rome,Johnny's New York Style Pizza,233 Broad Street,34.25374,-85.17364,GA
1518,Kittanning,Papa John's Pizza,162 S Jefferson St,40.814713,-79.519684,PA
1519,McKeesport,Veltre's Pizza of White Oak,2812 State St,40.35253,-79.821489,PA
1520,Brewster,Sinapi's Pizza,1583 Route 22,41.425783,-73.578355,NY
1521,West Covina,3.99 Pizza Co 2,1931 W Badillo St,34.087566,-117.944783,CA
1522,Dallas,Campisi's Restaurant - The Egyptian Lounge,5610 E Mockingbird Ln,32.836311,-96.771643,TX
1523,Saint Robert,TK's Pizza,743 Missouri Ave Ste 3,37.805301,-92.14486,MO
1524,Sand Springs,Minuteman Pizza Parlor,7 W 41st St,36.105211,-96.120295,OK
1525,Bettendorf,Sports Fans,1723 Grant St,41.526104,-90.507784,IA
1526,Oakland,Red Boy Pizza,4100 Redwood Rd,37.797881,-122.182371,CA
1527,San Francisco,Gaspare's Pizza,5546 Geary Blvd,37.78045,-122.479201,CA
1528,Austin,Reale's Pizza Cafe,13450 N Highway 183,30.446587,-97.791014,TX
1529,Omaha,Pudgy's Pizzeria,16919 Audrey St,41.18923,-96.179548,NE
1530,Media,Double Decker Pizza,415 E Baltimore Ave,39.915926,-75.382577,PA
1531,Seattle,Giannoni's,2600 SW Barton St Ste C3,47.521389,-122.367028,WA
1532,Durham,Pop's Backdoor South,3710 Shannon Rd,35.95663,-78.955936,NC
1533,Franklin,Brooklyn Brother's Pizza,1441 New Highway 96 W,35.929535,-86.897394,TN
1534,Woodland Hills,Barones The Pizzeria Express,22435 Ventura Blvd,34.168473,-118.615919,CA
1535,Rome,Grande's Pizzeria,1111 Floyd Ave,43.220332,-75.425305,NY
1536,Saint Louis,Vito's Sicilian Pizza,3515 Lindell Blvd,38.636886,-90.230492,MO
1537,Charlotte,Due Amici Pizzeria,5346 Prosperity Church Rd,35.367018,-80.786328,NC
1538,Wheat Ridge,My Pie,3928 Wadsworth Blvd,39.772138,-105.080217,CO
1539,Portland,Little Caesars Pizza,11705 SW Pacific Hwy,45.437473,-122.757774,OR
1540,Siloam Springs,Fratelli's Wood-Fired Pizza,118 S Broadway St,36.184337,-94.540776,AR
1541,Myrtle Beach,New York Pizza And Deli,6613 N Kings Hwy,33.739373,-78.828178,SC
1542,Seattle,Spiro's Pizza Pasta - West Seattle,3401 California Ave SW,47.573744,-122.386958,WA
1543,Charlotte,The Pizza Peel and Tap Room,1600 Central Ave,35.22007,-80.811993,NC
1544,Manitou Springs,Savelli's,301 Manitou Ave,38.85652,-104.899019,CO
1545,Des Plaines,Village Pizza,9469 W Higgins Rd,41.992199,-87.863034,IL
1546,Portland,Pizzicato,6358 SW Capitol Hwy,45.477891,-122.696057,OR
1547,Jericho,Angelino's Italian Restaurant,1 Jericho Tpke,40.776024,-73.567414,NY
1548,San Jose,Bibo's NY Pizza,1431 Bird Ave,37.320061,-121.898127,CA
1549,Springfield,Garbo's Pizzeria Chesterfield Villiage,2101 W Chesterfield Blvd,37.146147,-93.321647,MO
1550,Eau Claire,New York Pizza,320 Water St,44.802303,-91.506636,WI
1551,Orange City,Papa John's Pizza,2625 Enterprise Rd,28.914771,-81.291848,FL
1552,Ontario,Joey's Pizza,790 N Archibald Ave,34.071804,-117.592883,CA
1553,Berkeley,Red Tomato,2017 University Ave,37.872097,-122.270149,CA
1554,Fort Worth,Hysen's Nizza Pizza,401 University Dr,32.754474,-97.360839,TX
1555,Wilmington,Pat's Pizza Bistro,4231 Concord Pike,39.812838,-75.547639,DE
1556,Islip,Angela's Pizza,192 Islip Ave,40.737199,-73.20785,NY
1557,Livonia,Primo's Pizza,33521 7 Mile Rd,42.425978,-83.37779,MI
1558,Mentor,Little Caesars Pizza,7488 Mentor Ave,41.654779,-81.373598,OH
1559,Albany,Orchard Tavern,68 N Manning Blvd,42.67482,-73.776373,NY
1560,Bensenville,Mama Maria's Pizzeria,438 S York Rd,41.946328,-87.940039,IL
1561,Wilmington,Elizabeth's Pizza Italian Restaurant Pizza and Subs,4304 Market St,34.242159,-77.891683,NC
1562,Corpus Christi,Peter Piper Pizza,4938 S Staples St,27.71003,-97.367294,TX
1563,Las Vegas,Verona's Pizza,710 E Flamingo Rd,36.115046,-115.148118,NV
1564,Latrobe,Gino Gianilli's Homestyle Pizza Italian Restaurant,200 Thompson St,40.317547,-79.387377,PA
1565,Cornelius,Mama's Pizza Express,19741 S Main St,35.47867,-80.856549,NC
1566,Chicago,Armand's Pizzaria,6694 N Northwest Hwy,42.002694,-87.816091,IL
1567,Buffalo,Tony's Pizza,3680 Harlem Rd,42.943983,-78.784346,NY
1568,San Francisco,Irving Street Pizza,1825 Irving St,37.763575,-122.477559,CA
1569,New York,The Big Slice - 5th Ave,146 5th Ave,40.739318,-73.991254,NY
1570,Southampton,Aldo's Ristorante Italiano and Pizzeria,1456 Buck Rd,40.205983,-74.953485,PA
1571,Louisville,Spinelli's Pizza,2905 Goose Creek Rd,38.286576,-85.577525,KY
1572,Raleigh,Franks Pizza,2030 New Bern Ave,35.778771,-78.606886,NC
1573,North Bend,LaRosa's Pizzeria Miami Heights,3785 Shady Ln,39.164,-84.6991,OH
1574,Ormond Beach,Lennys NY Pizza Co,1456 Ocean Shore Blvd,29.328347,-81.057982,FL
1575,Ellicott City,Bella Mia,4900 Waterloo Rd,39.236139,-76.798705,MD
1576,Endicott,Rossi's Pizza,332 Oak Hill Ave,42.114739,-76.05023,NY
1577,Brooklyn,Knapp St Pizza,2129 Knapp St,40.599942,-73.933833,NY
1578,Pittsburgh,Donte's Pizza,6409 Brownsville Rd,40.360478,-79.990834,PA
1579,Floral Park,Village Pizzeria,169 Tulip Ave,40.724045,-73.702496,NY
1580,DeKalb,Pronto's Pizza,1023 W Hillcrest Dr,41.945856,-88.771743,IL
1581,Pompano Beach,Pizza Carousel,4619 N University Dr,26.287732,-80.248144,FL
1582,Plano,Joe's Pizza Pasta Subs,6009 W Parker Rd Ste 161,33.045524,-96.832258,TX
1583,Cleveland,Mamma Santa's Pizzeria,12301 Mayfield Rd,41.508802,-81.59724,OH
1584,Lindenhurst,Imperial Pizza,650 Wellwood Ave,40.702127,-73.384177,NY
1585,Albuquerque,Dion's Pizza,8100 Wyoming Blvd NE,35.174781,-106.557007,NM
1586,Albany,Dino's Pizza,420 Madison Ave,42.652341,-73.767453,NY
1587,Baltimore,Oriole Pizza Subs,1305 N Charles St,39.305015,-76.616173,MD
1588,Glendale Heights,Generoso Pizza,314 E Army Trail Rd,41.936861,-88.075624,IL
1589,Los Angeles,Town Pizza,5101 York Blvd,34.121267,-118.20459,CA
1590,Los Gatos,JJ Magoo's,15525 Los Gatos Blvd Ste D,37.243443,-121.960686,CA
1591,Boulder,Papa John's Pizza,2420 Arapahoe Ave,40.014555,-105.262714,CO
1592,Cincinnati,LaRosa's Pizzeria,891 W Galbraith Rd,39.215063,-84.517515,OH
1593,Cincinnati,LaRosa's Pizzeria,2717 Vine St,39.131001,-84.509758,OH
1594,Amelia,LaRosa's Pizzeria,3780 BachBuxton Rd,39.051409,-84.24594,OH
1595,Jensen Beach,Sbarro,3174 NW Federal Hwy,27.242253,-80.271337,FL
1596,Melbourne,Sbarro,1700 W New Haven Ave,28.079061,-80.649288,FL
1597,Sanford,Sbarro,248 Towne Center Cir,28.806028,-81.339779,FL
1598,Grand Rapids,Papa Murphy's,5210 Northland Dr NE,43.057931,-85.579803,MI
1599,Atlanta,Papa John's Pizza,10 Northside Dr NW,33.75483,-84.403227,GA
1600,Suwanee,Mellow Mushroom,320 Town Center Ave,34.055667,-84.063046,GA
1601,New Baltimore,Happy's Pizza,51170 Gratiot Ave,42.676756,-82.831551,MI
1602,El Paso,Pizza Joint,2900 N Mesa St,31.779075,-106.504225,TX
1603,Wichita,Papa Murphy's,9747 E 21st St N,37.721947,-97.223907,KS
1604,Vancouver,Papa Murphy's,6605 E Mill Plain Blvd,45.627149,-122.603662,WA
1605,Vancouver,Papa Murphy's,8611 NE Ward Rd,45.68521,-122.505588,WA
1606,Vancouver,Papa Murphy's,3415 SE 192nd Ave,45.596329,-122.47797,WA
1607,Columbia,Sbarro,2300 Bernadette Dr,38.965843,-92.37435,MO
1608,Brandon,Mazzios Pizza,118 Service Dr,32.283241,-90.026572,MS
1609,Indianapolis,Noble Roman's,7044 Emblem Dr,39.665477,-86.081345,IN
1610,Orlando,I Love NY Pizza,6607 S Semoran Blvd,28.467784,-81.309804,FL
1611,Nashville,Sir Pizza,7648 US70s,36.079045,-86.95217,TN
1612,Bentonville,Gusano's Pizza,2905 S Walton Blvd,36.341499,-94.209849,AR
1613,Lawrenceville,Johnny's New York Style Pizza,3157 Sugarloaf Pkwy,33.921219,-84.010071,GA
1614,Albany,Spinner's,14 Picotte Dr,42.65192,-73.812352,NY
1615,Scottsdale,Rosati's Pizza,7119 E Shea Blvd,33.582082,-111.92745,AZ
1616,Brooklyn,Roma Pizza,85 7th Ave,40.67467,-73.975199,NY
1617,New Lenox,Beggar's Pizza,650 W Maple St,41.518184,-87.981841,IL
1618,Orlando,Pizza @ Lake Eola,404 E Central Blvd Ste 102,28.542101,-81.372528,FL
1619,Chicago,Persona Wood Fired Pizzeria,170 W Washington St,41.883433,-87.633228,IL
1620,Indianapolis,Monical's Pizza,2635 E 62nd St,39.867944,-86.118937,IN
1621,Fountain Valley,Two Brother's Pizza,18944 Brookhurst St,33.687493,-117.953808,CA
1622,Trenton,Pizza Hut,835 West State Street,39.480325,-84.47224,OH
1623,Waynesville,Pizza Hut,6782 Corwin Avenue,39.522761,-84.065914,OH
1624,Cincinnati,Pizza Hut,3972 Red Bank Road,39.145938,-84.403987,OH
1625,Farmington,Pizza Hut,19645 Pilot Knob,44.666308,-93.17813,MN
1626,Des Plaines,Pizza Hut,1387 Lee Street,42.027936,-87.893624,IL
1627,Fort Worth,Pizza Hut,4233 E Lancaster,32.741273,-97.260258,TX
1628,Biloxi,Pizza Hut,1698 Pass Rd,30.403128,-88.938323,MS
1629,Columbus,Romeo's Pizza,6928 E Broad St,39.98267,-82.817584,OH
1630,Rhinebeck,Village Pizza,19 E Market St,41.927147,-73.912003,NY
1631,Mesa,Venezia's Pizzeria,5057 E McKellips Rd,33.451853,-111.721665,AZ
1632,Auburn,Pizza Forum,215 Main Street,41.366126,-85.05581,IN
1633,Arlington Heights,Armand's Pizzeria,70 N Vail Ave,42.083411,-87.984153,IL
1634,Denver,Proto's Pizzeria Napoletana,2401 15th St,39.756755,-105.009659,CO
1635,Miami,Steve's Pizza,12010 Biscayne Blvd,25.886964,-80.164475,FL
1636,Santa Clarita,Numero Uno Pizza,26111 Bouquet Canyon Rd,34.41796,-118.54186,CA
1637,Austin,Southside Flying Pizza,2702 E Cesar Chavez St,30.253574,-97.713899,TX
1638,Scottsdale,Peter Piper Pizza,15745 N Hayden Rd,33.628825,-111.893848,AZ
1639,Corning,Rico's Pizza,92 W Market St,42.143876,-77.058249,NY
1640,Florence,Mio's Pizzeria,8470 Us Highway 42,38.977811,-84.657631,KY
1641,Cincinnati,Mio's Pizzeria,6930 Madisonville Rd,39.145886,-84.37496,OH
1642,San Diego,Red House Pizza,4615 Park Blvd,32.7613,-117.146164,CA
1643,San Francisco,Presidio Pizza Company,1862 Divisadero St,37.787031,-122.439986,CA
1644,Wooster,Coccia House,764 Pittsburg Ave,40.798268,-81.929262,OH
1645,Abingdon,Moon Dog Brick Oven,1099 Ole Berry Dr,36.695998,-82.008617,VA
1646,Colorado Springs,Louies Pizza,5996 Stetson Hills Blvd,38.913371,-104.716324,CO
1647,Decatur,Pizza Hut,1524 Church St,33.791834,-84.285924,GA
1648,Springdale,Mazzio's Pizza,1301 E Robinson Ave,36.167017,-94.122206,AR
1649,Bartlesville,Mazzio's Pizza,511 SE Washington Blvd,36.749304,-95.935558,OK
1650,Santa Fe,Dion's Pizza,2014 Cerrillos Rd,35.661659,-105.978953,NM
1651,Phoenix,Slices Pizza,21001 N Tatum Blvd,33.676822,-111.977316,AZ
1652,Smithtown,Mannino's,40 E Main St,40.855399,-73.19282,NY
1653,Boca Raton,California Pizza Kitchen,6000 Glades Rd,26.368129,-80.134717,FL
1654,New York,Pronto Pizza,62 W 48th St,40.758351,-73.980611,NY
1655,Las Vegas,Pizza Company,2275 E Sunset Rd,36.071032,-115.121184,NV
1656,Scottsdale,Humble Pie,6501 E Greenway Pkwy,33.624157,-111.942428,AZ
1657,Saint Louis,Katie's Pizzeria Cafe,6611 Clayton Rd,38.634426,-90.314864,MO
1658,Brooklyn,Pizza D'Amore,8949 Bay Pkwy,40.595262,-74.000735,NY
1659,El Paso,The Healthy Pizza Company,3800 N Mesa St Ste C9,31.787102,-106.505886,TX
1660,Sunnyside,Sunnyside Pizza,4001A Queens Blvd,40.744174,-73.923884,NY
1661,San Francisco,Mustafio's Pizza,1116 Polk St,37.787076,-122.419947,CA
1662,Oyster Bay,Nino's Pizza,25 E Main St,40.872176,-73.529788,NY
1663,Northridge,zPizza,19300 Rinaldi St,34.273601,-118.554922,CA
1664,Jamison,Randazzo's Pizza,2395 York Rd,40.25933,-75.08487,PA
1665,Tuckahoe,Villaggio's Pizza,66 Main St,40.950061,-73.82671,NY
1666,Phoenix,Streets of New York,1985 W Happy Valley Rd,33.712927,-112.106657,AZ
1667,Sacramento,Papa Murphy's,5618 Folsom Blvd,38.558459,-121.438072,CA
1668,Oneida,Little Caesar's Pizza,6 Glenwood Ave,43.078273,-75.641838,NY
1669,Dayton,Little Caesar's Pizza,5330 Salem Ave,39.821965,-84.28839,OH
1670,Lima,Little Caesar's Pizza,2250 Harding Hwy,40.730765,-84.064219,OH
1671,EspaÃ±ola,Little Caesar's Pizza,708a N Riverside Dr,35.997199,-106.064588,NM
1672,Muncie,Papa John's Pizza,2123 S Madison St,40.176175,-85.381678,IN
1673,Chicago,The Happy Camper,1209 N Wells St,41.904234,-87.634307,IL
1674,Charleston,Pizzeria Di Giovanni,40 N Market St,32.781387,-79.928452,SC
1675,Peoria,Papa John's Pizza,25101 N Lake Pleasant Pkwy,33.711567,-112.271371,AZ
1676,Grove City,Tristano's Pizzeria,3306 Columbus St,39.88297,-83.0909,OH
1677,Titusville,Pizzoni's,3045 Columbia Blvd,28.55191646,-80.83984669,FL
1678,Chicago,Sofia's Pizza,1132 W Taylor St,41.869442,-87.65549,IL
1679,Lockport,Papa Leo's,36 Main St,43.16955363,-78.69331602,NY
1680,Sedona,Famous Pizza,25 Bell Rock Plz,34.787799,-111.76352,AZ
1681,Albertson,Vincents Italian Restaurant,1004 Willis Ave,40.77068239,-73.64815673,NY
1682,Seattle,Pizza Ragazzi,5201 University Way NE,47.66671,-122.3134,WA
1683,Winchester,Umberto's Pasta & Pizza,170 Delco Plz,39.159299,-78.15392581,VA
1684,Newark,Pat's Pizza Family Restaurant (Pat'sPFR),40 Marrows Rd,39.66441453,-75.72714048,DE
1685,Fairless Hills,Julio's Pizzeria,515 S Oxford Valley Rd,40.1696206,-74.84914538,PA
1686,Schenectady,Cusato's Pizzeria & Deli,1600 Altamont Ave,42.782955,-73.94911,NY
1687,York,Genova's,2530 W Market St,39.94980118,-76.77790996,PA
1688,Philadelphia,Big Ass Slices,218 Market St,39.949856,-75.144466,PA
1689,Casselberry,Hungry Howie's Pizza,430 SR436,28.626213,-81.316351,FL
1690,Saint Paul,Ronnallys Pizza,1560 Woodlane Dr,44.926135,-92.965895,MN
1691,Gainesville,Atlas Pizza,104 Main St SW,34.299713,-83.826968,GA
1692,Bethlehem,Mario's Pizza Cafe,3620 Route 378,40.58204,-75.38794,PA
1693,South Bend,Bruno's Pizza Downtown,131 S Michigan St,41.67531,-86.25064,IN
1694,South Bend,Polito's Pizzeria,401 N Hickory Rd,41.681091,-86.196514,IN
1695,Muskegon,Mr. Scribs (Apple Ave.),6826 E Apple Ave,43.23524318,-86.0767597,MI
1696,Murrieta,Bob's Murrieta Pizza Co.,41539 Kalmia St,33.56134,-117.2118886,CA
1697,Dallas,Olivella's,3406 Mcfarlin Blvd,32.844062,-96.787749,TX
1698,River Grove,D'agostino's,3131 Thatcher Ave,41.936525,-87.836006,IL
1699,Seattle,Stacia's Gourmet Pizza and Pasta,305 NW 85th St,47.69063,-122.36106,WA
1700,Lincoln,Valentino's Grand Italian Buffet,3457 Holdrege St,40.82784079,-96.67026209,NE
1701,Mount Joy,DiMaria's Pizza & Italian Kitchen,759 E Main St,40.10937,-76.48603,PA
1702,Hamburg,Butera's,32 Main St,42.71509795,-78.83096409,NY
1703,Clarence Center,Clarence Pizza Company,6235 Goodrich Rd,43.016838,-78.637115,NY
1704,Copiague,Albert's Pizza Shop,1642 Great Neck Rd,40.679253,-73.399055,NY
1705,West Babylon,Alitalia Pizzeria,999 W Montauk Hwy,40.68544697,-73.35129982,NY
1706,Bay Shore,Joe's Pasta & Pizza,73 Howells Rd,40.73,-73.2603,NY
1707,Schertz,Goomba's Pizzeria,6044 FM 3009,29.60487363,-98.27829212,TX
1708,Dobbs Ferry,San Gennaro Pizza and Pasta,225 Ashford Ave,41.01410201,-73.85829449,NY
1709,Casselberry,Anthony's NY Pizza,1455 State Road 436,28.6281513,-81.31848335,FL
1710,Hayward,The Pizza House,954 B St,37.672714,-122.0834,CA
1711,Jupiter,Zipz's NY Pizza & Italian,836 W Indiantown Rd,26.93371897,-80.10878159,FL
1712,San Ramon,Ascona Pizza Company,11020 Bollinger Canyon Rd,37.77472567,-121.9239861,CA
1713,Waconia,D'Vinci's,540 S Elm St,44.84391,-93.78664,MN
1714,Las Cruces,Zeffiro New York Pizza,905 E University Ave,32.28395036,-106.7578957,NM
1715,Parker,Lil Ricci's,16526 Keystone Blvd,39.53247862,-104.795301,CO
1716,North Babylon,Villa Rosa Pizza,90 New York 109,40.70488084,-73.34823711,NY
1717,Plainview,Caruso's Pizza & Pasta,64 Manetto Hill Mall,40.78569826,-73.47424446,NY
1718,Brooklyn,Graziella's,232 Vanderbilt Ave,40.69048819,-73.96951834,NY
1719,Friendswood,Saruzzo's New York,4131 FM 528,29.52122846,-95.1613643,TX
1720,San Francisco,Zante Pizza and Indian Cuisine,3489 Mission St,37.7411235,-122.4225235,CA
1721,Littleton,Abo's Pizza,2220 Wildcat Reserve,39.53555771,-105.0149,CO
1722,West Valley City,Papa Murphy's,3525 W 3500 S,40.695556,-111.975229,UT
1723,Franklin Square,Olivetto's,190 New Hyde Park Rd,40.712871,-73.676519,NY
1724,East Meadow,Pietro's Pizza,476 E Meadow Ave,40.712326,-73.557532,NY
1725,Merrick,Milos Ristorante,2162 Merrick Mall,40.66634518,-73.55124868,NY
1726,Fountain Valley,Rocco's Pizzeria,17098 Magnolia St,33.71446,-117.9718,CA
1727,Point of Rocks,Aroma House,1595 Bowis Dr,39.275632,-77.52932668,MD
1728,Canandaigua,Faro's New York style pizza,395 S Main St,42.882185,-77.276833,NY
1729,Henrico,Rudino's,2238 John Rolfe Pkwy,37.62218632,-77.62509929,VA
1730,Inman,Pepperoni Express Pizza Co.,7124 Highway 9,35.092179,-82.039092,SC
1731,Greensboro,Venice Italian Pizza & Subs,104 N Elm St,36.07275,-79.78997,NC
1732,Bristow,Tony's New York Pizza,10314 Bristow Center Dr,38.73363092,-77.55097328,VA
1733,Leesburg,La Villa Roma,305 E Market St Ste G,39.112,-77.55995,VA
1734,Upland,Petrilli's Pizza,110 S Mountain Ave,34.094086,-117.669716,CA
1735,Edmonds,Evviva Woodfired Pizza,178 Sunset Ave,47.81249,-122.38166,WA
1736,Hudsonville,DJ's Pizza Plus,3471 Kelly St,42.865546,-85.86782,MI
1737,Hendersonville,West First Wood Fired Pizza,101B 1st Ave W,35.31423303,-82.46009469,NC
1738,Black Mountain,My Father's Pizza,110 Cherry St,35.61666607,-82.32092707,NC
1739,Fox Lake,Giordano's,1388 US Rt 12,42.36450043,-88.17008329,IL
1740,Canonsburg,Big Fella's Pizza and Wings,47 E Pike St,40.25916276,-80.18519348,PA
1741,Norristown,Affamato's Pizza & Italian Restaurant,431 S Trooper Rd,40.131535,-75.40094,PA
1742,Evansville,Mama Roma's Pizza X-Press,3904 N 1st Ave,38.014819,-87.574572,IN
1743,Alexandria,Lena's Wood-Fire Pizza & Tap,401 E Braddock Rd,38.81344473,-77.05597696,VA
1744,Portland,Bellagios Pizza,10001 SW Nimbus Ave,45.447275,-122.789648,OR
1745,Portland,Bellagios Pizza,9055 Sw Barbur Blvd,45.459426,-122.708536,OR
1746,New York,Proto's Pizza,50 2nd Ave,40.725307,-73.989947,NY
1747,Bellevue,Papa Murphy's Pizza,1500 145th PL SE,47.596796,-122.149314,WA
1748,Akron,Hungry Howie's Pizza,366 Waterloo Rd,41.028853,-81.513656,OH
1749,Pittsburgh,Caliente Pizza and Draft House,329 Castle Shannon Blvd,40.376106,-80.036625,PA
1750,Clearwater,Westshore Pizza XIV,1969 Drew St,27.9677018,-82.75553584,FL
1751,San Antonio,Main St. Pizza,1906 N Main Ave,29.44742758,-98.49405706,TX
1752,Buffalo,Gino & Joe's Pizza,400 Main St,42.88525446,-78.87497322,NY
1753,Phoenix,Ray's Pizza,350 E Bell Rd,33.64175,-112.069405,AZ
1754,Chicago,Chicago's Pizza and Pasta,1919 W Montrose Ave,41.96149721,-87.67677132,IL
1755,Chicago,J.B. Alberto's Pizza,1324 W Morse Ave,42.00793,-87.66483,IL
1756,Chicago,Stella Barra Pizzeria,1954 N Halsted St,41.917618,-87.64851,IL
1757,Seattle,Pegasus Pizza,2758 Alki Ave SW,47.5786,-122.4115,WA
1758,Santa Rosa,Mombo's Pizza,1880 Mendocino Ave,38.45832,-122.7168,CA
1759,Cedar Park,Niki's Pizza and Pasta,508 N Bell Blvd,30.51521712,-97.82589885,TX
1760,Cedar Rapids,Little Caesars Pizza,2210 Edgewood Rd SW Ste 500,41.95758,-91.71659,IA
1761,Cary,Ruckus Pizza Pasta & Spirits,2025 Renaissance Park Pl,35.826122,-78.77087,NC
1762,Gatlinburg,Ogle's Brick Oven Pizza,201 Oglewood Ln,35.72038292,-83.4984109,TN
1763,Fairless Hills,Cosmos Restaurant,980 Trenton Rd,40.187706,-74.82806,PA
1764,Chantilly,Manhattan Pizza,25042 Riding Plz,38.92428453,-77.5190882,VA
1765,Orlando,Italian Village Pizza,275 S Chickasaw Trl,28.539877,-81.27588,FL
1766,Saint Clair Shores,Detroit Style Pizza,28630 Harper Ave,42.504138,-82.89802,MI
1767,Central Valley,Cosimos Restaurant & Bar,100 Route 32,41.32077786,-74.12579386,NY
1768,Poughkeepsie,Main Street Pizza & Cafe,238 Main St,41.70390556,-73.92775287,NY
1769,New Paltz,La Bella Pizza Bistro,194 Main St,41.74558177,-74.07830924,NY
1770,Greenwood Lake,Planet Pizza,126 Windemere Rd,41.225893,-74.290764,NY
1771,Poughkeepsie,Giacomo's Pizza,3434 North Rd,41.724173,-73.93110912,NY
1772,Pomona,Avanti Italian Restaurant & Pizzeria,1581 Route 202,41.1823027,-74.04695216,NY
1773,New York,Famous Famiglia,686 8th Ave,40.758102,-73.98905,NY
1774,East Islip,Martino's Pizza,22 E Main St,40.73105,-73.189884,NY
1775,Kenosha,Slice,4235 Green Bay Rd,42.598385,-87.87987,WI
1776,Cape Coral,Papa Joe's,814 Cape Coral Pkwy E,26.562656,-81.95717,FL
1777,Colorado Springs,Louie's Pizza,333 N Tejon St,38.83927,-104.82276,CO
1778,Chicago,Gino's East,2801 N Lincoln Ave,41.932777,-87.65895,IL
1779,Chicago,Panino's,3702 N Broadway St,41.949273,-87.648615,IL
1780,Chicago,Ranalli's,1512 W Berwyn Ave,41.978075,-87.66882984,IL
1781,Higley,Rosati's Pizza,9432 S Power Rd,33.363197,-111.687682,AZ
1782,Chicago,Salerno's Restaurant,1201 W Grand Ave,41.89086,-87.65759,IL
1783,Ooltewah,Rosselli's Pizza,1667 Ooltewah Ringgold Rd,34.99892556,-85.09614944,TN
1784,Scottsdale,LAMP Pizzeria,8900 E Pinnacle Peak Rd,33.70006249,-111.8886217,AZ
1785,Forest Hills,A & J Pizza,7137 Austin St,40.7198,-73.84328,NY
1786,Annapolis,Dimeo's Pizzeria,1901 West St,38.9798,-76.5238,MD
1787,Anderson,Mancino's,1606 S Scatterfield Rd,40.100304,-85.65148,IN
1788,Novi,Benito's Cafe,24270 Novi Rd,42.46747588,-83.47447976,MI
1789,Houston,Napoli Restaurant,5266 Beechnut St,29.689463,-95.475395,TX
1790,Anderson,Tommy J's Pizza Cafe,1000 W 3rd St,40.11294532,-85.69191858,IN
1791,Sound Beach,Cara Mia Brick Oven Pizza & Restaurant,257 Echo Ave,40.95102792,-72.98250549,NY
1792,Ocala,Blue Highway Pizzeria,2130 E Silver Springs Blvd,29.186539,-82.10923,FL
1793,McDonough,Johnny's Pizza,24 Old Jackson Rd,33.42767927,-84.09800905,GA
1794,Sykesville,Amantes,21 Liberty Rd,39.42279793,-76.9965243,MD
1795,Sebastian,Giuseppes,935 Sebastian Blvd,27.78432616,-80.49202693,FL
1796,Hemet,George's Pizza,2920 E Florida Ave,33.74835837,-116.9407568,CA
1797,DeLand,Angelina's Pizzeria & Italian Eatery,2687 S Woodland Blvd,28.98059308,-81.29700796,FL
1798,Berwyn,Villa Nova Pizza,6821 Pershing Rd,41.82121009,-87.79370886,IL
1799,Flagstaff,Fratelli's Pizza,119 W Phoenix Ave,35.196922,-111.65171,AZ
1800,Clinton Township,Green Lantern Pizza,41160 Hayes Rd,42.59836166,-82.97165383,MI
1801,Ossining,Lucy's Pizza,26 S Highland Ave,41.160797,-73.86141,NY
1802,East Rochester,Salvatore's Old Fashioned Pizzeria / Arthur Treacher's,240 W Commercial St,43.11397207,-77.49014662,NY
1803,Phoenicia,Brio's Pizzeria & Restaurant,68 Main St,42.0832,-74.313736,NY
1804,Yucaipa,Gourmet Pizza Shoppe,13661 Calimesa Blvd,34.00538296,-117.0625448,CA
1805,Carlisle,Seve-n-Dots Publik Pizza Place,40 E Louther St,40.20265,-77.18766,PA
1806,Holland,Petrinos Pizza,12719 Riley St,42.82705857,-86.09643502,MI
1807,McKinney,Palio's Pizza Cafe,6405 Eldorado Pkwy,33.17351,-96.70048,TX
1808,East Northport,Chefs of New York Pizzeria,508 Larkfield Rd,40.86336322,-73.32149595,NY
1809,Modesto,Michael's Pizza,500 N Carpenter Rd,37.643861,-121.029972,CA
1810,Broomall,Italian Delight,2052 Sproul Rd,39.96698,-75.35975,PA
1811,Provo,Brick Oven Pizza,111 E 800 N,40.24472407,-111.6563812,UT
1812,Newark,Love At First Slice,36601 Newark Blvd,37.538795,-122.034065,CA
1813,Conyers,Johnny's pizza,2445 Salem Rd SE,33.62386921,-83.97796314,GA
1814,Orland Park,Papa Joe's Italian Restaurant,14459 S La Grange Rd,41.62616192,-87.8532274,IL
1815,Port Chester,Frankie & Louie's,414 Willett Ave,41.00844325,-73.66136715,NY
1816,Chicago,Giordano's Pilsen,1401 W 18th St,41.857716,-87.6615,IL
1817,Oak Lawn,Grassano's,5651 W 87th St,41.73383061,-87.76301187,IL
1818,Hatboro,Frank's Pizza,1001 W County Line Rd,40.19996961,-75.11923313,PA
1819,Valhalla,Esposito's,18 Broadway,41.07375,-73.77243,NY
1820,Bethlehem,Martellucci's Pizzeria,1419 Easton Ave,40.63235421,-75.36828965,PA
1821,Yelm,Pizzeria La Gitana,309 E Yelm Ave,46.93996774,-122.6035798,WA
1822,Murrieta,Big Cheese,41070 California Oaks Rd,33.56399219,-117.2037489,CA
1823,New York,Pizza Haven,4942 Broadway,40.867634,-73.92087,NY
1824,Harrisburg,Jo-Jo's,3823 Union Deposit Rd,40.27948073,-76.82726344,PA
1825,Pearland,The Pizza Parlor,2810 Business Center Dr,29.556607,-95.39258415,TX
1826,Houston,Pizza Love,3407 Montrose Blvd,29.74201,-95.39125,TX
1827,Westland,Mancino's Pizza,37632 Ford Rd,42.323948,-83.41109,MI
1828,Allentown,Big Woody's Pizza,702 Hanover Ave,40.61521,-75.44467,PA
1829,Covington,Johnnys Pizza Covington,10176 Carlin Dr,33.5703254,-83.85186577,GA
1830,Aurora,Angelo's Pizzeria & Restaurant,324 Aurora Commons Cir,41.316,-81.3577,OH
1831,New York,Inatteso Pizzabar Casano,28 West St,40.70575,-74.017,NY
1832,Titusville,Kelsey's Pizzeria,2845 Garden St,28.614673,-80.83837978,FL
1833,Brooklyn,Giardini Pizza,363 Smith St,40.6795046,-73.995379,NY
1834,Carmel,Bazbeaux Pizza,111 W Main St,39.9782,-86.12872,IN
1835,Brooklyn,Roberta's Pizza,261 Moore St,40.70508,-73.93359,NY
1836,Knoxville,Sergeant Pepperoni's,4618 Kingston Pike,35.9409,-83.98118,TN
1837,Salt Lake City,Settebello Pizzeria,260 S 200 W,40.763393,-111.89705,UT
1838,Bloomington,Bucceto's Smiling Teeth â€“ East,115 S State Road 46,39.16566407,-86.4985664,IN
1839,Virginia Beach,Brothers Pizza,401 N Great Neck Rd,36.84584086,-76.04914895,VA
1840,Tempe,Venezia's Pizzeria,27 E Southern Ave,33.3914628,-111.9386673,AZ
1841,Rochester,Original Bay Goodman Pizza,667 Titus Ave,43.210414,-77.59874,NY
1842,Bronx,Captain's Pizzeria & Restaurant,1056 Morris Park Ave,40.848698,-73.854256,NY
1843,Indianapolis,Napolese Artisanal Pizzeria,30 S Meridian St,39.7662565,-86.15818333,IN
1844,Salt Lake City,Papa Murphy's,302 S 700 E,40.762771,-111.871122,UT
1845,Salt Lake City,Flatbread,1044 E 2100 S,40.7254,-111.8612,UT
1846,Westerville,Classic Pizza & Sports Bar,742 N State St,40.1449395,-82.92282486,OH
1847,San Diego,A Brooklyn Pizzeria,6171 Mission Gorge Rd,32.78716,-117.09773,CA
1848,Kissimmee,Flippers Pizzeria,5770 W Irlo Bronson Memorial Hwy,28.33155088,-81.51622775,FL
1849,Bothell,Elliott Bay Pizza & Pub,800 164th St SE,47.849423,-122.220494,WA
1850,Laurel,Three Brothers Italian Restaurant,13600 Baltimore Ave,39.07762549,-76.8706727,MD
1851,Boca Raton,Dominic's 1 Pizza & Pasta,8177 Glades Rd,26.36916678,-80.17265455,FL
1852,Boynton Beach,Dean Anthony's,357 N Congress Ave,26.52898394,-80.09236955,FL
1853,Virginia Beach,Sal's Pizzeria,1608 Pleasure House Rd,36.89563038,-76.14023106,VA
1854,Virginia Beach,All Around Pizzas & Subs,3501 Holland Rd,36.80956345,-76.09375477,VA
1855,Danville,Melo's Pizza & Pasta,664 San Ramon Valley Blvd,37.8127556,-121.9945755,CA
1856,Des Moines,Michael's Pizza,2629 Beaver Ave,41.61882,-93.67224,IA
1857,Tampa,Marina's Pizza,12121 W Linebaugh Ave,28.05645858,-82.62423635,FL
1858,Milwaukee,Marco's Pizza,6234 S 27th St,42.93175,-87.94862,WI
1859,Rockledge,Baci Pizza & Subs,760 Barnes Blvd,28.29561433,-80.7370019,FL
1860,Saint Paul,Aromas Pizza,350 Saint Peter St,44.94469579,-93.0951249,MN
1861,Saint Paul,Pino's Pizza - Woodbury,2110 Eagle Creek Ln,44.91838038,-92.901958,MN
1862,Buffalo,Toni Pepperoni,4224 Maple Rd,42.99236,-78.80467,NY
1863,Evanston,Gigio's Pizzeria of Evanston,1001 Davis St,42.04713871,-87.6850422,IL
1864,Niles,Riggio's Restaurant & Pizzeria,7530 W Oakton St,42.02602,-87.81557,IL
1865,Vancouver,Leonardo's,16505 SE 1st St,45.62084556,-122.502446,WA
1866,Beaverton,Papa Murphy's - Murray Blvd,6111 SW Murray Blvd,45.475564,-122.826997,OR
1867,Portland,Muddy Rudder Public House,8195 SE 7th Ave,45.46421446,-122.6592643,OR
1868,Mount Pleasant,A Dough Re Mi,2700 N Highway 17,32.85493178,-79.80395794,SC
1869,Dallas,LA Gourmet Pizza,2709 McKinney Ave,32.79818,-96.80163,TX
1870,Gainesville,Piesano's Stone Fired Pizza,1250 W University Ave,29.652077,-82.33833,FL
1871,Bronx,Tony & Tina's Pizza,2483 Arthur Ave,40.85740366,-73.88597841,NY
1872,Key West,Mr. Z's -New Town,2798 N Roosevelt Blvd,24.56575,-81.77254,FL
1873,Potomac,Sugo Osteria,12505 Park Potomac Ave,39.06036302,-77.15697858,MD
1874,Hollywood,Big Louie's Pizzeria,380 N Park Rd,26.013156,-80.1758321,FL
1875,Mount Prospect,Canta Napoli Pizzeria & Ristorante,90 E Busse Ave,42.06443682,-87.93555074,IL
1876,Atlanta,Vintage Pizzeria,5434 Peachtree Rd,33.89318,-84.29999,GA
1877,Caledonia,Carmelo's Italian Pizza,3555 68th St SE,42.84164,-85.577,MI
1878,Glendale,Hungry Howie's Pizza,3515 W Union Hills Dr,33.65380627,-112.1358123,AZ
1879,Glendale,Lucky's Pizza,6630 W Cactus Rd,33.59623,-112.2008,AZ
1880,Atlanta,Spin,259 Peters St SW,33.74759,-84.40173,GA
1881,Frisco,Papa John's Pizza,2650 King Rd,33.15326382,-96.85514215,TX
1882,Ardmore,Ardmore Pizza,10 Rittenhouse Pl,40.00662,-75.2895,PA
1883,Ardmore,Bella Italia Pizzeria,12 E Lancaster Ave,40.007348,-75.290395,PA
1884,Philadelphia,Not Just Pizza,1030 N American St,39.967197,-75.141014,PA
1885,Virginia Beach,FreshCrust Trattoria,1060 Lynnhaven Pkwy Ste 106,36.80495,-76.07994,VA
1886,Cleveland,Dina's Pizza & Pub,5701 Memphis Ave,41.43994,-81.72634,OH
1887,White Plains,Mario's Pizza & Restaurant,118 Mamaroneck Ave,41.02988222,-73.76554,NY
1888,New York,Patsy's Pizzeria,206 E 60th St,40.761856,-73.965675,NY
1889,Alexandria,Flippin' Pizza Annandale,6544 Little River Tpke,38.82250892,-77.16075872,VA
1890,Fort Collins,Pulcinella Pizza,1119 W Drake Rd,40.55212566,-105.0973033,CO
1891,Indianapolis,Some Guys Pizza,6235 Allisonville Rd,39.86991,-86.0955,IN
1892,Las Vegas,Villa Pizza,3385 S Durango Dr,36.12819135,-115.279723,NV
1893,Owings Mills,Vito's Express,11000 Owings Mills Blvd,39.4239,-76.78,MD
1894,Northville,Aubree's Northville,20420 Haggerty Rd,42.43673068,-83.43467653,MI
1895,Armonk,Amore Pizzeria & Pasta,575 Main St,41.13186316,-73.71264857,NY
1896,Pleasantville,Sal's Pizza & Pasta,201 Marble Ave,41.12614435,-73.78538132,NY
1897,Brooklyn,Napoli's Pizza,594 Crescent St,40.67296847,-73.87084187,NY
1898,New York,Brick Oven Pizza 33,268 W 23rd St,40.74525473,-73.99818524,NY
1899,New York,LJ Pizza,754 10th Ave,40.7654,-73.9909,NY
1900,Birmingham,Amici's,1160 Grant St,42.53845,-83.20988,MI
1901,Wyandotte,JJ's Pizza,1952 Ford Ave,42.214,-83.1759,MI
1902,Dayton,Pizza Factory,1101 Wayne Ave,39.75114,-84.17597,OH
1903,Indianapolis,Papa Murphy's Pizza,2130 E 62nd St,39.869098,-86.124765,IN
1904,Indianapolis,Papa Murphy's Pizza,5945 Crawfordsville Rd,39.797291,-86.263794,IN
1905,Carmel,Papa Murphy's,1950 E Greyhound Pass,40.004602,-86.125084,IN
1906,Sacramento,Papa Murphy's,3291 Truxel Rd,38.627081,-121.498448,CA
1907,Troy,Sbarro,2800 W Big Beaver Rd,42.561436,-83.183863,MI
1908,Spartanburg,Sbarro,205 W Blackstock Rd,34.939526,-81.9949,SC
1909,Cincinnati,Sbarro,7875 Montgomery Rd,39.204368,-84.377994,OH
1910,Pontiac,Guido's Premium Pizza,3999 Centerpoint Pkwy,42.6066,-83.24873,MI
1911,Jamaica,Domenick's Pizza,8774 Sutphin Blvd,40.70518587,-73.809423,NY
1912,Brooklyn,Bene Restaurant & Pizzeria,157 Prospect Park SW,40.654808,-73.97359,NY
1913,Floral Park,V.I. Pizza,55 Covert Ave,40.721558,-73.68864,NY
1914,Glen Arbor,Riverfront Pizza + Speciality,6281 Western Ave,44.89760147,-85.98467231,MI
1915,Campbell,La Pizzeria Italian,373 E Campbell Ave,37.287175,-121.94331,CA
1916,San Diego,Sammy's Woodfired Pizza & Grill,12925 El Camino Real,32.95234633,-117.2325325,CA
1917,San Francisco,Pauline's Pizza & Wine Bar,260 Valencia St,37.768718,-122.422451,CA
1918,San Francisco,zpizza,833 Mission St,37.78337,-122.405426,CA
1919,Brooklyn,Joe's Pizza of the Village,349 5th Ave,40.671802,-73.984187,NY
1920,Brooklyn,Antonio's Pizzeria,318 Flatbush Ave,40.67703,-73.97234,NY
1921,Mount Vernon,Joe's Fleetwood Pizzeria,9 Broad St,40.92622434,-73.83640766,NY
1922,Philadelphia,Santucci's Square Pizza,901 S 10th St,39.9391921,-75.15932351,PA
1923,Lodi,Tony's Pizza,514 W Lodi Ave,38.12921632,-121.2795993,CA
1924,Mesa,Streets Of New York,1959 S Signal Butte Rd,33.379707,-111.60158,AZ
1925,Duluth,Murray's in a Hurry,3940 Peachtree Industrial Blvd,33.98561,-84.17047,GA
1926,Herndon,Lucianos,1050 Elden St,38.96776208,-77.397102,VA
1927,Glenside,Luigi's Pizza & Pasta,3005 Mount Carmel Ave,40.11312,-75.16852,PA
1928,Phoenixville,TD Alfredos,468 Nutt Rd,40.12818,-75.52491,PA
1929,Orlando,Paisano's Pizza,1270 Holden Ave,28.49433119,-81.39615292,FL
1930,Seattle,Domani Pizzeria And Restaurant,1515 Queen Anne Ave N,47.6324,-122.357,WA
1931,Mount Vernon,Alger's Pizza Palace,106 1st St SW,41.9222,-91.4171,IA
1932,Minneapolis,Pizza LucÃ©,800 W 66th St,44.88345356,-93.28989885,MN
1933,Henrico,Apollo's Flame Baked Pizza & More,9410 W Broad St,37.63852843,-77.55400295,VA
1934,Richmond,Candela's Pizzeria and Italiano,2021 Huguenot Rd,37.5213,-77.6137,VA
1935,Alpharetta,Bassano's Pizzeria,10970 State Bridge Rd,34.04791,-84.22408,GA
1936,Chino,Chino Hills Pizza Company,14550 Pipeline Ave,33.988522,-117.716086,CA
1937,Windsor Mill,Buon Giorno,6860 Dogwood Rd,39.32273469,-76.7490809,MD
1938,Costa Mesa,Nick's Pizza Ristorante,2300 Harbor Blvd,33.657205,-117.919052,CA
1939,Fountain Valley,First Class Pizza,18671 Brookhurst St,33.6918,-117.9542,CA
1940,Scarsdale,Scarsdale Pizza Station,844 Scarsdale Ave,40.985848,-73.809012,NY
1941,Altoona,Jethroni Pepperoni,3221 Adventureland Dr,41.65891,-93.49731,IA
1942,Ormond Beach,Mama Mia's Pizzeria,1345 W Granada Blvd,29.26261,-81.10836,FL
1943,Olmsted Falls,Uncle Al's Pizza,27093 Bagley Rd,41.37199,-81.942665,OH
1944,New Buffalo,Villa Nova Pizzeria,134 E Buffalo St,41.79507,-86.74201,MI
1945,New Hope,Spatola's Pizza,86 S Main St,40.361576,-74.950386,PA
1946,Woodbury,Papa John's Pizza,1000 Cooper St,39.828326,-75.12422,NJ
1947,Newark,Christy's Pizza,15 E Church St,40.05905,-82.40235,OH
1948,Hialeah,Di Piazza Italian Restraurant,1408 W 49th St,25.86636778,-80.31123207,FL
1949,Hammond,Aurelio's Pizza - Hammond,4226 Calumet Ave,41.6364965,-87.5091621,IN
1950,Aurora,Papa Severio's Pizzeria,1480 N Orchard Rd,41.78612314,-88.37618748,IL
1951,Islip Terrace,Marys Pizza And Pasta,876 Connetquot Ave,40.76633264,-73.17540127,NY
1952,Montgomery,Papa John's Pizza,18442 Highway 105 W,30.3799,-95.6468,TX
1953,South Lake Tahoe,Goodfellas Pizza,3668 Lake Tahoe Blvd,38.94855,-119.9565,CA
1954,Miami Beach,Groovy's Pizza,332 Lincoln Rd,25.790684,-80.13141,FL
1955,Kennesaw,Big Pie in the Sky Pizzeria,2090 Baker Rd NW,34.0492815,-84.61146355,GA
1956,Seattle,Talarico's,4718 California Ave SW,47.560501,-122.3864,WA
1957,Morrisville,Rosati's,3605 Davis Dr,35.82115846,-78.84954779,NC
1958,Simi Valley,Vincenzo's Pizza,2955 Cochran St,34.281553,-118.7393079,CA
1959,Woodstock,Napoli's Pizza,930 Lake Ave,42.3039372,-88.43380286,IL
1960,Charlotte,Tony's Pizza,1605 Galleria Blvd,35.135172,-80.736568,NC
1961,Philadelphia,City View Pizza and Grill,1434 Cecil B Moore Ave,39.978839,-75.159661,PA
1962,Charlotte,Hawthorne's New York Pizza & Bar,4100 Carmel Rd,35.11671417,-80.82542896,NC
1963,New Lenox,Little Joe's Pizza,1300 N Cedar Rd,41.52983761,-87.96601998,IL
1964,Chincoteague Island,Famous Pizza & Sub Shoppe,6689 Maddox Blvd,37.927836,-75.35564,VA
1965,Mesa,Sourdough Pizza,7440 E Main St,33.4167202,-111.6705751,AZ
1966,Oakmont,Veltre's Pizza & Sandwiches,848 Allegheny River Blvd,40.52513295,-79.84069547,PA
1967,Ypsilanti,Ypsilanti Pizza Depot,308 Perrin St,42.2453923,-83.6204538,MI
1968,Northbrook,Barnaby's - The Family Inn,960 Skokie Blvd,42.13493101,-87.79020786,IL
1969,Northbrook,Jake's Pizza,2722 Dundee Rd,42.138706,-87.846306,IL
1970,Chicago,Angelo's Pizza,3026 W Montrose Ave,41.96125248,-87.70437452,IL
1971,Chicago,John's Pizzeria,2104 N Western Ave,41.92064,-87.68759,IL
1972,Mount Prospect,Salerno's,1716 E Kensington Rd,42.08105825,-87.90684268,IL
1973,Clermont,Calabria's,13900 County Road 455,28.54811878,-81.68140047,FL
1974,West Chester,Mike's Pizza Shoppe,1502 W Chester Pike,39.96567428,-75.52685393,PA
1975,Abington,Mister P's Pasta and Pizza,1427 Old York Rd,40.12312479,-75.11599562,PA
1976,Doylestown,Roman Delight of Fountainville,1456 Ferry Rd,40.34052991,-75.15227784,PA
1977,North Wales,Franconi's Pizzeria,1200 Welsh Rd,40.22709,-75.25945,PA
1978,Garden Grove,Oggi's Pizza & Brewing Company,12362 Chapman Ave,33.788776,-117.91621,CA
1979,Wickliffe,Giuseppe's Pizza & Subs,30441 Euclid Ave,41.61929,-81.45672,OH
1980,Rancho Cucamonga,Dalia's Pizza Market,9588 Baseline Rd,34.12153,-117.59586,CA
1981,Chattanooga,Crust Pizza,103 Signal Mountain Rd,35.08433321,-85.3183446,TN
1982,Gresham,Geno's Sports Bar & Grill,3035 NE Kane Dr,45.51822925,-122.3988054,OR
1983,Germantown,Mangino's Pizza & Subs,20510 Frederick Rd,39.19191327,-77.24317862,MD
1984,Hialeah,Polo norte,2050 W 56th St,25.872627,-80.32496,FL
1985,Spring,Tony's New York Pizza,9203C Louetta,30.00673944,-95.54891854,TX
1986,Saint Cloud,Bella Roma Pizzeria Restaurant,4863 E Irlo Bronson Memorial Hwy,28.247245,-81.24468317,FL
1987,Wyoming,Palermo Pizza,749 36th St SW,42.89895603,-85.68416433,MI
1988,Saint Augustine,Puccini's Pizzeria,85 Ava Way,29.91725,-81.29348,FL
1989,Elmhurst,Pazzi di Pizza,105 S York St,41.89871,-87.93934,IL
1990,Cumming,Jersey Boyz Pizza,5456 Bethelview Rd,34.172527,-84.18911,GA
1991,Beaverton,Hart Road Pizza & Pub,16300 SW Hart Rd,45.46506766,-122.8451883,OR
1992,Manistee,Big Al's Pizza,221 W Parkdale Ave,44.26559,-86.31023,MI
1993,El Segundo,PizzaRev,460 N Sepulveda Blvd,33.92191,-118.396154,CA
1994,Richardson,Sopranos Pizza,5169 N Jupiter Rd,32.96285649,-96.68232679,TX
1995,San Carlos,Nino's Pizzeria,621 Laurel St,37.50605383,-122.2615255,CA
1996,Alto,Mike's Pizza & Subs,6785 Whitneyville Ave SE,42.842372,-85.459362,MI
1997,Philadelphia,California Pizza,3231 Powelton Ave,39.96041,-75.18906,PA
1998,Phoenixville,Valley Forge Trattoria & Lounge,1130 Valley Forge Rd,40.1188802,-75.4905592,PA
1999,Philadelphia,Tower Style Pizza,132 S 20th St,39.95098,-75.17377,PA
2000,Springfield,PaPPo's Pizza,221 E Walnut St,37.2072091,-93.29156399,MO
2001,Tacoma,Farrelli's Wood Fire Pizza,3518 6th Ave,47.25517556,-122.4833745,WA
2002,Syracuse,Franco's Pizzeria,901 E Genesee St,43.046986,-76.1375895,NY
2003,Columbia,Village Idiot,2009 Devine St,33.998814,-81.016823,SC
2004,Charlotte,Hawthorne's New York Pizza & Bar,1701 E 7th St,35.21591371,-80.82177247,NC
2005,Escondido,Pizza Amore,845 S Escondido Blvd,33.113381,-117.079271,CA
2006,Montauk,Pizza Village,700 Montauk Hwy,41.03342,-71.94617,NY
2007,Madison,Rocky Rococo Pan Style Pizza - Campus/Downtown,1301 Regent St,43.06749,-89.40765,WI
2008,Newnan,Johnny's Pizza,1111 Lower Fayetteville Rd,33.37516519,-84.7527771,GA
2009,Las Vegas,Northside Nathan's Pizza,7531 W Lake Mead Blvd,36.19568716,-115.2583285,NV
2010,Toledo,Jo-Jo's Pizza,4336 Monroe St,41.684531,-83.612192,OH
2011,Lakeland,Lakeland Stadium Pizza and Italian Grill,1035 E County Road 540A,27.95274861,-81.94742665,FL
2012,Lebanon,Mio's,402 N Broadway St,39.43948825,-84.20748128,OH
2013,Chico,Celestino's New York Pizza,101 Salem St,39.72965,-121.84286,CA
2014,Los Angeles,Stella Barra Pizzeria,6372 W Sunset Blvd,34.0977173,-118.3286819,CA
2015,Seattle,Stellar Pizza,5513 Airport Way S,47.553103,-122.3209137,WA
2016,Albany,D'Carlitos Pizza,215 Western Ave,42.662027,-73.776767,NY
2017,Minneapolis,Pizza LucÃ©,2200 E Franklin Ave,44.96298599,-93.240448,MN
2018,Los Angeles,800 Degrees Neapolitan Pizzeria,10889 Lindbrook Dr,34.05965559,-118.4444241,CA
2019,New York,John & Tony's,1097 1st Ave,40.765915,-73.95739,NY
2020,New York,2 Bros. Pizza,542 9th Ave,40.757042,-73.9936,NY
2021,San Francisco,Pizza Pino,1534 California St,37.79076,-122.419738,CA
2022,Mesquite,Joe's Pizza Italian Grill,910 Tripp Rd,32.79769,-96.6104,TX
2023,Boca Raton,Grande Pizza Company,6006 SW 18th St,26.33146074,-80.13732433,FL
2024,Dallas,Carmine's Pizzeria,2006 San Jacinto St,32.786255,-96.79813,TX
2025,Decatur,Mojo Pizza n' Pub,657 E Lake Dr,33.75941048,-84.30353696,GA
2026,Tulsa,Mario's NY Style Pizzeria,3350 E 51st St,36.088642,-95.93723,OK
2027,Oakland,Lanesplitter Pizza & Pub,4799 Telegraph Ave,37.83502338,-122.2630597,CA
2028,Newbury Park,Magoo's Pizza,722 N Wendy Dr,34.18754161,-118.9417219,CA
2029,Frankfort,Durbins Of Frankfort,14 Elwood St,41.49908154,-87.84995645,IL
2030,Dublin,Me-n-Ed's Pizzeria,4930 Dublin Blvd,37.703783,-121.884947,CA
2031,Hamtramck,Amar pizza,11608 Conant St,42.40496287,-83.05426419,MI
2032,New Orleans,Ancora Pizzeria,4508 Freret St,29.935144,-90.1043,LA
2033,Detroit,Passport Pizza - Midtown,4200 Woodward Ave,42.35168,-83.06074,MI
2034,Lafayette,Angelo's Cucina e Pizzeria,300 S Public Rd,39.99624,-105.09044,CO
2035,Dallas,Piggie Pies Pizza & Pasta,5315 Greenville Ave,32.85168157,-96.77007914,TX
2036,Oklahoma City,Mazzio's Pizza,900 SW 104th St,35.36287727,-97.530497,OK
2037,New York,Two Boots Hell's Kitchen,625 9th Ave,40.75984,-73.9916,NY
2038,Clearwater,Cafe Milano Italian Restaurant and Pizzeria,105 N Fort Harrison Ave,27.96724,-82.79973,FL
2039,Hollywood,Capone's Flicker Lite Pizza & Raw Bar,1014 N Ocean Dr,26.01804689,-80.11738726,FL
2040,Alpharetta,Mama's Pizza,5950 N Point Pkwy,34.0495304,-84.28324699,GA
2041,Astoria,Michael Angelo's Pizza,2911 23rd Ave,40.77499,-73.91327,NY
2042,Troy,Bellacino's Pizza & Grinders,166 W Maple Rd,42.54842,-83.14925,MI
2043,Houston,Pinks Pizza,4701 Calhoun Rd,29.722603,-95.337208,TX
2044,Fort Worth,Fox & Hound,6051 SW Loop 820,32.68152044,-97.41557985,TX
2045,Columbus,JT's Pizza & Pub,2390 W Dublin Granville Rd,40.09033025,-83.0534091,OH
2046,Cocoa,Ryan's Village Pizza and Pub,405 Delannoy Ave,28.35505825,-80.7242542,FL
2047,Elgin,Danny's Pizza on Douglas,231 Douglas Ave,42.0415486,-88.2834486,IL
2048,Morton Grove,Pequod's Pizzeria,8520 Fernald Ave,42.03621622,-87.782626,IL
2049,Houston,Brother's Pizza,9719 Mills Rd,29.9588,-95.5647,TX
2050,Greenwood,Luca Pizza di Roma,250 S State Road 135,39.61250937,-86.15865039,IN
2051,Riverview,Hungry Howie's Pizza And Subs,9990 US Highway 301 S,27.854433,-82.32657,FL
2052,Woodinville,The Pizza Coop and Ale House,13317 NE 175th St,47.75379,-122.16069,WA
2053,Forest Hills,Due Fratelli,10116 Queens Blvd,40.725945,-73.85218,NY
2054,East Lansing,Cottage Inn,615 E Grand River Ave,42.73323545,-84.47601542,MI
2055,South Bend,The Volcano,3690 Lincoln Way W,41.693293,-86.300641,IN
2056,Chicago,Falco's,2806 W 40th Pl,41.820146,-87.69470172,IL
2057,Mebane,Martinho's Bakery & Deli & Pizza,106 W Clay St,36.09714455,-79.26787878,NC
2058,Pinellas Park,Joto's Pizza Pub,8080 49th St N,27.845533,-82.700424,FL
2059,Grand Forks,Deek's Pizza,512 N Washingon St,47.92461,-97.044785,ND
2060,Dacula,Luigi's Pizza Restaurant Of Dacula,2300 Liam Ave,34.004447,-83.914164,GA
2061,Indianapolis,Donato's Pizza,7460 N Shadeland Ave,39.890238,-86.04678,IN
2062,Raleigh,Papa John's Pizza,2904 Wake Forest Rd,35.820534,-78.623111,NC
2063,Chicago,Apart Pizza Company,5624 N Broadway St,41.984474,-87.660095,IL
2064,Chicago,Primos Chicago Pizza Pasta and Subs,816 W Van Buren St,41.87677029,-87.64841847,IL
2065,Chicago,Lina's Pizza,3132 S Morgan,41.836956,-87.65115232,IL
2066,Chicago,Beggers Pizza,8100 S Stony Island Ave,41.74784,-87.58587,IL
2067,Yonkers,Dom and Vinnie's Restaurant,351 Saw Mill River Rd,40.94877,-73.87673,NY
2068,Berwyn,Papa John's Pizza,6628 Cermak Rd,41.85072,-87.78993,IL
2069,Jacksonville,Tony D's New York Pizza Restaurant,8358 Point Meadows Dr,30.2175,-81.52053,FL
2070,Fairport,Salvatore's Old Fashioned Pizzeria,55 S Main St,43.10002674,-77.44177696,NY
2071,Columbus,Donatos Pizza,920 N High St,39.981262,-83.00408,OH
2072,Aberdeen,Pats Pizza,220 S Philadelphia Blvd,39.50617686,-76.16617219,MD
2073,Buffalo,Pepe's,640 Colvin Ave,42.95816839,-78.859217,NY
2074,South Elgin,Pasta Mia,325 E State St,41.99416655,-88.2905105,IL
2075,Flushing,Matese Pizzeria,2615 Francis Lewis Blvd,40.7727,-73.79487,NY
2076,Philadelphia,Village Pizza,3233 Powelton Ave,39.960509,-75.18915,PA
2077,Delray Beach,Scuola Vecchia Pizza E Vino,522 E Atlantic Ave,26.4614,-80.06729,FL
2078,Glen Cove,Amalfi Pizzeria and Restaurant,197 Forest Ave,40.874176,-73.61867,NY
2079,Simpsonville,Bertolo's Pizza,120 Highway 14 Ste D,34.75631,-82.26725,SC
2080,Tallahassee,The Red Elephant,1872 Thomasville Rd,30.4645763,-84.27093029,FL
2081,Pasco,Rocco's,6415 Burden Blvd,46.27084465,-119.1745377,WA
2082,Lexington,Ray's Pizzeria and Ice Cream Shoppe,5140 Sunset Blvd,34.007224,-81.198213,SC
2083,Wheaton,Evviva Pizzeria,1022 College Ave,41.86899252,-88.09073687,IL
2084,Tulsa,Top That! Pizza - Midtown Tulsa,5347 E 41st St,36.10533976,-95.91561679,OK
2085,Cambridge,Wally's Pizza,1860 E Wheeling Ave,40.026986,-81.57295906,OH
2086,Yakima,Abby's Pizza,4804 Tieton Dr,46.59229185,-120.5734884,WA
2087,Roseville,Campelli's Pizza,7480 Foothills Blvd,38.77131,-121.31338,CA
2088,Augusta,Marco's Pizza,229 Furys Ferry Rd,33.51778,-82.05932,GA
2089,Erie,Skippereno's,1604 W Grandview Blvd,42.08356203,-80.09611149,PA
2090,Jefferson City,Gondolier Italian Restaurant & Pizza,544 E Broadway Blvd,36.12602386,-83.47029153,TN
2091,Charleston,Mama Rosa's Pizzeria,527 Washington St W,38.36390177,-81.64335251,WV
2092,Apex,Michelangelo's Pizza,928 US 64 Hwy W,35.74395,-78.82212,NC
2093,Villa Rica,Johnny's New York Style Pizza And Subs,2000 Mirror Lake Blvd,33.733805,-84.900134,GA
2094,Marietta,Johnny's New York Style Pizza,4880 Lower Roswell Rd,33.96596,-84.40928,GA
2095,Lewisville,Carmine's Pizza,1565 W Main St,33.04275726,-97.0334175,TX
2096,Hollywood,Grande Pizza Co.,3373 Sheridan St,26.03365408,-80.17721041,FL
2097,Newnan,Joe Friday's Brick Oven Pizza,101 Newnan Crossing Byp,33.393151,-84.76058485,GA
2098,Tampa,Paci's Pizza,2307 S Dale Mabry Hwy,27.92461767,-82.50625544,FL
2099,Indianapolis,Magoo's California Pizza,4919 W 38th St,39.823238,-86.24306285,IN
2100,Saint Louis,Bono's Pizzeria,4500 Hampton Ave,38.5896711,-90.29440023,MO
2101,Philadelphia,Zesto Pizza,6024 Ridge Ave,40.03231121,-75.21398513,PA
2102,Phoenix,Streets of New York,16838 N 7th St,33.6392,-112.0656,AZ
2103,Littleton,L'il Ricci's - Highlands Ranch,44 Centennial Blvd,39.56196,-104.98794,CO
2104,Pittsburgh,Mineo's Pizza,2128 Murray Ave,40.4328891,-79.9231777,PA
2105,Phoenix,Nicks Italian Bistro,10810 N Tatum Blvd,33.5849061,-111.9785464,AZ
2106,McAllen,Double Dave's Pizza,7700 N 10th St,26.272909,-98.21736574,TX
2107,Mesa,Buono's New York Style Pizza,2023 W Guadalupe Rd,33.36293641,-111.8774486,AZ
2108,Denver,The Garlic Knot,2553 S Colorado Blvd,39.670606,-104.941363,CO
2109,Indianapolis,Gallaghers Place,8028 S Emerson Ave,39.650883,-86.08267,IN
2110,Omaha,Roman Coin Pizza,4900 Dodge St,41.2597,-95.98789,NE
2111,Gurnee,Giordano's Pizza,7105 Grand Ave,42.385397,-87.97780216,IL
2112,Georgetown,Fat Kats Pizzeria,3073 Paris Pike,38.216446,-84.530774,KY
2113,Springfield,Wannagettapizza,3200 S National Ave,37.154252,-93.276729,MO
2114,Clarksville,Papa John's Pizza,1483 Madison St,36.52092632,-87.33135603,TN
2115,Benton,U.S. Pizza Co.,3600 Highway 5,34.597916,-92.60228,AR
2116,Port Orange,Luigi's Pizzeria Cafe,1633C Taylor Rd,29.14240536,-81.03634925,FL
2117,Dallas,Sal's Pizzeria,308 Main St,33.92274,-84.840521,GA
2118,Melbourne,Ferrara Pizza & Pasta,4270 Minton Rd,28.03679,-80.67277,FL
2119,Toledo,Vito's Pizza,3130 W Central Ave,41.6777,-83.62032831,OH
2120,Shelbyville,Cagney's Pizza King,33 E Broadway St,39.52263,-85.77574,IN
2121,Westminster,Dino's Pizza,6391 Westminster Blvd,33.75984732,-118.0177975,CA
2122,Yonkers,Singas Famous Pizza,2500 Central Park Ave,40.98249,-73.82846,NY
2123,Lafayette,Papa John's Pizza,2844 Verot School Rd,30.14156,-92.03255,LA
2124,Beaufort,The Upper Crust,97 Sea Island Pkwy,32.417544,-80.656294,SC
2125,Reno,Pizano's Pizza,95 N Sierra St,39.52523,-119.81442,NV
2126,South Bend,Little Caesars Pizza,3601 Edison Rd,41.69524,-86.19735,IN
2127,Saint Paul,Tommy Chicago's Pizzeria,730 Main St,44.88429,-93.12089,MN
2128,Salem,Padington's Pizza,410 Pine St NE,44.96198,-123.02982,OR
2129,Austin,Papa John's Pizza,411 W Martin Luther King Jr Blvd,30.2814,-97.7421,TX
2130,Eau Claire,Buzzy's Pizza Emporium,414 Water St,44.8023,-91.508,WI
2131,Bronx,Franks Original Pizza Italia,768 Castle Hill Ave,40.8227786,-73.84894464,NY
2132,Bartow,Palace Pizza Bartow,105 E Main St,27.89632517,-81.84310734,FL
2133,Detroit,Sgt. Pepperoni's,4120 Woodward Ave,42.35114625,-83.06025004,MI
2134,Spring,Grimaldi's Pizzeria,20 Waterway Ct,30.16019322,-95.45896053,TX
2135,Missoula,Papa John's Pizza,3100 Brooks St,46.8423,-114.0271,MT
2136,Huntington Beach,Pizza Lounge,301 Main St,33.659634,-117.999886,CA
2137,Eugene,Papas Pizza,1700 W 11th Ave,44.0474,-123.11849,OR
2138,Fort Smith,Papa's Pub & Pizzaria,508 Garrison Ave,35.38754068,-94.42610928,AR
2139,Hanford,Fatte Albert's,110 E 7th St,36.3267754,-119.6453331,CA
2140,Round Rock,Brooklyn Pie Co.,2711 La Frontera Blvd,30.48033763,-97.68489361,TX
2141,Plano,Chicago's Gourmet Pizza,8308 Preston Rd,33.09137035,-96.80370489,TX
2142,Goodlettsville,Painturo's,430 Long Hollow Pike,36.330383,-86.698296,TN
2143,Rochester,zpizza,111 S Broadway,44.02239,-92.46348,MN
2144,Indianapolis,Lucas Pizza,1024 N Shadeland Ave,39.78234944,-86.04599695,IN
2145,Rocklin,Via Roma,1230 Sunset Blvd,38.810996,-121.284735,CA
2146,Chandler,NYPD Pizza,2580 W Chandler Blvd,33.30693154,-111.8855488,AZ
2147,Greenville,Tony's Pizzeria,30 Orchard Park Dr,34.85581719,-82.33362478,SC
2148,Saint Cloud,App's Pizza,2615 13th St,28.24571781,-81.29899995,FL
2149,Orlando,Fratelli's Italian Restaurant,373 N Orange Ave,28.547005,-81.37883,FL
2150,Oxford,Will's Pizza,11 W Church St,39.51141,-84.7429,OH
2151,Rolla,Alex's Pizza,122 W 8th St,37.949963,-91.7711,MO
2152,San Luis Obispo,Village Host Pizza,2138 Broad St,35.27051115,-120.6567292,CA
2153,La Vergne,Sir Pizza,1925 Madison Square Blvd,36.020683,-86.57829,TN
2154,Detroit,Jerry's Pizza & Bar-b-q,11749 Livernois Ave,42.37521172,-83.13925803,MI
2155,Rochester,Georgio's,117 S Main St,42.67741868,-83.13394551,MI
2156,Dublin,Johnny's Pizza and Subs,2301 Bellevue Rd,32.529594,-82.94294,GA
2157,Twin Falls,Maxie's Pizza,170 Blue Lakes Blvd,42.54979861,-114.4600283,ID
2158,Louisville,Sicilian Pizza & Pasta,631 S 4th St,38.24793,-85.75804,KY
2159,Chicago,Gullivers Pizza and Pub Chicago,2727 W Howard St,42.01927635,-87.69827824,IL
2160,Austin,Conans Pizza North,2438 W Anderson Ln,30.3571937,-97.73145676,TX
2161,Pflugerville,Yaghi's New York Pizzeria,1552 FM 685,30.45298831,-97.60445416,TX
2162,Yonkers,Gigi's Pizza,495 Odell Ave,40.96648706,-73.87253589,NY
2163,Jasper,Villa Pizzeria,124 3rd Ave,38.3886,-86.92776,IN
2164,Chicago,Naty's Pizza,1757 W Chicago Ave,41.895775,-87.671906,IL
2165,Rock Island,Huckleberry's Pizza,223 18th St,41.51030524,-90.5745357,IL
2166,Baldwinsville,Pizza Man Pub,50 Oswego St,43.15897383,-76.33266642,NY
2167,San Antonio,Chicago's Pizza,12072 Blanco Rd,29.55166161,-98.511925,TX
2168,Austin,Gatti's Pizza,2410 E Riverside Dr,30.2363,-97.7249,TX
2169,Troy,Chandler Brothers' Pizza Man,611 Edwardsville Rd,38.7326579,-89.89893363,IL
2170,Auburndale,Papa John's Pizza,2010 Us Hwy 92W,28.05852885,-81.81299702,FL
2171,Glendale,Ray's Pizza,15603 N 59th Ave,33.6265,-112.18497,AZ
2172,Tucson,Monkey Business,8579 N Silverbell Rd,32.36276695,-111.120961,AZ
2173,Martinsburg,Kings New York Pizza - Martinsburg,313 Rock Cliff Dr,39.47326262,-77.97060544,WV
2174,Broken Arrow,Andolini's Pizzeria Broken Arrow,222 S Main St,36.05076068,-95.79092819,OK
2175,New Rochelle,Townhouse Pizza,2 Anderson St,40.90223679,-73.7899944,NY
2176,Missouri City,Centercourt Pizza & Brew,7425 Texas 6,29.5514188,-95.5514926,TX
2177,Los Angeles,The Coop Pizza,10006 National Blvd,34.029106,-118.4038,CA
2178,Tucson,Hungry Howie's Pizza,3122 N Campbell Ave,32.26363,-110.94319,AZ
2179,Nashville,Sicilian Pizza & Pasta,905 Church St,36.16096,-86.78462,TN
2180,Cleveland,Papa Nick's,11534 Clifton Blvd,41.48745138,-81.76733208,OH
2181,Oregon City,Sparky's Pizza,19550 Molalla Ave,45.32425129,-122.5796567,OR
2182,Solana Beach,Bongiorno's New York Pizzeria,524 Stevens Ave Ste 11,32.99051,-117.2606,CA
2183,Santa Barbara,Giovanni's,1187 Coast Village Rd,34.42067,-119.64497,CA
2184,Denver,Nicolo's Chicago Style Pizza,1209 E 13th Ave,39.73694867,-104.972624,CO
2185,Fulton,brooklyn pizza,501 Court,38.847474,-91.948111,MO
2186,Morgan Hill,Hang Ten Pizza & Pasta,17020 Condit Rd,37.13361,-121.63039,CA
2187,Prospect,Johnny Brusco's New York Style Neighborhood Pizzeria,10600 Meeting St,38.32301762,-85.56573539,KY
2188,Topeka,Via's Pizzeria,738 SW Gage Blvd,39.05598,-95.72465,KS
2189,Maumelle,U.S. Pizza Co.,109 Commons Dr,34.84839,-92.405876,AR
2190,Marshall,Gucci's Pizza,206 E End Blvd S,32.54415,-94.34997,TX
2191,Buffalo,Partner's Pizzeria,395 Shanley St,42.882531,-78.798653,NY
2192,Buffalo,Picasso's Pizza,6812 Transit Rd,42.95314,-78.69737,NY
2193,Oklahoma City,The Wedge Pizzeria,230 NE 1st St,35.4684,-97.50776,OK
2194,Pittsburgh,Foli's Pizza,1050 Brinton Rd,40.42879723,-79.87477899,PA
2195,New York,King's Pizza,110 W 145th St,40.82048,-73.93656,NY
2196,Paducah,Michael's Pizzeria,907 Kentucky Ave,37.08332442,-88.60417843,KY
2197,Lindenhurst,Stella's II Pizzeria & Restaurant,273 S Wellwood Ave,40.684638,-73.371061,NY
2198,Belmont,Toto's Pizzeria & Restaurant,1250 El Camino Real,37.51868606,-122.2742969,CA
2199,Reno,Lamppost Pizza,1141 Steamboat Pkwy,39.42376,-119.7385,NV
2200,Indianapolis,Bob's Tu Your Door Pizza,3653 Carson Ave,39.71215533,-86.12547398,IN
2201,Grand Haven,Mr. Scrib's,317 N Beacon Blvd,43.06430846,-86.22101847,MI
2202,Austin,East Side Pies,5312 Airport Blvd Ste G,30.31478,-97.71514,TX
2203,Aurora,Papa Murphy's,15440 E Hampden Ave,39.65299,-104.80809,CO
2204,Cleveland,Geppetto's,4312 Ridge Rd,41.43924378,-81.73568205,OH
2205,Farmerville,Johnny's Pizza,717 Sterlington Hwy,32.77083563,-92.39532123,LA
2206,Topeka,Buzzard's Pizza,4745 NW Hunters Ridge Cir,39.13198,-95.7167,KS
2207,Peoria,Buca di Beppo Italian Restaurant,16091 N Arrowhead Fountains Ctr Dr,33.632437,-112.236786,AZ
2208,Eugene,Papa's Pizza,1577 Coburg Rd,44.07913278,-123.0677806,OR
2209,Clinton Township,Detroit Style Pizza Company,40750 Garfield Rd,42.59686289,-82.95162349,MI
2210,Austin,Milano Pizza,1025 W Stassney Ln,30.210287,-97.786645,TX
2211,Oklahoma City,Papa Dino's,718 Culbertson Dr,35.48628117,-97.49983419,OK
2212,Newberry,Villaggio's Pizzeria,179 SW 250th St,29.64498172,-82.60638218,FL
2213,Clinton Township,Hungry Howie's Pizza,20824 Hall Rd,42.62802,-82.91336,MI
2214,Waterford,Jet's Pizza,5332 Dixie Hwy,42.69682158,-83.393951,MI
2215,Bowling Green,Pisanellos,203 N Main St,41.37624548,-83.65051423,OH
2216,New York,Joey Pepperoni's Pizza,493 2nd Ave,40.74099,-73.97904,NY
2217,Alachua,Main Street Pie Company,14933 Main St,29.792139,-82.49557078,FL
2218,Columbia,Joe Boccardi's,117 S Main St,38.44239653,-90.19928813,IL
2219,Pataskala,Capuano's Pizza,24 S Township Rd,40.00278963,-82.67203522,OH
2220,Chandler,Rosati's Pizza,1050 E Ray Rd,33.32082,-111.82304,AZ
2221,Flower Mound,Palio's,2628 Long Prairie Rd,33.021959,-97.07020442,TX
2222,Richmond,Papa John's Pizza,7019 Forest Hill Ave,37.5374,-77.5253,VA
2223,South Bend,Papa John's Pizza,928 S Mayflower Rd,41.66372,-86.32198,IN
2224,Vinton,New York Pizza and Subs,708 Hardy Rd,37.27348243,-79.89164484,VA
2225,New York,Papa John's Pizza,12 E 37th St,40.7498,-73.9823,NY
2226,Sandy,Sparky's Pizza,38996 Proctor Blvd,45.396874,-122.2625996,OR
2227,Akron,Gionino's Pizzera,3571 Brookwall Dr,41.13375116,-81.63874914,OH
2228,Kendallville,Pizza Forum,120 N Main St,41.444155,-85.265785,IN
2229,Lubbock,Pizza Hut,1905 50th St,33.548657,-101.859517,TX
2230,Waynesville,Bentino's Pizza,121 S Main St,39.529212,-84.087189,OH
2231,Fontana,The Original Graziano's,7426 Cherry Ave,34.11957672,-117.4894774,CA
2232,Rochester,Gates' Pontillo's Pizzeria,777 Spencerport Rd,43.17134369,-77.71102786,NY
2233,Baltimore,Nino Pizza,4 E Preston St,39.30451699,-76.61592292,MD
2234,Houston,Sarpino's Pizzeria,2473 S Braeswood Blvd,29.69713,-95.41746,TX
2235,New York,Papa John's Pizza,703 Lenox Ave,40.81993,-73.93671,NY
2236,Florence,Papa Dino's Pizza,290 Main St,38.99982,-84.62693,KY
2237,Clovis,Papa John's,705 E 21st St,34.41913529,-103.19758,NM
2238,Rome,DiCastro's Brick Oven,615 Erie Blvd W,43.21503702,-75.47144514,NY
2239,Yucca Valley,Papa John's Pizza,57274 Twentynine Palms Hwy,34.12425242,-116.4146083,CA
2240,Locust Grove,American Pie Pizzaria,662 Peeksville Rd,33.35046888,-84.09163489,GA
2241,Baltimore,Pizza Boli's,300 W 29th St,39.32223,-76.62254,MD
2242,Altoona,Dino's Pizza (2nd Floor),720 Logan Valley Mall,40.46919938,-78.41174729,PA
2243,Clinton Township,Domino's Pizza,41880 Garfield Rd,42.60476297,-82.95233488,MI
2244,Duvall,Red Pepper Pizzeria & Pasta,15720 Main St NE,47.741921,-121.985853,WA
2245,North Wilkesboro,Village Inn Pizza Parlor,1922 West Park,36.1557128,-81.16268548,NC
2246,Gainesville,I Love NY Pizza,2645 SW 91st St,29.62944,-82.43758,FL
2247,Richmond,Pie Restaurant,214 N Lombardy St,37.55047,-77.45936,VA
2248,Eugene,Abby's Pizza,1976 Echo Hollow Rd,44.0839722,-123.1683382,OR
2249,Brooklyn,Original Mike's Pizza,3337 Fulton St,40.68367,-73.872607,NY
2250,Chicago,Giordano's,700 E Grand Ave,41.89175,-87.60965,IL
2251,Decorah,Mabe's Pizza,110 E Water St,43.304268,-91.78518,IA
2252,Taneytown,Tony's Cafe,502 E Baltimore St,39.64840386,-77.15846706,MD
2253,Philadelphia,Santucci's Square Pizza V,2313 E Venango St,39.99409,-75.09718008,PA
2254,McKinney,Papa John's Pizza,2310 Virginia Pkwy,33.198826,-96.642706,TX
2255,Blackstone,Brothers Pizza,301 N Main St,37.083103,-77.99637243,VA
2256,Portland,Rovente Pizza,512 SW 4th Ave,45.51944,-122.67569,OR
2257,Spring Hill,Slice of Life Pizzeria,188 Mariner Blvd,28.4360919,-82.54755772,FL
2258,Flower Mound,Papa John's Pizza,2201 Long Prairie Rd,33.015247,-97.07087,TX
2259,Mary Esther,County Line Pizza & Side Walk Cafe,433 Page Bacon Rd,30.41922955,-86.65411528,FL
2260,Houston,Papa John's Pizza,8420 S Sam Houston Pkwy W,29.621528,-95.509214,TX
2261,Elizabethton,Greg's Pizza - Elizabethton,766 W Elk Ave,36.348694,-82.237773,TN
2262,Pennsburg,Tosco's Pizza and Restaurant,824 Main St,40.39026479,-75.49097877,PA
2263,Niles,Nancy's Pizzeria,8706 W Golf Rd,42.05480777,-87.84323635,IL
2264,Thornwood,Thornwood Pasta & Pizza,808 Commerce St,41.12053545,-73.7823987,NY
2265,Red Hook,Salvatore's Italian Pizza Restaurant,7588 N Broadway,41.99889796,-73.87276232,NY
2266,Las Vegas,Angelinas Pizza,5821 E Charleston Blvd,36.15815,-115.0470513,NV
2267,Midlothian,Papa John's Pizza,6633 Lake Harbour Dr,37.4051,-77.671,VA
2268,South Holland,Papa John's Pizza,1001A E 162nd St,41.6005876,-87.59280308,IL
2269,Aurora,Papa John's Pizza,2150 W Galena Blvd,41.764308,-88.369725,IL
2270,Scranton,Grande Pizza,301 S Blakely St,41.4193,-75.6326,PA
2271,Middletown,Bruno's Pizza,6752 Cincinnati Dayton Rd,39.38068,-84.37553,OH
2272,Cleveland,Sainato's Restaurant,1861 Columbus Rd,41.48918574,-81.70059467,OH
2273,Houston,Little Caesars Pizza,3910 Aldine Mail Rd,29.901983,-95.33408,TX
2274,Palmer,Little Caesars Pizza,304 W Evergreen Ave,61.59924,-149.11848,AK
2275,Houston,Carrabba's - The Original on Voss,1399 S Voss Rd.,29.752692,-95.501199,TX
2276,New York,Don Filippo,1133 Lexington Ave,40.77467509,-73.95917539,NY
2277,Glendale,Oggi's Pizza & Brewing Company,6681 W Beardsley Rd,33.6673,-112.2022,AZ
2278,Puyallup,The Rock Wood Fired Kitchen,4301 S Meridian,47.15059646,-122.2916359,WA
2279,Wake Forest,Bella Italia,109-5 Capcom Ave,35.95055183,-78.5286076,NC
2280,Pleasantville,Wood and Fire,59 Marble Ave,41.131494,-73.790872,NY
2281,Buffalo,Carbone's Pizzeria,1126 E Lovejoy St,42.88975893,-78.80674718,NY
2282,Saint Charles,Giordano's Pizza,3641 E Main St,41.9213,-88.2753,IL
2283,Las Vegas,Round Table Pizza,7460 W Lake Mead Blvd,36.19618,-115.25624,NV
